{"type":"FeatureCollection","features":[{"type":"Feature","properties":{"id":"ab"},"geometry":{"type":"Polygon","coordinates":[[[-120.0013586,60.0004699],[-120.0012733,53.7987116],[-119.9984233,53.8046354],[-119.9814748,53.8001561],[-119.9818419,53.7907747],[-119.9489281,53.7752008],[-119.8887311,53.7763984],[-119.8979348,53.7556314],[-119.8911896,53.7490146],[-119.9040734,53.7374145],[-119.8976643,53.7283892],[-119.9166059,53.7183374],[-119.9122082,53.7115662],[-119.8480666,53.7128907],[-119.8472822,53.7003213],[-119.8378482,53.6945322],[-119.8060179,53.7067768],[-119.792713,53.7032478],[-119.7723121,53.674884],[-119.7396908,53.6637953],[-119.7376512,53.6316286],[-119.7164579,53.6125977],[-119.7500465,53.5908637],[-119.7702669,53.589973],[-119.8324182,53.6100034],[-119.8567168,53.6063284],[-119.8789368,53.6183847],[-119.9217569,53.6145367],[-119.931552,53.608755],[-119.8618807,53.5531549],[-119.8989023,53.5351135],[-119.9010822,53.5164353],[-119.8655231,53.5002316],[-119.8354379,53.5185257],[-119.8157695,53.5005701],[-119.7849374,53.4915084],[-119.7822084,53.4858398],[-119.7941456,53.4786002],[-119.7722977,53.4440026],[-119.7590922,53.4385334],[-119.7670445,53.4293922],[-119.7316892,53.4034444],[-119.7301898,53.3888855],[-119.700061,53.3903678],[-119.6799622,53.379222],[-119.6809456,53.3701711],[-119.6065643,53.3631711],[-119.5971803,53.3672318],[-119.6105479,53.3817347],[-119.6057572,53.3847643],[-119.5458303,53.3639323],[-119.5205017,53.3705057],[-119.4474319,53.348927],[-119.4104989,53.3667731],[-119.3909537,53.3593735],[-119.3517715,53.330036],[-119.3493062,53.3163691],[-119.3592641,53.3087314],[-119.3320158,53.2986607],[-119.3432175,53.2842877],[-119.3008721,53.2566859],[-119.2700343,53.2215349],[-119.2528145,53.1899991],[-119.2613053,53.1766455],[-119.2366757,53.1821543],[-119.2369887,53.192984],[-119.2287909,53.1953698],[-119.1918395,53.1830128],[-119.1478793,53.1909567],[-119.1224254,53.1598876],[-119.0867053,53.1628406],[-119.0493397,53.1446526],[-119.0487747,53.1256608],[-119.0273561,53.1238373],[-118.9940305,53.1413231],[-119.0300793,53.1629499],[-118.9949203,53.1936891],[-118.9933128,53.2052685],[-119.0258252,53.2232814],[-118.9823508,53.239955],[-118.9481381,53.2368196],[-118.9252673,53.2253927],[-118.9201646,53.2122211],[-118.8753722,53.2045484],[-118.8617343,53.1879887],[-118.834168,53.1843435],[-118.8286821,53.1723374],[-118.7926541,53.1615363],[-118.7827298,53.1502958],[-118.789628,53.1458134],[-118.7824183,53.1345722],[-118.7289006,53.112413],[-118.7513227,53.0979018],[-118.7497245,53.0861551],[-118.7705277,53.0743571],[-118.7651967,53.0630017],[-118.7781641,53.0463661],[-118.7620783,53.0367123],[-118.7600266,53.0446461],[-118.7312327,53.058119],[-118.70308,53.0461035],[-118.6969158,53.0319391],[-118.6735763,53.0416902],[-118.6571189,53.0343862],[-118.6550323,53.0131325],[-118.640158,52.9987012],[-118.6509114,52.999312],[-118.6479922,52.9933616],[-118.6728629,52.9783847],[-118.6622912,52.9744956],[-118.6627501,52.9632952],[-118.649393,52.9525757],[-118.6106019,52.9356398],[-118.6228105,52.9198555],[-118.6074102,52.9059398],[-118.6171462,52.8985109],[-118.6154927,52.8812681],[-118.5770481,52.8852293],[-118.5497579,52.9073806],[-118.5223345,52.8967011],[-118.4982156,52.9058344],[-118.4530295,52.886921],[-118.4533314,52.8758521],[-118.4644568,52.8686254],[-118.4469081,52.852884],[-118.3841324,52.8471631],[-118.4025483,52.8428754],[-118.3989896,52.820022],[-118.4232146,52.7966483],[-118.4188891,52.7737783],[-118.3284665,52.7378684],[-118.3409193,52.7268558],[-118.3444449,52.7095817],[-118.3013456,52.6929755],[-118.2883048,52.6786988],[-118.2978901,52.6551025],[-118.3189752,52.6566852],[-118.3329448,52.6410159],[-118.3528256,52.6366607],[-118.356448,52.614863],[-118.332472,52.6042793],[-118.3365192,52.5858619],[-118.3287618,52.5777251],[-118.2719933,52.5645452],[-118.2906328,52.5392084],[-118.2631878,52.5045785],[-118.2353891,52.4873831],[-118.2019904,52.4886518],[-118.1939541,52.4764695],[-118.2517751,52.4463448],[-118.2377683,52.4227218],[-118.2436774,52.4036311],[-118.2206496,52.3959437],[-118.2232243,52.3766803],[-118.1854244,52.3729914],[-118.17329,52.3910264],[-118.1433063,52.39251],[-118.1388507,52.4060763],[-118.0454264,52.4022544],[-118.0528433,52.4151402],[-118.0393382,52.4221708],[-118.034131,52.4378242],[-118.0501319,52.4426982],[-118.0600446,52.4557436],[-118.0181289,52.4591131],[-118.0246517,52.4732767],[-117.991934,52.5000492],[-117.9836993,52.4925737],[-117.9874948,52.4846734],[-117.9715295,52.4811252],[-117.9696878,52.4673246],[-117.93726,52.4477414],[-117.9155645,52.4467137],[-117.9159983,52.437356],[-117.8929603,52.4277919],[-117.8531863,52.4136823],[-117.8180114,52.4175899],[-117.7928548,52.4083101],[-117.7625002,52.4134058],[-117.7218868,52.3898268],[-117.728945,52.3819618],[-117.704857,52.3564369],[-117.73852,52.343073],[-117.7510872,52.3182028],[-117.7740731,52.3188288],[-117.7934117,52.3023709],[-117.7917316,52.2936453],[-117.8232243,52.2904932],[-117.8228074,52.2836411],[-117.8443543,52.2727925],[-117.8168859,52.242929],[-117.8145866,52.2228298],[-117.7380866,52.2019899],[-117.7470811,52.1951711],[-117.7325047,52.1874634],[-117.7054818,52.1849625],[-117.6853596,52.1970047],[-117.6628183,52.1984477],[-117.6553432,52.1841549],[-117.6229699,52.1725029],[-117.6221351,52.1588952],[-117.6041468,52.1401252],[-117.5603676,52.1269966],[-117.5084167,52.1579414],[-117.4994237,52.1485484],[-117.4670369,52.1421137],[-117.4407271,52.1473441],[-117.3515108,52.1358697],[-117.3346633,52.1439175],[-117.3311819,52.1699306],[-117.317115,52.1873861],[-117.2934304,52.0854873],[-117.3057505,52.0739637],[-117.2694824,52.055955],[-117.2716814,52.0486052],[-117.2513809,52.0347933],[-117.2330611,52.0408166],[-117.2153026,52.0279441],[-117.2344016,52.0106372],[-117.2025244,51.992699],[-117.1965407,51.9787862],[-117.1479848,51.9732508],[-117.1200456,51.9551937],[-117.10395,51.9573687],[-117.0986106,51.9390782],[-117.0121451,51.8902093],[-117.0349629,51.8557499],[-117.0084374,51.8366269],[-116.9803606,51.8349113],[-116.9901151,51.8109542],[-116.9619458,51.7908641],[-116.967457,51.7826227],[-116.9628768,51.7746631],[-116.9767738,51.7600582],[-116.927396,51.7287401],[-116.9207819,51.7093599],[-116.8977117,51.7029715],[-116.8100366,51.7045603],[-116.7976811,51.723704],[-116.8206048,51.7371469],[-116.784503,51.7636857],[-116.7482578,51.8055367],[-116.7167904,51.7985753],[-116.6811659,51.8128372],[-116.6603033,51.8048316],[-116.6441517,51.7859312],[-116.6517214,51.7537361],[-116.6282357,51.7459028],[-116.6338595,51.735379],[-116.6289849,51.7296544],[-116.5852932,51.7134009],[-116.5810015,51.6975357],[-116.5900163,51.693567],[-116.5814681,51.6869998],[-116.5964388,51.6601601],[-116.5189081,51.6269632],[-116.501545,51.6275431],[-116.4919484,51.611511],[-116.4683935,51.6007517],[-116.4751629,51.5840496],[-116.4659777,51.5649972],[-116.3915058,51.5462534],[-116.3830123,51.530496],[-116.3937622,51.525221],[-116.3978502,51.5113122],[-116.3617364,51.4712571],[-116.2858208,51.4560404],[-116.2871642,51.4344556],[-116.2955541,51.4287197],[-116.2832059,51.4069641],[-116.3117689,51.3841798],[-116.2966498,51.3658179],[-116.2790116,51.3620041],[-116.290822,51.3424394],[-116.2691408,51.3123247],[-116.2284878,51.3014062],[-116.2197419,51.2916612],[-116.1954462,51.3007207],[-116.1638267,51.2974704],[-116.152884,51.2868244],[-116.1596758,51.2755205],[-116.1545368,51.2631814],[-116.0667535,51.2493482],[-116.0498571,51.2279847],[-116.0080103,51.2216464],[-115.9998436,51.1942698],[-116.0221766,51.1869465],[-116.0240855,51.1762922],[-116.036356,51.1697229],[-116.0072856,51.1557069],[-116.0150451,51.1370299],[-116.0098169,51.1259919],[-115.9678098,51.1212247],[-115.9239405,51.082964],[-115.9047076,51.0826724],[-115.9011239,51.0936274],[-115.8956711,51.0858527],[-115.8689678,51.0887501],[-115.8427954,51.0759683],[-115.813418,51.0859662],[-115.8036595,51.0693819],[-115.777121,51.0662911],[-115.7542354,51.0743597],[-115.7625324,51.0608622],[-115.7744068,51.0579817],[-115.7688427,51.0393375],[-115.7436764,51.0338739],[-115.7358361,51.0293194],[-115.7397756,51.0236233],[-115.7184826,51.0172928],[-115.6930796,51.028229],[-115.6897625,51.0144087],[-115.6713047,50.9997206],[-115.6512285,50.9988537],[-115.6289935,50.9816196],[-115.6122593,50.9590113],[-115.6122377,50.9470476],[-115.5976109,50.9397851],[-115.610224,50.9262806],[-115.5789582,50.9137559],[-115.5619245,50.8946828],[-115.5942997,50.8926464],[-115.6498281,50.8739184],[-115.6422528,50.8400985],[-115.6246206,50.8342472],[-115.6070269,50.8457683],[-115.5756744,50.8395304],[-115.5613614,50.8270473],[-115.5668489,50.815871],[-115.5600768,50.8042649],[-115.5177166,50.7807029],[-115.5013956,50.7845008],[-115.483428,50.7707989],[-115.4823549,50.7555607],[-115.4373196,50.7560898],[-115.4135317,50.7337035],[-115.4153071,50.7117124],[-115.3800255,50.7051973],[-115.3597628,50.7212669],[-115.3145643,50.7246144],[-115.2756494,50.6485655],[-115.2894755,50.6378638],[-115.3127017,50.6390901],[-115.3124447,50.6286583],[-115.296907,50.6270139],[-115.2964344,50.6126607],[-115.2788042,50.6012985],[-115.2401819,50.5888559],[-115.232765,50.5786165],[-115.2436614,50.5727689],[-115.2320308,50.55993],[-115.2312761,50.5446812],[-115.2096158,50.5279956],[-115.1869453,50.5400201],[-115.1908501,50.5549813],[-115.1575643,50.5733116],[-115.1191647,50.5703447],[-115.0737208,50.5859794],[-115.0538398,50.571054],[-115.016558,50.5829564],[-115.0135771,50.5689032],[-114.9127692,50.4512617],[-114.8886686,50.4363458],[-114.8764566,50.4399019],[-114.8741794,50.4301334],[-114.8617054,50.424987],[-114.8662655,50.3965429],[-114.82598,50.3939918],[-114.8133321,50.3787907],[-114.8181308,50.3719046],[-114.7911868,50.3587679],[-114.7695711,50.3591173],[-114.7677785,50.3501723],[-114.8012528,50.3298844],[-114.782501,50.3155371],[-114.7822374,50.3011425],[-114.7545749,50.2964274],[-114.7522508,50.2736295],[-114.7711804,50.2500971],[-114.7255545,50.1892658],[-114.7336345,50.1696063],[-114.7257135,50.161852],[-114.7256221,50.1419047],[-114.7353516,50.1209725],[-114.7040493,50.0941363],[-114.6927723,50.071214],[-114.6792341,50.063479],[-114.6629755,50.0656564],[-114.6668992,50.0517208],[-114.6770946,50.048078],[-114.6587165,50.0298536],[-114.6676329,50.0027536],[-114.652145,49.993484],[-114.651483,49.9759136],[-114.6549095,49.9669699],[-114.6829773,49.9662693],[-114.6933657,49.942058],[-114.6868739,49.9176259],[-114.6919559,49.8961368],[-114.6735526,49.8801527],[-114.6725878,49.8630429],[-114.6613585,49.8616495],[-114.6627925,49.8535274],[-114.6398381,49.8267155],[-114.6473667,49.816788],[-114.63639,49.7846761],[-114.6594615,49.7640453],[-114.632516,49.7330199],[-114.6383785,49.7177445],[-114.6770062,49.6963049],[-114.6647445,49.6768744],[-114.6700043,49.6720372],[-114.6570402,49.6630625],[-114.6632784,49.636588],[-114.6748003,49.6434616],[-114.6979011,49.6311452],[-114.7031971,49.6394783],[-114.7533325,49.6099208],[-114.7375332,49.5968448],[-114.7329734,49.5751164],[-114.7115039,49.5667053],[-114.7027507,49.5513196],[-114.6846653,49.5562047],[-114.6498641,49.5434452],[-114.6177471,49.5469699],[-114.6073909,49.5596136],[-114.5877845,49.5654974],[-114.5722985,49.557379],[-114.5725954,49.5248896],[-114.5959493,49.5017336],[-114.5938001,49.469831],[-114.6055427,49.4395073],[-114.5870301,49.3906564],[-114.5739015,49.3895283],[-114.5667676,49.3766995],[-114.5360131,49.3804766],[-114.5265578,49.3762003],[-114.5315365,49.3709047],[-114.5242797,49.3570128],[-114.4874198,49.347101],[-114.4788971,49.3265093],[-114.492375,49.322248],[-114.4913395,49.3139297],[-114.4536962,49.2977429],[-114.4459341,49.2888536],[-114.4470898,49.2641704],[-114.3802202,49.2493685],[-114.4031324,49.2402806],[-114.4059304,49.2246796],[-114.3938559,49.2193925],[-114.4023192,49.2131616],[-114.3956518,49.2086774],[-114.3481844,49.1933219],[-114.3180224,49.1999922],[-114.2870934,49.1782222],[-114.2567431,49.1767866],[-114.2462984,49.1868232],[-114.2227463,49.1889102],[-114.2119259,49.172978],[-114.1620746,49.1554622],[-114.1500068,49.1441169],[-114.1666637,49.1354981],[-114.1498021,49.1184755],[-114.1515371,49.0973826],[-114.1048862,49.0634907],[-114.080345,49.060278],[-114.0625364,49.0461862],[-114.0541379,49.0261731],[-114.0725355,49.0047041],[-114.0688265,48.9991929],[-110.005056,48.9996249],[-110.006368,59.9996139],[-120.0013586,60.0004699]]]}}]}