{"type":"FeatureCollection","features":[{"type":"Feature","properties":{"id":"ak"},"geometry":{"type":"MultiPolygon","coordinates":[[[[-180,51.7940888],[-179.9302118,51.8642385],[-179.8936384,51.928195],[-179.8836979,51.9764894],[-179.8904704,52.0180355],[-179.9148411,52.0657269],[-179.9524718,52.1055221],[-180,52.138489],[-180,51.7940888]]],[[[-179.4685195,51.2759994],[-179.4639928,51.2215241],[-179.4444213,51.1513077],[-179.4193124,51.1126491],[-179.3784223,51.075466],[-179.3208564,51.0429891],[-179.2474238,51.0190001],[-179.1721975,51.0080926],[-179.0950295,51.0089387],[-179.0102627,51.0242027],[-178.9151642,51.0597158],[-178.8216724,51.1143427],[-178.7679556,51.1608987],[-178.6771746,51.2019365],[-178.6128243,51.2625062],[-178.5828623,51.342983],[-178.5001596,51.3055847],[-178.4286214,51.2866359],[-178.3114897,51.2737459],[-178.2098349,51.2761973],[-178.1309397,51.2926764],[-178.0656949,51.3190982],[-178.0123409,51.354694],[-177.9742644,51.3973467],[-177.8265878,51.4016284],[-177.7543548,51.419794],[-177.6821364,51.451449],[-177.5801347,51.4558668],[-177.4762391,51.4820143],[-177.3929391,51.4921039],[-177.3151705,51.4800144],[-177.2380389,51.4797683],[-177.1356125,51.4251129],[-177.006534,51.3946635],[-176.9069236,51.3924678],[-176.7329439,51.4138024],[-176.583155,51.4449477],[-176.3661042,51.5271506],[-176.2559581,51.5355771],[-175.9857322,51.6008953],[-175.8629817,51.6203972],[-175.6931444,51.6859261],[-175.6103539,51.7406679],[-175.5723836,51.7554803],[-175.3480317,51.7853846],[-175.2656357,51.8069461],[-175.0685256,51.7981902],[-174.9550676,51.8086419],[-174.8812074,51.8242224],[-174.7508236,51.8041154],[-174.6148191,51.8153806],[-174.4979599,51.8075191],[-174.3799879,51.815368],[-174.2685191,51.8383722],[-174.2131898,51.8622365],[-174.1629684,51.8958453],[-174.1364369,51.8990168],[-174.0414554,51.8668885],[-173.8829834,51.8427881],[-173.7143742,51.8509037],[-173.6281737,51.8313304],[-173.5300112,51.8230945],[-173.3158433,51.8336115],[-173.200247,51.8091687],[-173.0829109,51.8123304],[-172.9978876,51.8324698],[-172.9224922,51.8679575],[-172.8371141,51.8812306],[-172.7583136,51.909295],[-172.6399199,51.9846242],[-172.5889899,52.0495637],[-172.5027494,52.0480365],[-172.4185751,52.0604889],[-172.26007,52.1001288],[-172.1116241,52.1621647],[-172.049813,52.1974295],[-172.0034613,52.2418117],[-171.9770195,52.2924191],[-171.9729293,52.3444972],[-171.9925199,52.4051183],[-172.0172203,52.4451181],[-172.0582916,52.4832619],[-172.1137423,52.5167135],[-172.2872549,52.5789525],[-172.4420436,52.5936486],[-172.5929601,52.5730343],[-172.7410173,52.5279006],[-172.8004784,52.5009071],[-172.8571826,52.4603035],[-172.9206144,52.3848485],[-172.9625688,52.2995281],[-173.1114872,52.3089393],[-173.2940123,52.3076667],[-173.4059154,52.3427695],[-173.4883195,52.3558802],[-173.6700332,52.3493433],[-173.6876647,52.4080728],[-173.7083197,52.4442154],[-173.7441695,52.4809479],[-173.7919993,52.5123711],[-173.8995142,52.563716],[-174.0249405,52.6027585],[-174.1045201,52.6175812],[-174.1862324,52.6201403],[-174.3854182,52.6009995],[-174.4920876,52.5704341],[-174.5980158,52.5036314],[-174.6975283,52.4587288],[-174.7495307,52.4129989],[-174.7793444,52.3598506],[-174.8519569,52.3318445],[-174.9129783,52.3759056],[-174.988183,52.4071071],[-175.0748023,52.4244011],[-175.1713497,52.4259535],[-175.2794474,52.4076812],[-175.3737931,52.3667369],[-175.5076253,52.3858412],[-175.6456098,52.3692036],[-175.7556218,52.3236325],[-175.8285825,52.2572973],[-175.8986359,52.2882544],[-175.9837949,52.3073477],[-176.1430229,52.3171015],[-176.2338847,52.3101825],[-176.3593154,52.2703962],[-176.4249866,52.2343451],[-176.4720301,52.1922802],[-176.5679382,52.2033965],[-176.6616825,52.1973123],[-176.7736768,52.1688935],[-176.8879779,52.1521447],[-176.9759758,52.1214515],[-177.1531778,52.1434936],[-177.2588594,52.135261],[-177.3411378,52.1152932],[-177.4223873,52.1260965],[-177.5033811,52.1243127],[-177.6196489,52.0981363],[-177.7090396,52.0488304],[-177.7892634,52.0893839],[-177.9019143,52.1165906],[-178.101186,52.1201062],[-178.2165525,52.1126389],[-178.3255637,52.0920304],[-178.4029207,52.0632414],[-178.4614998,52.0249475],[-178.5259431,51.9566762],[-178.617512,52.0025334],[-178.6937128,52.02507],[-178.7967482,52.0366912],[-178.9011385,52.0311769],[-179.0159493,51.9999115],[-179.1114426,51.9447151],[-179.145435,51.9127097],[-179.1688845,51.8772766],[-179.1914302,51.8181904],[-179.1958264,51.7764109],[-179.2910437,51.7367398],[-179.3587529,51.6773227],[-179.3836282,51.6275271],[-179.3924442,51.5509733],[-179.3768598,51.499742],[-179.3380891,51.4503011],[-179.4039448,51.4029938],[-179.4381058,51.3671187],[-179.4607397,51.3241712],[-179.4685195,51.2759994]]],[[[-173.521139,60.6391065],[-173.5066743,60.5875256],[-173.4657366,60.5396108],[-173.4716278,60.4969676],[-173.4637341,60.4589317],[-173.4265542,60.4065417],[-173.3833722,60.3722356],[-173.3256943,60.3418653],[-173.1532622,60.2901131],[-173.1848211,60.2433427],[-173.194538,60.2019236],[-173.1853071,60.1569971],[-173.1560877,60.1142519],[-173.1168824,60.0814068],[-173.0659334,60.0528832],[-172.9388204,60.0130502],[-172.7973853,59.9967902],[-172.6595292,60.0029453],[-172.5103946,60.0391135],[-172.4501622,60.0679563],[-172.4024351,60.1030658],[-172.2211937,60.0970258],[-172.0745469,60.117888],[-171.9734456,60.1524839],[-171.8950991,60.1969147],[-171.8453384,60.2438737],[-171.8220476,60.2946434],[-171.8230345,60.337992],[-171.8437932,60.3819656],[-171.8803264,60.4195439],[-171.9354104,60.4558561],[-172.0371269,60.4951103],[-172.1217098,60.5419037],[-172.2470389,60.5791936],[-172.3676261,60.598589],[-172.4927326,60.598732],[-172.5056036,60.6061456],[-172.5113334,60.6379933],[-172.5292581,60.6716288],[-172.5818826,60.720788],[-172.6789844,60.7687933],[-172.7146909,60.8046739],[-172.7669322,60.8376559],[-172.8321851,60.8645846],[-172.9075865,60.8842668],[-173.0180979,60.8977777],[-173.1302986,60.896379],[-173.2326961,60.8815037],[-173.330866,60.8520504],[-173.4051626,60.8142537],[-173.4697857,60.7605019],[-173.5117866,60.7024537],[-173.521139,60.6391065]]],[[[-172.2959475,63.4865072],[-172.2899499,63.4535672],[-172.2593767,63.3903255],[-172.2157954,63.33874],[-172.0932864,63.244773],[-171.9784387,63.1971541],[-171.7265933,63.1335222],[-171.5937522,63.1117567],[-171.4951655,63.1051293],[-171.359008,63.1108539],[-171.2568588,63.125774],[-171.0706554,63.1689275],[-170.9634442,63.2165625],[-170.7707203,63.1806157],[-170.7334432,63.1676318],[-170.7109114,63.1229879],[-170.6700677,63.0841125],[-170.57529,63.0342856],[-170.457353,63.0023427],[-170.2608219,62.9821409],[-170.2093837,62.9673103],[-170.196974,62.9201195],[-170.1649754,62.8774018],[-170.1175269,62.8417964],[-170.0459144,62.806967],[-169.9218473,62.7712758],[-169.6941442,62.738076],[-169.5411528,62.7428475],[-169.4029856,62.7708421],[-169.2107406,62.8419828],[-169.1584517,62.8742057],[-169.1199852,62.9110416],[-168.989831,62.877198],[-168.8404557,62.8652525],[-168.6885535,62.8774569],[-168.5551131,62.9125118],[-168.4515384,62.9578576],[-168.3843427,63.0122389],[-168.357363,63.0648124],[-168.3617335,63.1171968],[-168.2979726,63.1747372],[-168.2537883,63.2519893],[-168.2435268,63.2912694],[-168.2577355,63.3463964],[-168.3059166,63.3982312],[-168.3777363,63.4391378],[-168.4808991,63.4739038],[-168.7436148,63.5184725],[-168.9131274,63.5362994],[-169.1496997,63.5379494],[-169.2851668,63.5519004],[-169.4429942,63.6042035],[-169.6043976,63.6263087],[-169.6014882,63.655216],[-169.6089755,63.6863232],[-169.6562242,63.7450751],[-169.7443304,63.7959161],[-169.8610481,63.830997],[-170.0342295,63.8498828],[-170.1639868,63.8812686],[-170.2560508,63.8945715],[-170.5185246,63.8953643],[-170.627377,63.8850843],[-170.8376776,63.8480904],[-171.0276152,63.7897328],[-171.2036542,63.8159839],[-171.2316079,63.8545196],[-171.2724881,63.8882168],[-171.4015157,63.9464115],[-171.5053699,63.971398],[-171.6243235,63.9839196],[-171.7998859,63.9816464],[-171.9212278,63.9662475],[-172.038261,63.9334747],[-172.128723,63.8854791],[-172.1790458,63.8308853],[-172.1924105,63.7886081],[-172.1882114,63.7498458],[-172.2012859,63.714581],[-172.2372559,63.6762891],[-172.2726917,63.6163069],[-172.2869365,63.5700173],[-172.2959475,63.4865072]]],[[[-171.6436587,52.4800817],[-171.6347306,52.4276291],[-171.6143227,52.3800888],[-171.5837293,52.3420873],[-171.5375863,52.3067976],[-171.4797441,52.2787468],[-171.417613,52.2602361],[-171.3321607,52.2468571],[-171.2570246,52.2448904],[-171.1559708,52.2529915],[-171.0719072,52.273731],[-171.0003129,52.3078368],[-170.9356097,52.3604016],[-170.8639465,52.3459192],[-170.7904522,52.3416045],[-170.649348,52.3619914],[-170.5520466,52.4042465],[-170.4782591,52.4189899],[-170.4151245,52.4423301],[-170.32799,52.4942192],[-170.2854987,52.529442],[-170.1457198,52.5165081],[-170.0181577,52.5186125],[-169.9161559,52.5417656],[-169.8317982,52.5840343],[-169.7415713,52.5730994],[-169.6486198,52.5765204],[-169.5669521,52.5921306],[-169.4970087,52.6188426],[-169.4079091,52.5802124],[-169.3041263,52.5615693],[-169.2016544,52.5637402],[-169.0874308,52.5872732],[-168.747674,52.7058844],[-168.6080423,52.7289586],[-168.5107779,52.7754629],[-168.3721095,52.7791199],[-168.2515879,52.8123021],[-168.172408,52.8503512],[-168.1236875,52.8857325],[-168.0788685,52.9471566],[-168.0696175,53.0129628],[-167.9763563,53.0664951],[-167.8845034,53.0725219],[-167.8065632,53.0408321],[-167.718709,53.0236953],[-167.5808619,53.026608],[-167.4683857,53.0577214],[-167.395828,53.0658697],[-167.3269243,53.0838222],[-167.2380724,53.1284419],[-167.1303238,53.1593855],[-167.0420466,53.2109711],[-167.0049565,53.2230585],[-166.7458242,53.2313518],[-166.5727707,53.2723032],[-166.3393001,53.388183],[-166.2158736,53.4825168],[-166.0100972,53.5455675],[-165.8827614,53.6260498],[-165.7925329,53.6679699],[-165.7480701,53.7046739],[-165.7201919,53.7431891],[-165.7070205,53.780661],[-165.7028426,53.8436378],[-165.5622829,53.8239972],[-165.3822834,53.8436497],[-165.2542663,53.8370962],[-165.1169467,53.8639173],[-164.8794934,53.8778482],[-164.776332,53.9029614],[-164.6891296,53.948814],[-164.615782,54.0205501],[-164.5274846,54.0627167],[-164.4783661,54.0974922],[-164.4362997,54.1510954],[-164.4201519,54.2184864],[-164.2926651,54.2430574],[-164.1531159,54.3025706],[-164.0590505,54.36024],[-164.0090918,54.4244235],[-163.7916219,54.4348249],[-163.6661354,54.4044926],[-163.5486553,54.3987645],[-163.4284043,54.4181213],[-163.3264878,54.4620816],[-163.2546041,54.4623536],[-163.2803749,54.398349],[-163.2690227,54.3327781],[-163.245183,54.2868545],[-163.2188852,54.2556403],[-163.1315301,54.1991974],[-163.0485491,54.1723668],[-162.9610738,54.1601904],[-162.8757901,54.1202874],[-162.7822651,54.0987507],[-162.6061614,54.0928441],[-162.4506025,54.1108126],[-162.3329465,54.1572027],[-162.1879381,54.1983064],[-162.0860082,54.2474548],[-162.0386394,54.2885586],[-162.0108088,54.3312947],[-161.9990056,54.3759691],[-162.0035311,54.419586],[-161.9255788,54.434382],[-161.8546521,54.4600637],[-161.7963951,54.4949509],[-161.7552337,54.5357009],[-161.6582485,54.5633965],[-161.4994575,54.5902868],[-161.3925457,54.6350426],[-161.340056,54.6773524],[-161.3094593,54.7229016],[-161.2988263,54.7746545],[-161.3101504,54.8230411],[-161.1765203,54.8834856],[-161.1347416,54.9175766],[-161.106384,54.9554386],[-161.0307702,54.9586797],[-160.9575894,54.9345096],[-160.8763368,54.9211608],[-160.7429088,54.9239713],[-160.675754,54.8983456],[-160.6011169,54.8824028],[-160.5768706,54.8222408],[-160.5093004,54.7494825],[-160.4377207,54.7061491],[-160.3478676,54.6769446],[-160.2123834,54.6638683],[-160.0821886,54.6812075],[-160.0121862,54.6388095],[-159.9225755,54.6088586],[-159.6315645,54.55728],[-159.4963614,54.5545062],[-159.3680155,54.5774307],[-159.2711079,54.6182283],[-159.2073742,54.6643653],[-159.0977991,54.6853248],[-159.0061609,54.7259363],[-158.8954128,54.8102272],[-158.8651542,54.8566804],[-158.8522404,54.8977464],[-158.8529969,54.9325427],[-158.8669477,54.9798648],[-158.8975808,55.0230894],[-158.9413413,55.0590949],[-158.9498696,55.101559],[-158.9743707,55.1435033],[-159.0429907,55.2006829],[-159.1420121,55.2419623],[-159.1380225,55.3038773],[-159.1654307,55.3611854],[-159.2252133,55.4140007],[-159.3056164,55.4518597],[-159.2699757,55.489327],[-159.2483047,55.5328737],[-159.0685166,55.6001132],[-158.9489635,55.5778601],[-158.8245691,55.5801403],[-158.7488557,55.594412],[-158.6597053,55.6278937],[-158.5744977,55.6417287],[-158.4979327,55.6664992],[-158.4006542,55.7255882],[-158.370113,55.7597534],[-158.3511546,55.7981449],[-158.2655192,55.8152588],[-158.1890715,55.8446492],[-158.1320637,55.8812441],[-158.0823322,55.9338799],[-157.9801501,55.9475816],[-157.8895549,55.9771104],[-157.8081162,56.0254323],[-157.7601511,56.0722633],[-157.6032407,56.0832852],[-157.5308119,56.1033561],[-157.4667674,56.1326733],[-157.4140269,56.1714056],[-157.3812498,56.2129003],[-157.3634248,56.2702409],[-157.3664682,56.3150834],[-157.117536,56.3129136],[-157.1440538,56.273309],[-157.1640171,56.2242871],[-157.172481,56.1588992],[-157.1676757,56.122468],[-157.1479934,56.0822167],[-157.1126594,56.0441337],[-157.0976311,55.9549552],[-157.079289,55.9145169],[-157.0396329,55.8712689],[-156.9824078,55.8345444],[-156.8630424,55.7942768],[-156.7294979,55.7824198],[-156.5456099,55.808229],[-156.4330236,55.8471129],[-156.3725689,55.8866045],[-156.2986052,55.9634449],[-156.2748854,56.0138265],[-156.275215,56.0661603],[-156.3035097,56.1400593],[-156.3841853,56.2191429],[-156.4219682,56.2927978],[-156.4564823,56.3322289],[-156.5504874,56.3888592],[-156.6735697,56.4223634],[-156.6336425,56.4637493],[-156.6127945,56.5074397],[-156.61024,56.5538269],[-156.6269933,56.5995659],[-156.4876294,56.6838436],[-156.4033522,56.7003388],[-156.3238062,56.7300864],[-156.2320821,56.7942529],[-156.1885146,56.8548299],[-156.122974,56.9072257],[-156.0920819,56.9596902],[-156.0523432,56.9965752],[-155.9724593,57.0427017],[-155.9293802,57.0892141],[-155.9123653,57.1268117],[-155.9089192,57.1650206],[-155.9189622,57.2028843],[-155.9401705,57.2366906],[-155.8634076,57.2522705],[-155.7912219,57.2776305],[-155.736528,57.3070179],[-155.6905356,57.3440954],[-155.5939577,57.3573488],[-155.503656,57.3853082],[-155.4373153,57.4206476],[-155.3872392,57.4662316],[-155.2289803,57.4919458],[-155.1301623,57.5249625],[-155.0023312,57.5983062],[-154.8986374,57.6891407],[-154.796809,57.7441186],[-154.7206868,57.7999071],[-154.4788817,57.8270273],[-154.5544591,57.8067577],[-154.6399797,57.7655163],[-154.7520307,57.731726],[-154.9279597,57.628428],[-155.0612327,57.5040616],[-155.1112572,57.4755727],[-155.1491192,57.443217],[-155.1747757,57.4075555],[-155.2047488,57.3331757],[-155.2041319,57.2707408],[-155.164999,57.2083772],[-155.1217449,57.1738939],[-155.071216,57.1471218],[-154.8910867,57.0873316],[-154.8832703,57.063181],[-154.895983,57.0196941],[-154.8959733,56.9797229],[-154.8679971,56.9164034],[-154.804653,56.8603882],[-154.7411711,56.8275696],[-154.6705893,56.8048338],[-154.6648771,56.7911413],[-154.7365392,56.7658711],[-154.948578,56.6661224],[-155.0232778,56.6161477],[-155.074792,56.5702006],[-155.1301487,56.5141031],[-155.1554395,56.4675118],[-155.1589545,56.4124216],[-155.1379099,56.3569756],[-155.0843732,56.2976073],[-154.9956101,56.2462397],[-154.8849385,56.2124818],[-154.7684447,56.1996475],[-154.676893,56.2031848],[-154.5801705,56.2207636],[-154.5011577,56.2480526],[-154.4267005,56.28842],[-154.0134342,56.2972719],[-153.8863719,56.3071588],[-153.7926615,56.3253878],[-153.6429398,56.3805214],[-153.5608455,56.4372685],[-153.5232973,56.4819884],[-153.4933119,56.5359101],[-153.487611,56.5778732],[-153.4991075,56.6221923],[-153.4491539,56.6638708],[-153.4194026,56.7100242],[-153.3341423,56.7406564],[-153.244839,56.7932439],[-153.1086564,56.8131155],[-153.0199162,56.8399228],[-152.9490771,56.8755137],[-152.8929814,56.9223594],[-152.7724366,56.940961],[-152.6721217,56.9744016],[-152.5746803,57.0294015],[-152.5325579,57.0691435],[-152.5093434,57.1067194],[-152.389495,57.1662361],[-152.2444317,57.1647829],[-152.1210349,57.1848398],[-151.9915962,57.2360426],[-151.9177722,57.2926412],[-151.8938367,57.3286353],[-151.8813816,57.3710786],[-151.8821572,57.405861],[-151.8959031,57.4433458],[-151.8408333,57.4796731],[-151.8053204,57.516752],[-151.7643278,57.5905499],[-151.7559393,57.638979],[-151.7775622,57.7003267],[-151.8315387,57.7535865],[-151.8349352,57.8023143],[-151.8500751,57.8397021],[-151.8893866,57.8896005],[-151.9438872,57.928605],[-151.9535889,57.9631663],[-151.8287861,57.9640167],[-151.7395798,57.9748984],[-151.6341742,58.0025434],[-151.5395025,58.0432133],[-151.4854957,58.078879],[-151.4483763,58.119556],[-151.4153891,58.1807698],[-151.4045618,58.2491247],[-151.4262952,58.3133836],[-151.4200605,58.348311],[-151.426632,58.3864022],[-151.4469505,58.4231323],[-151.4803073,58.4571455],[-151.5396765,58.4945334],[-151.6088902,58.5215247],[-151.6944035,58.5406248],[-151.784486,58.5482397],[-151.8277253,58.6092261],[-151.9195023,58.6664752],[-151.9354682,58.6844285],[-151.8158255,58.7133979],[-151.6623903,58.7841879],[-151.5952995,58.8403948],[-151.5675323,58.9011731],[-151.5189651,58.9091504],[-151.4162413,58.9058628],[-151.3175583,58.9161881],[-151.2162344,58.9432832],[-151.1294152,58.9864307],[-151.0456478,58.9997119],[-150.8972264,58.9986098],[-150.7947859,59.0156764],[-150.7052847,59.0465812],[-150.6371641,59.0871478],[-150.4916294,59.1204581],[-150.3627527,59.1198144],[-150.2352137,59.1422495],[-150.1534918,59.173084],[-150.0589218,59.2282209],[-150.0088457,59.2780877],[-149.9456049,59.3251426],[-149.9111292,59.3787493],[-149.8037831,59.3396181],[-149.6699933,59.3196095],[-149.5379882,59.3223101],[-149.4121437,59.3481253],[-149.3236968,59.3864094],[-149.2636425,59.4330567],[-149.2297952,59.4906437],[-149.1776943,59.548711],[-149.1654028,59.5829202],[-149.1645373,59.6145771],[-149.0435423,59.6974403],[-148.9731246,59.7307632],[-148.7815208,59.7261879],[-148.6287162,59.7121912],[-148.5267459,59.7198435],[-148.4281981,59.7416854],[-148.3166424,59.7365708],[-148.2866608,59.6945245],[-148.2479524,59.6616756],[-148.181802,59.623201],[-148.1099724,59.5964632],[-148.008134,59.5738294],[-147.9157234,59.5631103],[-147.7388487,59.5705561],[-147.522761,59.6136553],[-147.4450126,59.6366605],[-147.2856056,59.6612047],[-147.1591352,59.6966401],[-147.0727581,59.7317039],[-146.9994396,59.7760556],[-146.9560758,59.8233248],[-146.9394918,59.864991],[-146.9411206,59.909682],[-146.9302542,59.9651615],[-146.7948448,59.9606476],[-146.6500893,59.9791171],[-146.5612895,60.0061868],[-146.4865852,60.0457148],[-146.3682525,60.076798],[-146.2402039,60.1305934],[-146.1247212,60.1422701],[-145.9885379,60.1761058],[-145.9051978,60.1600265],[-145.8010732,60.151474],[-145.6906028,60.1103708],[-145.3443952,60.0364463],[-145.000241,60.0080589],[-144.8710595,60.0116957],[-144.8388185,59.9991376],[-144.9206727,59.9419308],[-144.9857961,59.8574221],[-145.0069381,59.8072325],[-145.0046839,59.7586245],[-144.9765547,59.7085229],[-144.9012092,59.6378341],[-144.8220592,59.5994256],[-144.7187651,59.5723369],[-144.631837,59.5626175],[-144.5428392,59.5630093],[-144.3822545,59.5916777],[-144.2802843,59.6378341],[-144.2155661,59.6851161],[-144.1811969,59.7237277],[-144.1063144,59.7679038],[-144.0576024,59.7801924],[-143.8169809,59.7932816],[-143.6302828,59.8231015],[-143.4237811,59.8353641],[-143.0402251,59.8434412],[-142.7946125,59.8853164],[-142.667362,59.8898427],[-142.579654,59.8653024],[-142.4793824,59.852339],[-142.3267883,59.8558035],[-142.20237,59.8353295],[-142.0397564,59.8214113],[-141.9124845,59.7806221],[-141.7532158,59.7622744],[-141.6229932,59.707261],[-141.3563468,59.6401459],[-141.0438211,59.5496316],[-140.865238,59.5345317],[-140.7001492,59.5078134],[-140.4386262,59.5029685],[-140.1501492,59.3994863],[-140.0666893,59.3608202],[-139.9538648,59.3280464],[-139.6251383,59.2076222],[-139.4919647,59.166768],[-139.1019605,59.0709218],[-138.8766969,58.9736859],[-138.8012155,58.9493292],[-138.4756513,58.8780484],[-138.3315441,58.8084337],[-138.3145057,58.7432814],[-138.2668153,58.6861073],[-138.1911967,58.6370833],[-138.0519542,58.574306],[-138.0121815,58.5230322],[-137.944478,58.4756195],[-137.8563028,58.4370132],[-137.742757,58.4042614],[-137.6452264,58.3560253],[-137.5063187,58.3007705],[-137.4235939,58.2755783],[-137.3179183,58.2178272],[-137.243314,58.19569],[-137.166424,58.1834262],[-137.1029451,58.1508738],[-137.0370744,58.0999338],[-136.9560831,58.0653615],[-136.9617578,58.0257906],[-136.9519792,57.9837106],[-136.9503119,57.90309],[-136.9307778,57.854295],[-136.9040344,57.8185727],[-136.8622378,57.7817896],[-136.8095848,57.7508152],[-136.7395839,57.6811611],[-136.645262,57.632853],[-136.6332562,57.5961042],[-136.5901701,57.5265557],[-136.5181364,57.4618124],[-136.4475853,57.421339],[-136.3154475,57.374654],[-136.2495464,57.3269734],[-136.2581494,57.2791925],[-136.2433038,57.1985528],[-136.2058527,57.1327057],[-136.2179046,57.0883912],[-136.227925,56.9841809],[-136.2160034,56.9464833],[-136.1911369,56.9106422],[-136.1464692,56.8726429],[-136.0781534,56.8359747],[-135.9236209,56.795422],[-135.9054212,56.7608109],[-135.8740618,56.7266542],[-135.7115226,56.6122272],[-135.5714337,56.5388157],[-135.4646979,56.5071766],[-135.3976726,56.4553144],[-135.3108582,56.3562438],[-135.2716591,56.2889636],[-135.1410458,56.1476166],[-134.9691683,56.0367906],[-134.9029085,56.0058138],[-134.957533,55.9407882],[-134.969051,55.9066012],[-134.9698151,55.8718105],[-134.9598304,55.8374732],[-134.9390128,55.8038969],[-134.8662749,55.7397889],[-134.8003916,55.7021905],[-134.7207233,55.6749307],[-134.6261912,55.6596903],[-134.5292469,55.6595911],[-134.4656875,55.6362379],[-134.3908169,55.6204857],[-134.2618661,55.6160597],[-134.1407949,55.6373576],[-134.1005313,55.586855],[-134.1484872,55.5292687],[-134.1684143,55.4890988],[-134.1775574,55.4303184],[-134.1619968,55.3789647],[-134.1135062,55.3229527],[-134.0374129,55.2780326],[-134.0198593,55.2357362],[-133.9710294,55.1707047],[-133.8957463,55.1034493],[-133.8277764,55.0655857],[-133.8361923,55.0330769],[-133.8347341,54.9973608],[-133.8852857,54.9450635],[-133.9065371,54.8908605],[-133.9062401,54.8560617],[-133.8788795,54.7299252],[-133.8499398,54.6879455],[-133.7851057,54.6270374],[-133.7193148,54.5894203],[-133.647405,54.564462],[-133.5256361,54.5475545],[-133.400434,54.5569849],[-133.2902242,54.5915589],[-133.2081501,54.6469736],[-133.1594538,54.5888462],[-133.0723415,54.535639],[-132.9974171,54.5069522],[-132.8720891,54.4799858],[-132.7634791,54.465669],[-132.6305053,54.4648125],[-132.5333829,54.4825754],[-132.4314603,54.5214815],[-132.316361,54.5102298],[-132.2539003,54.4850382],[-132.1839493,54.4683961],[-132.071535,54.4609712],[-131.9445733,54.4793178],[-131.8048106,54.5325599],[-131.7334708,54.5761369],[-131.6734246,54.6391997],[-131.6326219,54.6275216],[-131.5439077,54.5775459],[-131.4527444,54.5523264],[-131.324449,54.614395],[-131.233329,54.680781],[-131.218328,54.702724],[-131.080267,54.770779],[-130.997205,54.736335],[-130.954151,54.709114],[-130.895819,54.690226],[-130.746931,54.678001],[-130.656659,54.653559],[-130.651104,54.685501],[-130.6257206,54.7380735],[-130.6590382,54.7630584],[-130.6288741,54.7827202],[-130.5682041,54.7921536],[-130.345938,54.9177286],[-130.2733277,54.9739646],[-130.1875628,55.0628418],[-130.1808826,55.0912511],[-130.1028417,55.1926024],[-129.9741673,55.2819188],[-129.976649,55.3003717],[-130.0211082,55.3379165],[-130.041216,55.4517254],[-130.0898536,55.4979784],[-130.1279045,55.5810345],[-130.1116579,55.6829019],[-130.1477589,55.7149031],[-130.1524057,55.7662874],[-130.1247643,55.805642],[-130.0834939,55.821711],[-130.003784,55.9074368],[-130.0176459,55.9119531],[-130.003485,56.008075],[-130.103798,56.1227981],[-130.246219,56.0964114],[-130.35009,56.1285419],[-130.426006,56.1415614],[-130.46787,56.2430533],[-130.540531,56.2474506],[-130.6233081,56.2668783],[-130.78198,56.3668442],[-131.087348,56.4060047],[-131.173466,56.4495239],[-131.471829,56.5525902],[-131.581067,56.6122319],[-131.835327,56.5992028],[-131.860669,56.7029842],[-131.9010717,56.753675],[-131.8728761,56.805995],[-132.123567,56.8736483],[-132.045191,57.0450592],[-132.3689831,57.0915128],[-132.247921,57.2112533],[-132.369791,57.3497467],[-132.553684,57.4965136],[-132.660864,57.6167369],[-132.751058,57.6959731],[-132.869367,57.8397131],[-133.070095,58.0003406],[-133.172311,58.1536756],[-133.345432,58.2763325],[-133.461504,58.3877233],[-133.377303,58.4305483],[-133.5578053,58.5231314],[-133.7071183,58.6122742],[-133.840506,58.7294442],[-134.258073,58.8610358],[-134.336463,58.9234136],[-134.313489,58.9621822],[-134.4071486,58.97921],[-134.3818769,59.0387633],[-134.4471228,59.0892233],[-134.4833953,59.1316033],[-134.5655658,59.1311239],[-134.6791169,59.1922747],[-134.7007158,59.2490108],[-134.9599053,59.2809264],[-135.0305256,59.3463478],[-134.9897444,59.3871294],[-135.1010194,59.4275314],[-135.0772806,59.4517706],[-135.0275622,59.4747381],[-135.0289025,59.5636592],[-135.1178333,59.62307],[-135.1575897,59.6257194],[-135.2198447,59.6627764],[-135.2336683,59.6961431],[-135.3601092,59.7376147],[-135.4791608,59.7980414],[-135.9526453,59.6621664],[-136.1929042,59.6400267],[-136.346389,59.600556],[-136.2398303,59.5594125],[-136.2385042,59.5243264],[-136.305021,59.4645178],[-136.368243,59.4489597],[-136.477156,59.4658242],[-136.469246,59.2840789],[-136.495756,59.2751325],[-136.489702,59.2597753],[-136.584444,59.1658544],[-136.828728,59.1599597],[-136.9696775,59.1012333],[-137.282846,58.9999978],[-137.451725,58.9083489],[-137.526114,58.9063722],[-137.5,58.9853947],[-137.542132,59.1064275],[-137.607356,59.2438033],[-138.626201,59.7685806],[-138.668649,59.8096569],[-138.707377,59.9063253],[-139.05367,59.9948369],[-139.198845,60.0882958],[-139.072126,60.3194292],[-139.074818,60.3525047],[-139.692981,60.3352244],[-139.981094,60.1819656],[-140.458206,60.3080847],[-140.520424,60.2198189],[-141.00198,60.3063692],[-141.0006147,69.6465701],[-140.952792,69.691516],[-140.7523256,69.8283004],[-140.9193247,69.8621403],[-141.1429978,69.8823548],[-141.3951737,69.9534255],[-141.8130445,70.0301622],[-142.2118349,70.1532189],[-142.4144033,70.2070295],[-142.7311558,70.2676943],[-142.9641162,70.3259046],[-143.1184383,70.3470879],[-143.2675869,70.353194],[-143.4547284,70.3430003],[-143.6440763,70.3461019],[-144.0476076,70.3157617],[-144.1721292,70.299812],[-144.4462439,70.2472286],[-144.7750974,70.2022308],[-144.9308309,70.2262696],[-145.1336682,70.2383995],[-145.3111796,70.2695973],[-145.5524258,70.3349651],[-145.8139813,70.3791159],[-146.2561429,70.4250936],[-146.5191911,70.4330166],[-146.7566954,70.4852971],[-146.9732603,70.5043201],[-147.1956286,70.5677534],[-147.4305298,70.5945426],[-147.5195855,70.6333838],[-147.6255763,70.6627348],[-147.8230849,70.6908113],[-148.0166012,70.6955135],[-148.2094277,70.6791824],[-148.4193349,70.6842213],[-148.6303974,70.6653346],[-148.7949483,70.6784853],[-148.954903,70.7072205],[-149.3026054,70.7485574],[-149.7166129,70.7706118],[-150.315731,70.7521312],[-150.4814379,70.7321902],[-150.6170062,70.6996388],[-150.8734637,70.690622],[-151.0163505,70.6759214],[-151.0934979,70.7064818],[-151.1840351,70.7305679],[-151.4018132,70.7595806],[-151.5416685,70.8300437],[-151.5724658,70.8685871],[-151.6295699,70.9061222],[-151.8144053,70.9746173],[-151.9562656,71.0088837],[-152.2794698,71.064178],[-152.4219501,71.0802242],[-152.5683656,71.084531],[-152.7463066,71.1059187],[-153.1164917,71.1232442],[-153.3773602,71.1160905],[-153.5814745,71.0885875],[-153.8238907,71.0905643],[-154.1192914,71.138595],[-154.2854259,71.2022619],[-154.4114888,71.2412232],[-154.583056,71.2873628],[-154.8029149,71.3344144],[-155.0956397,71.3732119],[-155.2738443,71.4052872],[-155.4817226,71.4266515],[-155.7330258,71.4931977],[-156.2232748,71.572104],[-156.4332663,71.5884624],[-156.6409663,71.5820973],[-156.8677431,71.5458287],[-157.2551583,71.4263291],[-157.5022749,71.3102049],[-157.8056733,71.1395453],[-157.9057158,71.0995341],[-158.1338237,71.0363869],[-158.2300451,71.0204327],[-158.3245372,71.0575371],[-158.4450122,71.0863049],[-158.5836355,71.104661],[-158.7319832,71.111485],[-159.0113673,71.1002409],[-159.491037,71.0470335],[-159.8562998,70.9884582],[-160.0630187,70.9407045],[-160.3854934,70.8176014],[-160.7487026,70.6612268],[-160.9384466,70.5957954],[-161.1746537,70.5367949],[-161.4234268,70.4955194],[-161.8216903,70.5287558],[-161.9575668,70.5283588],[-162.0889181,70.5177308],[-162.2600468,70.4850374],[-162.6851103,70.3559989],[-162.8116601,70.3102974],[-162.9768641,70.228929],[-163.0981524,70.153223],[-163.2038105,70.0745927],[-163.450505,69.9476116],[-163.5391801,69.8928338],[-163.60096,69.8286712],[-163.7133979,69.6566615],[-163.723085,69.6108543],[-163.713115,69.5226268],[-163.7185612,69.4369099],[-163.7448862,69.3996513],[-163.8175753,69.3560635],[-163.9368852,69.301001],[-164.0153657,69.2469934],[-164.0775356,69.2195668],[-164.2866878,69.1537288],[-164.4387544,69.119936],[-164.7164329,69.1122866],[-164.8782226,69.0935289],[-165.4164723,69.0555461],[-165.5991362,69.0518174],[-166.1398403,69.0805588],[-166.3102978,69.0781491],[-166.5116541,69.050053],[-166.6660905,68.9978175],[-166.7415219,68.949506],[-166.7774203,68.8964587],[-166.7784105,68.8543816],[-166.7448694,68.7775213],[-166.7531102,68.7151196],[-166.7790309,68.668071],[-166.7813731,68.6131815],[-166.8300453,68.5679455],[-167.133771,68.511677],[-167.2296979,68.4806515],[-167.309497,68.4408456],[-167.3595504,68.3995178],[-167.38302,68.3550552],[-167.3787576,68.3096711],[-167.3470179,68.2657784],[-167.2619407,68.2120252],[-167.1359317,68.1703122],[-166.9737284,68.1442918],[-166.7385355,68.142241],[-166.58203,68.118419],[-166.5012506,68.0959186],[-166.4472503,68.0462217],[-166.359817,68.0014301],[-166.2106082,67.9518641],[-166.0668196,67.9223559],[-165.8570222,67.898653],[-165.660721,67.8635038],[-165.549194,67.8152025],[-165.2114224,67.7009849],[-164.9007968,67.5784039],[-164.5277395,67.479088],[-164.4724794,67.4444605],[-164.3660159,67.3493173],[-164.3158312,67.2844978],[-164.4034025,67.2265022],[-164.4274124,67.1930373],[-164.4360351,67.1584632],[-164.4304674,67.1272683],[-164.4097045,67.0934859],[-164.3742755,67.0616142],[-164.3253016,67.0326123],[-164.1896165,66.983067],[-163.8669307,66.913671],[-163.1855601,66.8408507],[-163.1453188,66.8297055],[-163.119558,66.8196448],[-163.075976,66.7660452],[-163.0045228,66.7191953],[-162.9714759,66.6636646],[-162.899393,66.6130365],[-162.7526249,66.5610929],[-162.5681306,66.5337951],[-162.4975763,66.483623],[-162.3931679,66.4425317],[-162.8823196,66.3046452],[-163.1723825,66.3672166],[-163.0677644,66.4195585],[-163.0100688,66.4810068],[-163.0002878,66.5155255],[-163.0050029,66.5498876],[-163.0200597,66.5805799],[-163.0470483,66.6099529],[-163.1488951,66.6704598],[-163.2997791,66.7235944],[-163.4447575,66.7571723],[-163.6520444,66.7852472],[-163.9131727,66.7966557],[-164.4612674,66.7795437],[-164.6472053,66.7637112],[-165.0235559,66.7130059],[-165.6692621,66.595664],[-166.122057,66.4944912],[-166.4878923,66.3866065],[-166.6293904,66.3567919],[-166.9107799,66.2735881],[-167.7071904,66.0140908],[-167.8217374,65.9833515],[-168.2164581,65.9013149],[-168.4393048,65.8289558],[-168.4725421,65.8617488],[-168.5183241,65.8910076],[-168.6458323,65.9385978],[-168.8038508,65.9648484],[-168.976944,65.9671796],[-168.976944,65.5],[-169.0485821,65.4690061],[-168.9141932,65.4367474],[-168.7592678,65.4237266],[-168.5992144,65.4324156],[-168.4591778,65.4608448],[-168.3284169,65.4093492],[-167.9898714,65.3356249],[-167.9036809,65.2988207],[-167.7095597,65.2422023],[-167.5468208,65.2123513],[-167.4191053,65.2022449],[-167.4271503,65.1648017],[-167.4207806,65.1283879],[-167.4000655,65.0931603],[-167.3651266,65.0583938],[-167.240547,64.9750305],[-167.1492846,64.9337883],[-167.0685704,64.8668798],[-166.9421185,64.8155016],[-166.9428944,64.7322793],[-166.9328853,64.6938875],[-166.8866789,64.6275706],[-166.829256,64.5665949],[-166.7729312,64.526717],[-166.6863817,64.4856635],[-166.6645926,64.4300681],[-166.5969572,64.3655683],[-166.5167895,64.325463],[-166.4135473,64.2952605],[-166.2695172,64.2757835],[-166.1260201,64.2768642],[-165.9920413,64.2961608],[-165.8568457,64.3409301],[-165.8376869,64.3402392],[-165.5661825,64.3008443],[-165.3741425,64.2829836],[-165.1412084,64.244159],[-164.9828612,64.2364039],[-164.6545586,64.2618736],[-164.2151679,64.3650507],[-163.9770113,64.3527389],[-163.7040562,64.3664185],[-163.6416316,64.3413635],[-163.5325943,64.2731453],[-163.4105334,64.2278524],[-162.9553591,64.1384106],[-162.7832827,64.1252922],[-162.6316041,64.1372943],[-162.496376,64.1707553],[-162.2776969,64.2585036],[-162.2224714,64.2947486],[-162.1846045,64.3363911],[-161.7449781,64.203398],[-161.7691665,64.1551485],[-161.7735274,64.108432],[-161.7575052,64.0654206],[-161.7191261,64.0235357],[-161.6479172,63.9805044],[-161.5471738,63.9447383],[-161.4375785,63.9230156],[-161.31452,63.914382],[-161.2749904,63.8805672],[-161.272246,63.8414686],[-161.2500247,63.8004626],[-161.3891204,63.7368467],[-161.5174684,63.7844847],[-161.6761564,63.807989],[-161.870312,63.8014488],[-161.9588303,63.7854745],[-162.0422139,63.7599323],[-162.1851156,63.8065847],[-162.3233774,63.8287511],[-162.5690681,63.8362681],[-162.7272042,63.8217873],[-162.8631755,63.790073],[-162.9525645,63.7595449],[-163.0704946,63.702131],[-163.1293839,63.6571296],[-163.1530445,63.6240076],[-163.1633759,63.5895609],[-163.1610849,63.5567757],[-163.1457009,63.5227075],[-163.0671006,63.4491812],[-162.9640059,63.3982432],[-163.1332819,63.3497113],[-163.1934796,63.3200757],[-163.2385267,63.2869532],[-163.3538881,63.3223438],[-163.4745437,63.3767113],[-163.6722992,63.4207513],[-163.9539144,63.4588308],[-164.1971566,63.4615626],[-164.3649961,63.4389483],[-164.5314672,63.4060711],[-164.6455024,63.3747177],[-164.8856926,63.2844045],[-164.9797668,63.2250821],[-165.0386206,63.2049654],[-165.1588078,63.2076717],[-165.2832872,63.1945044],[-165.3905263,63.167439],[-165.4768683,63.1280085],[-165.5238081,63.0921549],[-165.5531733,63.0526566],[-165.563745,63.011251],[-165.5550365,62.9674671],[-165.5277116,62.9276848],[-165.4784631,62.8885256],[-165.4080619,62.8539146],[-165.3299937,62.8293584],[-165.3288462,62.7937611],[-165.3748674,62.7633864],[-165.4806733,62.7496318],[-165.5722492,62.7251912],[-165.6372832,62.6976769],[-165.6863935,62.6668296],[-165.732835,62.6156086],[-165.745442,62.5813404],[-165.7451483,62.547711],[-165.7812059,62.4948725],[-165.7872568,62.4602275],[-165.7789758,62.4225936],[-165.9860416,62.2775683],[-166.105451,62.263578],[-166.2054801,62.2391081],[-166.2886766,62.2036376],[-166.3616922,62.1548403],[-166.412307,62.0998632],[-166.4330635,62.057942],[-166.4371962,62.0107507],[-166.4198926,61.9648808],[-166.4325041,61.9371589],[-166.4881828,61.8932776],[-166.5518231,61.8091032],[-166.5801325,61.7249276],[-166.5951357,61.6128677],[-166.5911225,61.5287813],[-166.5523861,61.4548781],[-166.5142508,61.4075878],[-166.4530593,61.362185],[-166.4292741,61.3195285],[-166.3894841,61.2824865],[-166.3188747,61.2430592],[-166.2302227,61.2138623],[-166.1490016,61.1538348],[-166.0422147,61.107061],[-166.0287634,61.0664704],[-165.9967699,61.0221924],[-165.9122649,60.9588672],[-165.7626029,60.897161],[-165.5503815,60.8592249],[-165.4685528,60.7977806],[-165.4602149,60.7828395],[-165.4836112,60.7697364],[-165.6188015,60.7340385],[-165.7297421,60.6805316],[-165.7934689,60.6230701],[-165.8101198,60.592861],[-165.817074,60.5583171],[-165.8949245,60.5982787],[-166.0231499,60.6376064],[-166.1403594,60.6515255],[-166.2611286,60.6478334],[-166.3734914,60.6270661],[-166.4682064,60.5915531],[-166.5853532,60.5807557],[-166.7290267,60.5431288],[-166.8983264,60.5194895],[-166.9903163,60.4874868],[-167.0589885,60.4455594],[-167.4258937,60.4334755],[-167.552806,60.409344],[-167.6854103,60.3679937],[-167.7557026,60.3340745],[-167.80721,60.292713],[-167.8389452,60.2431636],[-167.8468776,60.1947059],[-167.8393893,60.1636286],[-167.8197795,60.1302617],[-167.7336996,60.0521714],[-167.7082011,59.9962966],[-167.6542464,59.9434356],[-167.5561865,59.8932681],[-167.4537869,59.8654329],[-167.2670927,59.7969965],[-167.1708894,59.7780161],[-167.0674674,59.7720956],[-166.8564358,59.6884915],[-166.7555964,59.6595168],[-166.6516081,59.6456426],[-166.5234189,59.6430245],[-166.4656633,59.6062466],[-166.3846008,59.5740503],[-166.298713,59.5533583],[-166.2081837,59.5426663],[-166.0694477,59.5450326],[-165.9213735,59.5666209],[-165.7974344,59.6103818],[-165.7142085,59.6715955],[-165.5485173,59.6874482],[-165.4194116,59.7141274],[-165.3446714,59.7389321],[-165.2440243,59.7973332],[-165.1885183,59.8466521],[-165.1348636,59.9369628],[-165.1296919,59.9989081],[-164.9809011,59.9867531],[-164.8211656,59.9982773],[-164.726044,59.9356993],[-164.7168257,59.883973],[-164.6908303,59.8407433],[-164.5635544,59.7235756],[-164.4910771,59.6673546],[-164.370522,59.6026163],[-164.3253487,59.5660505],[-164.2673232,59.5351842],[-164.1703033,59.4996704],[-164.0655241,59.4766381],[-163.8680878,59.4557725],[-163.7294271,59.4609526],[-163.6462301,59.4766832],[-163.5720168,59.5014899],[-163.5091466,59.5340733],[-163.4616992,59.5730987],[-163.3215801,59.577486],[-163.0221473,59.6217672],[-162.8492174,59.6234959],[-162.7155782,59.6425355],[-162.6820493,59.6050812],[-162.6379616,59.5740563],[-162.518704,59.5269385],[-162.5096666,59.4829658],[-162.4839121,59.4433744],[-162.4426293,59.4073627],[-162.3866485,59.3760412],[-162.4207233,59.339287],[-162.4403985,59.2981925],[-162.443213,59.2565943],[-162.4304559,59.213793],[-162.3398638,59.0728589],[-162.2083809,58.962412],[-162.1735026,58.9220435],[-162.1692603,58.8684811],[-162.3019696,58.8466707],[-162.4184148,58.8046698],[-162.4972989,58.7573998],[-162.5458893,58.6997934],[-162.5580883,58.6403941],[-162.5346141,58.5791848],[-162.4760035,58.5245593],[-162.3901796,58.4817741],[-162.2054207,58.4320727],[-162.0571368,58.4193689],[-161.9609145,58.3783152],[-161.8332036,58.352932],[-161.7276984,58.3500417],[-161.5510122,58.3658882],[-161.4545671,58.3893274],[-161.3767049,58.4241462],[-161.314809,58.391168],[-161.2361486,58.3655196],[-161.1523456,58.3509915],[-161.0601876,58.3467766],[-160.9034035,58.3542581],[-160.8140252,58.3676746],[-160.6917312,58.4014551],[-160.5916547,58.4509129],[-160.4895538,58.4114365],[-160.3693117,58.3916506],[-160.2557475,58.3921599],[-160.1422258,58.4114381],[-160.0149586,58.3925217],[-159.8832956,58.3973286],[-159.7908868,58.4163186],[-159.7056077,58.4491689],[-159.6381844,58.4910608],[-159.5945543,58.5384778],[-159.4458146,58.3878314],[-159.4203841,58.3258557],[-159.3599073,58.2713975],[-159.297362,58.2393155],[-159.2174376,58.2120983],[-159.0573163,58.1890208],[-158.8406447,58.1918526],[-158.6789157,58.2163571],[-158.5602447,58.253493],[-158.4421737,58.308556],[-158.3941321,58.3391872],[-158.1969107,58.3825292],[-157.9837831,58.2205734],[-157.9596914,58.1568894],[-157.976501,58.1122545],[-158.0299262,57.8465454],[-158.0753114,57.7475562],[-158.1430762,57.6918889],[-158.1729437,57.6297676],[-158.2302074,57.5973634],[-158.2805518,57.5544545],[-158.386654,57.5062179],[-158.5440771,57.4563451],[-158.6705474,57.3921161],[-158.7295086,57.3459588],[-158.7748863,57.293146],[-158.9596279,57.1371937],[-159.0203672,57.072961],[-159.1633099,57.0210975],[-159.2915426,56.9533407],[-159.4513442,56.8994469],[-159.5742134,56.8675269],[-159.6686878,56.8330065],[-159.7578072,56.7893343],[-160.0331727,56.7071649],[-160.2278078,56.600854],[-160.3933294,56.5462455],[-160.4945579,56.483056],[-160.5726613,56.4514596],[-160.6627325,56.3961295],[-160.7158014,56.3435156],[-160.7852426,56.2286588],[-161.036597,56.2285522],[-161.2572141,56.204668],[-161.6816772,56.1355763],[-161.9751391,56.0732173],[-162.0576721,56.040597],[-162.1602763,55.9807022],[-162.2756279,55.9485243],[-162.3715605,55.8939257],[-162.4840199,55.8478982],[-162.5352106,55.8162965],[-162.7683255,55.6374141],[-162.8866666,55.5883588],[-162.8990111,55.5848121],[-162.9562643,55.6134045],[-163.0527605,55.6459382],[-163.1711562,55.6639675],[-163.3168743,55.653802],[-163.4384581,55.6130777],[-163.5171928,55.5544691],[-163.539912,55.5221468],[-163.5530269,55.4846128],[-163.5537877,55.4498197],[-163.5423523,55.4121109],[-163.5017434,55.3435413],[-163.4657835,55.3020989],[-163.4977342,55.2850018],[-163.58496,55.2710666],[-163.661592,55.2453384],[-163.8031368,55.2562031],[-164.0026045,55.2309021],[-164.0802902,55.2110219],[-164.1490978,55.1798225],[-164.2544163,55.1657454],[-164.3534429,55.1312627],[-164.4396189,55.1366047],[-164.5295691,55.1288641],[-164.6265349,55.1080412],[-164.7280496,55.0699174],[-164.8095584,55.0271665],[-164.8635155,54.9843997],[-164.8915554,54.9459087],[-164.9070506,54.9016672],[-164.9424631,54.8645903],[-164.9634525,54.8241014],[-165.0473693,54.7986658],[-165.1535872,54.7530193],[-165.2066581,54.7199715],[-165.2559281,54.6749354],[-165.286249,54.6231391],[-165.2946888,54.5782041],[-165.2834686,54.5095421],[-165.2533458,54.444371],[-165.3466295,54.4787756],[-165.4547819,54.4960046],[-165.6421875,54.4968066],[-165.7230017,54.489449],[-165.8166371,54.4656009],[-165.89806,54.4246586],[-166.0630642,54.4143872],[-166.1776744,54.3850765],[-166.2913481,54.3356494],[-166.345434,54.3036267],[-166.3889898,54.2646532],[-166.4241709,54.2108674],[-166.5521083,54.2053973],[-166.6772251,54.217391],[-166.806755,54.2114196],[-167.0014764,54.1778747],[-167.183317,54.1338726],[-167.3430833,54.0515713],[-167.4364221,53.9743348],[-167.4666032,53.9402159],[-167.4939725,53.884829],[-167.4993557,53.8361423],[-167.4827159,53.7743058],[-167.4463372,53.7256581],[-167.4894168,53.6705045],[-167.5379525,53.6527248],[-167.6431685,53.7013026],[-167.7776882,53.7228685],[-167.8645626,53.7504802],[-167.7996485,53.7784198],[-167.7498506,53.8126902],[-167.7142779,53.8527016],[-167.6939743,53.8984701],[-167.6916067,53.9436551],[-167.7047898,53.9846669],[-167.7387873,54.0322031],[-167.7861925,54.0736831],[-167.8763339,54.1184167],[-167.9813827,54.1416004],[-168.0935984,54.1433339],[-168.2027393,54.1227718],[-168.2770538,54.0923813],[-168.3366295,54.0501597],[-168.3746471,53.9992907],[-168.3882026,53.9456399],[-168.3750903,53.8855082],[-168.3424124,53.8370947],[-168.2871159,53.7907191],[-168.2099583,53.754458],[-168.4118342,53.7002385],[-168.593131,53.6175579],[-168.6997074,53.5229503],[-168.7358897,53.4643807],[-168.8469576,53.4231627],[-169.0694105,53.2801801],[-169.1167582,53.2252686],[-169.1401157,53.1534967],[-169.1953466,53.1130097],[-169.2748812,53.103566],[-169.3486957,53.0828753],[-169.3877008,53.1347398],[-169.4273186,53.1690277],[-169.5407629,53.231657],[-169.6039566,53.257724],[-169.6746282,53.27537],[-169.7490172,53.282866],[-169.8243125,53.2800932],[-169.9050085,53.2660014],[-169.9826524,53.238948],[-170.0390813,53.2088057],[-170.0853113,53.1688298],[-170.1135359,53.1244384],[-170.2382375,53.1031908],[-170.3377479,53.0561047],[-170.394228,53.0144283],[-170.4293129,52.9761812],[-170.4502611,52.9327733],[-170.4545306,52.8881091],[-170.4648229,52.8769344],[-170.6247734,52.9005813],[-170.7438233,52.8972112],[-170.8149009,52.8824777],[-170.9055875,52.8517949],[-171.055165,52.7804835],[-171.1355078,52.7885295],[-171.2107759,52.7857561],[-171.2875102,52.7714627],[-171.352506,52.7481334],[-171.4230284,52.7036714],[-171.5113903,52.6680791],[-171.564545,52.6306485],[-171.623421,52.5622781],[-171.6436587,52.4800817]],[[-153.8125943,58.0958144],[-153.7812473,58.1357994],[-153.7666224,58.1798938],[-153.7323986,58.2219675],[-153.6272342,58.2857048],[-153.5950004,58.3207119],[-153.5773523,58.3547948],[-153.5001947,58.3732362],[-153.4135033,58.4090256],[-153.3559904,58.4231127],[-153.4214499,58.3700219],[-153.6200524,58.260124],[-153.7361547,58.1736907],[-153.7698128,58.1358238],[-153.7890453,58.1003274],[-153.8125943,58.0958144]],[[-153.1820044,58.5355625],[-153.1751501,58.5480609],[-153.1384992,58.5678286],[-153.1470249,58.5552926],[-153.1820044,58.5355625]],[[-153.1351951,59.1746654],[-153.0378021,59.226969],[-152.9882711,59.2723032],[-152.9581725,59.3138712],[-152.9463454,59.355137],[-152.949851,59.4008599],[-152.9626344,59.435607],[-152.9882543,59.4696836],[-152.7996166,59.5384149],[-152.7369847,59.5704962],[-152.6817424,59.6184419],[-152.6348227,59.6965675],[-152.5045744,59.7338297],[-152.3866021,59.7871688],[-152.3423843,59.822423],[-152.3119379,59.8624705],[-152.2362898,59.9186725],[-152.2054273,59.9633143],[-152.183627,60.0128684],[-152.1322999,60.0079718],[-152.1351769,59.9903844],[-152.1728665,59.952375],[-152.1981176,59.9023552],[-152.2462282,59.8438422],[-152.2642356,59.8008892],[-152.268105,59.761767],[-152.256245,59.7147197],[-152.2773791,59.4715931],[-152.357055,59.4099518],[-152.3786269,59.3752892],[-152.3927723,59.3323148],[-152.3878028,59.2698241],[-152.354996,59.2002256],[-152.330171,59.1676267],[-152.4343441,59.1579813],[-152.5357976,59.1335216],[-152.6071474,59.107169],[-152.665024,59.0732108],[-152.7134633,59.0236039],[-152.7523944,58.9434118],[-152.7552008,58.893673],[-152.7356006,58.846825],[-152.8741566,58.7660471],[-152.8767231,58.7916671],[-152.863219,58.8223855],[-152.8593247,58.8571039],[-152.8823049,58.9239306],[-152.9840247,59.0231463],[-153.0036024,59.072794],[-153.0335626,59.1115476],[-153.0786124,59.1462357],[-153.1351951,59.1746654]]],[[[-170.7901179,57.1609804],[-170.7842003,57.1263431],[-170.7675166,57.0930583],[-170.7770907,57.0529467],[-170.7710746,57.0100241],[-170.7492181,56.9693906],[-170.7094262,56.9297832],[-170.644563,56.8913683],[-170.5652553,56.863502],[-170.4750228,56.8470536],[-170.3825337,56.8432902],[-170.2826813,56.8528863],[-170.1914208,56.8771224],[-170.1275272,56.9061],[-170.0748163,56.9437782],[-170.0013795,56.9821864],[-169.8521319,56.9856368],[-169.7152913,57.0218437],[-169.6518006,57.0561974],[-169.6045636,57.0973607],[-169.5765272,57.1432699],[-169.5681203,57.1884381],[-169.5785483,57.2331978],[-169.6045092,57.2724729],[-169.6450417,57.3079534],[-169.6985608,57.3381684],[-169.8080608,57.3727013],[-169.8705704,57.4065425],[-169.9420908,57.4303504],[-170.03435,57.4461397],[-170.1328326,57.4488453],[-170.5047298,57.3969277],[-170.6331433,57.3586009],[-170.6957171,57.3233029],[-170.7534335,57.2727426],[-170.7800262,57.2243807],[-170.7901179,57.1609804]]],[[[-170.1480522,56.6125718],[-170.1383538,56.5670221],[-170.110424,56.5241381],[-170.0740098,56.4916067],[-169.992618,56.4398457],[-169.7987379,56.3594008],[-169.7166681,56.343266],[-169.5897333,56.3325048],[-169.4944626,56.3375155],[-169.4080132,56.3548806],[-169.3391381,56.3793968],[-169.2321402,56.4332742],[-169.1834816,56.4651299],[-169.1363143,56.5113163],[-169.1119662,56.5519215],[-169.1035939,56.5936211],[-169.1138806,56.642938],[-169.1489354,56.692761],[-169.2041135,56.7342815],[-169.2739134,56.7656964],[-169.4343941,56.8032873],[-169.7451551,56.8148442],[-169.9032351,56.8026041],[-170.028357,56.7619404],[-170.0794387,56.7305577],[-170.1170871,56.6943812],[-170.1404439,56.6542648],[-170.1480522,56.6125718]]],[[[-168.5686735,64.9664108],[-168.5574406,64.9238534],[-168.5260262,64.8838554],[-168.4738933,64.8462637],[-168.405642,64.8144494],[-168.2369536,64.7720888],[-168.0362947,64.7607945],[-167.8538325,64.7794036],[-167.7015044,64.8269461],[-167.6455047,64.8590588],[-167.6050123,64.8956322],[-167.5822398,64.9361677],[-167.5780649,64.9781594],[-167.5894547,65.0218754],[-167.616466,65.0589388],[-167.6597986,65.0930922],[-167.7229299,65.1251662],[-167.8843868,65.1689537],[-168.0782699,65.1822521],[-168.2635174,65.1637546],[-168.4158467,65.1189541],[-168.4894408,65.0784758],[-168.5325349,65.044407],[-168.5591053,65.007885],[-168.5686735,64.9664108]]],[[[-157.7640016,55.7764257],[-157.7571519,55.7382048],[-157.7351946,55.698358],[-157.7023772,55.6645718],[-157.6577986,55.6342797],[-157.5403216,55.590532],[-157.4073824,55.576068],[-157.269654,55.5918589],[-157.155678,55.6351294],[-157.1090077,55.6674564],[-157.0772264,55.7015611],[-157.0576567,55.7381956],[-157.0508088,55.7765542],[-157.0581792,55.8180765],[-157.0783095,55.8546239],[-157.1107364,55.8885723],[-157.153852,55.9181922],[-157.2668056,55.9612127],[-157.4061547,55.9771588],[-157.542045,55.9623014],[-157.6611819,55.9178228],[-157.7042971,55.8882029],[-157.736501,55.8544955],[-157.7566312,55.817948],[-157.7640016,55.7764257]]],[[[-156.1534481,55.8219986],[-156.1424852,55.7735249],[-156.11119,55.7281869],[-156.0260231,55.6579799],[-155.9656733,55.6231775],[-155.8501583,55.5841118],[-155.6973741,55.5570912],[-155.6132918,55.5509003],[-155.5330835,55.5552115],[-155.4518628,55.5709762],[-155.3844544,55.5951555],[-155.3110689,55.6357493],[-155.2655203,55.6728874],[-155.2254494,55.7241013],[-155.2007443,55.7825667],[-155.1950485,55.8172123],[-155.2189627,55.951389],[-155.2440756,55.9906689],[-155.2865206,56.0303867],[-155.3466737,56.0655068],[-155.4147056,56.0898926],[-155.5951683,56.1143814],[-155.6938501,56.1075762],[-155.786693,56.085941],[-156.0378586,55.9755501],[-156.0867089,55.9437553],[-156.1224501,55.9071687],[-156.1460697,55.8635207],[-156.1534481,55.8219986]]],[[[-146.8016139,59.3893077],[-146.7926011,59.3478565],[-146.7669511,59.3082639],[-146.7258341,59.2722509],[-146.6659695,59.2390809],[-146.505693,59.1940915],[-146.3448916,59.1854694],[-146.1302316,59.2201327],[-145.9673704,59.2904342],[-145.9157552,59.3227267],[-145.8783113,59.359788],[-145.8567107,59.4000109],[-145.8516923,59.4381664],[-145.8626237,59.4794985],[-145.9027126,59.5442384],[-145.956362,59.5918686],[-145.9901561,59.6339288],[-146.0416278,59.6708237],[-146.1139626,59.7028643],[-146.193149,59.7238281],[-146.2865471,59.7356582],[-146.3760044,59.7360546],[-146.4633073,59.7262229],[-146.5439083,59.7066755],[-146.6136258,59.6784302],[-146.6688688,59.6429545],[-146.7147057,59.5887481],[-146.7262155,59.5544688],[-146.7259701,59.5151927],[-146.7825202,59.4533423],[-146.8016139,59.3893077]]],[[[172.0983403,52.9230507],[172.1036201,52.8883866],[172.1207952,52.8515426],[172.1878658,52.787066],[172.2871493,52.7370422],[172.418822,52.7007646],[172.5064562,52.6427854],[172.5763393,52.6126215],[172.7925649,52.5548339],[172.8757481,52.5427162],[172.9919683,52.5472322],[173.1198092,52.582273],[173.1530838,52.5777897],[173.0875267,52.5253324],[173.0468161,52.4755322],[173.0282617,52.4353476],[173.023629,52.3971678],[173.0298988,52.3607797],[173.0738977,52.2931619],[173.1367261,52.2483547],[173.21795,52.2167499],[173.3297741,52.1921954],[173.4698691,52.1796181],[173.5910275,52.1503156],[173.6752479,52.1478684],[173.8120856,52.159671],[173.89343,52.1839444],[173.9687184,52.2236669],[174.0144296,52.2626799],[174.0429828,52.3044593],[174.0556115,52.3493713],[174.0505172,52.3976255],[174.0880303,52.4485005],[174.1026123,52.5051673],[174.1846564,52.4997476],[174.2684147,52.5072934],[174.340422,52.4674768],[174.4222888,52.4432055],[174.5118822,52.4335949],[174.6023476,52.4393798],[174.6965623,52.4636944],[174.7740045,52.50455],[174.8271128,52.5579861],[174.8506286,52.6188072],[174.8446636,52.6742779],[174.8119385,52.7297799],[174.7543447,52.7773651],[174.6812579,52.8109396],[174.5673655,52.834134],[174.4455823,52.8306942],[174.4070326,52.8656338],[174.357542,52.8947306],[174.2341034,52.9312993],[174.0797602,52.9434732],[174.0014973,52.9631303],[173.9090711,52.9743812],[173.8191865,52.9736161],[173.728189,52.9582974],[173.6614571,53.0039012],[173.5862391,53.035897],[173.5397874,53.069881],[173.4590838,53.109968],[173.27289,53.1710821],[173.1789694,53.1880979],[172.9551685,53.1932309],[172.7719588,53.2109804],[172.5801672,53.2008716],[172.501906,53.188218],[172.2432905,53.0889254],[172.1863491,53.0594595],[172.121872,52.9979242],[172.1041262,52.9611721],[172.0983403,52.9230507]]],[[[175.5142934,52.3826988],[175.5217249,52.3411941],[175.5430568,52.3015393],[175.6451313,52.2080521],[175.7679416,52.1527694],[175.893296,52.132914],[176.0408749,52.1439588],[176.159134,52.1840687],[176.231973,52.2317584],[176.2665942,52.2636054],[176.2953502,52.3089796],[176.3053091,52.3537848],[176.2985557,52.3988139],[176.2777308,52.438578],[176.2404088,52.4776274],[176.1898653,52.5111936],[176.0675769,52.5563511],[175.8678067,52.5886853],[175.7294449,52.5760656],[175.6140707,52.5318922],[175.5702598,52.4998157],[175.5383948,52.4628728],[175.5208597,52.4261182],[175.5142934,52.3826988]]],[[[176.870534,51.8769552],[176.8756809,51.8422844],[176.8924457,51.8054321],[176.9541325,51.7435009],[177.1519141,51.6430867],[177.248087,51.614729],[177.3546188,51.6072357],[177.4580397,51.6214464],[177.5535739,51.6583574],[177.625273,51.7160041],[177.753381,51.7382995],[177.8601483,51.6946977],[177.9832124,51.6802268],[178.0499842,51.6309877],[178.1119768,51.6009732],[178.322886,51.5551135],[178.363624,51.5130737],[178.4370955,51.4652846],[178.6619212,51.3657057],[178.78595,51.3402898],[178.8395016,51.3007461],[178.9192595,51.261135],[178.9986222,51.2024653],[179.1481032,51.1545618],[179.2356588,51.1468561],[179.4166652,51.1558595],[179.6230281,51.1853993],[179.6931349,51.2133171],[179.749585,51.2517547],[179.7872185,51.2961791],[179.806221,51.3455892],[179.8014227,51.4080145],[179.7658092,51.4666298],[179.7151903,51.5081086],[179.6025633,51.5678632],[179.5114856,51.6014529],[179.4082138,51.6146433],[179.3125258,51.6525367],[179.2572311,51.7162638],[179.1652249,51.7658343],[178.9961246,51.8112347],[178.8609817,51.8366072],[178.8965865,51.8826644],[178.9128206,51.9350942],[178.9071873,51.9903237],[178.8807094,52.0398392],[178.8256482,52.0906992],[178.7743397,52.1230527],[178.5858143,52.1854546],[178.4905764,52.1931952],[178.3961611,52.18347],[178.2922762,52.2312213],[178.1736624,52.25189],[178.0455638,52.2464322],[177.9390947,52.2193368],[177.895833,52.2524713],[177.8430659,52.278839],[177.7438554,52.3157057],[177.6536337,52.3326325],[177.5420768,52.3332293],[177.4424064,52.3142192],[177.3574811,52.3201184],[177.2733475,52.3123779],[177.1623479,52.2774969],[177.0811909,52.2198077],[177.0554685,52.1847556],[177.0411962,52.1474887],[177.0387591,52.1088542],[177.0472547,52.0734352],[176.9708567,52.0371228],[176.914467,51.9902139],[176.8838522,51.9416226],[176.870534,51.8769552]]],[[[179.166756,51.955404],[179.179113,51.8983895],[179.2170398,51.8395464],[179.2899342,51.7794557],[179.3534768,51.7455661],[179.4175353,51.7240705],[179.5744369,51.6892604],[179.676653,51.68791],[179.7638419,51.6997153],[179.8500754,51.7259501],[180,51.7940888],[180,52.1384488],[179.8986354,52.1901077],[179.7659808,52.2319078],[179.6346938,52.2443949],[179.5215506,52.2320046],[179.3244351,52.169414],[179.2422598,52.1241672],[179.2081444,52.0921623],[179.1830285,52.0533833],[179.166756,51.955404]]]]}}]}