{"type":"FeatureCollection","features":[{"type":"Feature","properties":{"id":"al"},"geometry":{"type":"Polygon","coordinates":[[[-88.4731014,31.8939025],[-88.38667,30.1594632],[-88.3211643,30.1781935],[-88.156751,30.1989119],[-88.1152856,30.1621581],[-88.0486872,30.1435843],[-88.0238554,30.1507312],[-88.0008163,30.1736019],[-87.9844833,30.1770811],[-87.8110352,30.1769377],[-87.6461882,30.2007221],[-87.5183303,30.22868],[-87.5183799,30.284045],[-87.4521513,30.3001504],[-87.4498992,30.3111235],[-87.5008042,30.3063737],[-87.5063869,30.3137411],[-87.5021936,30.326797],[-87.4604743,30.3355541],[-87.4507815,30.3454724],[-87.4507406,30.3675996],[-87.4309871,30.4046001],[-87.379667,30.4242666],[-87.3718799,30.4441017],[-87.4251016,30.4656159],[-87.435637,30.4802378],[-87.430846,30.497772],[-87.450371,30.514462],[-87.444524,30.514248],[-87.4482341,30.5261093],[-87.417917,30.562254],[-87.407619,30.600797],[-87.394913,30.614266],[-87.3943037,30.6453313],[-87.4060758,30.6746378],[-87.4493729,30.6989462],[-87.4680322,30.6999854],[-87.4810141,30.7175578],[-87.501944,30.721274],[-87.529977,30.740952],[-87.545432,30.779389],[-87.615245,30.83421],[-87.634744,30.86561],[-87.590933,30.953513],[-87.5988282,30.9975026],[-85.998611,30.99287],[-85.0023758,31.0007167],[-85.0088725,31.0466489],[-85.0285964,31.074375],[-85.0358425,31.1086366],[-85.0539651,31.1201021],[-85.0774691,31.1574779],[-85.100207,31.16549],[-85.0990306,31.1807992],[-85.1079909,31.1880554],[-85.097072,31.2262162],[-85.1146635,31.2769151],[-85.08998,31.2952277],[-85.0838785,31.3264976],[-85.0925437,31.3639777],[-85.0753501,31.4266351],[-85.0659823,31.4306959],[-85.0716996,31.4686447],[-85.044986,31.51823],[-85.041305,31.540987],[-85.0579943,31.5708583],[-85.058444,31.6204211],[-85.0868175,31.6392674],[-85.078646,31.6539515],[-85.1259757,31.6963243],[-85.11893,31.732664],[-85.1291148,31.7588502],[-85.1257168,31.7678699],[-85.1421258,31.7818232],[-85.1322921,31.7937807],[-85.1311929,31.8159732],[-85.1420063,31.8391859],[-85.1406302,31.8578169],[-85.1285999,31.8777569],[-85.1339058,31.892443],[-85.1125942,31.8939427],[-85.1131042,31.9117551],[-85.0786323,31.9405217],[-85.0864995,31.9599032],[-85.0672272,31.9682043],[-85.0658535,32.0001995],[-85.0489493,32.0215384],[-85.0586505,32.0466583],[-85.0470634,32.0904333],[-85.061144,32.134065],[-85.011267,32.180493],[-84.9650959,32.1946763],[-84.9653223,32.2035213],[-84.9802027,32.2077353],[-84.9734368,32.2175443],[-84.928227,32.219851],[-84.912927,32.24295],[-84.924427,32.250149],[-84.9083358,32.2488195],[-84.8884169,32.2608849],[-84.9361967,32.3001013],[-85.0052906,32.3258553],[-85.0042138,32.3447345],[-84.9837542,32.3622804],[-84.984831,32.3727049],[-84.9716606,32.3766575],[-84.9880615,32.3837402],[-84.9841683,32.3908049],[-84.9684383,32.3910979],[-84.9802111,32.4086292],[-84.96303,32.424244],[-84.971831,32.442843],[-84.99533,32.453243],[-85.0024016,32.5204763],[-85.066552,32.5806952],[-85.0891941,32.6230308],[-85.0824736,32.6370539],[-85.1034967,32.6431431],[-85.0877897,32.6586444],[-85.1114414,32.6854763],[-85.1186083,32.7154867],[-85.1147888,32.7398559],[-85.1351341,32.7465136],[-85.1416163,32.7606276],[-85.1367587,32.7710653],[-85.1217251,32.7742864],[-85.1681777,32.8121349],[-85.1678073,32.8281723],[-85.1542656,32.8395197],[-85.1545766,32.8492093],[-85.1840862,32.8627076],[-85.605165,34.984678],[-88.202969,35.0081121],[-88.1548874,34.9229618],[-88.0977945,34.8920866],[-88.243025,33.7956443],[-88.4731014,31.8939025]]]}}]}