{"type":"FeatureCollection","features":[{"type":"Feature","properties":{"id":"ar"},"geometry":{"type":"Polygon","coordinates":[[[-94.6178753,36.4995],[-94.4312145,35.3943534],[-94.4858248,33.6377602],[-94.4571901,33.6370623],[-94.4430401,33.5918876],[-94.4225145,33.5933895],[-94.4209695,33.578088],[-94.4083524,33.5692205],[-94.3929887,33.5702217],[-94.3836332,33.5870261],[-94.3676687,33.5849526],[-94.3989959,33.5544858],[-94.3880954,33.5477619],[-94.3595138,33.5521253],[-94.3358245,33.5744398],[-94.329988,33.5523399],[-94.3109336,33.5497648],[-94.303123,33.5593495],[-94.3044963,33.5785122],[-94.2965999,33.581158],[-94.271105,33.5779594],[-94.291965,33.5609946],[-94.278318,33.5561309],[-94.2621818,33.581301],[-94.2426982,33.5914542],[-94.2357513,33.5900422],[-94.234201,33.5782977],[-94.2531696,33.5588489],[-94.2261329,33.5539851],[-94.2125717,33.5652143],[-94.2148033,33.5845187],[-94.1811783,33.5826789],[-94.1642866,33.5926878],[-94.1519356,33.583298],[-94.1549793,33.557633],[-94.1270843,33.5720799],[-94.0936103,33.5707926],[-94.069552,33.5827617],[-94.0633121,33.5670738],[-94.0433167,33.5521745],[-94.0429641,33.0192302],[-91.1659657,33.0042455],[-91.1610317,33.0207008],[-91.1279333,33.0345533],[-91.120348,33.0567577],[-91.1499864,33.0819592],[-91.1990333,33.106057],[-91.2017371,33.1243303],[-91.183662,33.1416551],[-91.1638641,33.1423485],[-91.1503673,33.130804],[-91.1279762,33.1288948],[-91.1033836,33.1320023],[-91.0884404,33.1424024],[-91.0843016,33.1805866],[-91.0916037,33.2207075],[-91.065629,33.2329461],[-91.043624,33.2746001],[-91.052369,33.2853791],[-91.07853,33.2832701],[-91.099093,33.2381371],[-91.106142,33.2417631],[-91.141615,33.2995031],[-91.142219,33.3489532],[-91.075293,33.4059302],[-91.058152,33.4286692],[-91.057621,33.4453052],[-91.067623,33.4550682],[-91.086498,33.4515402],[-91.1020617,33.4104881],[-91.1426627,33.3821567],[-91.171968,33.3809942],[-91.208113,33.4019712],[-91.199354,33.4182852],[-91.17628,33.4169432],[-91.131885,33.4300272],[-91.117975,33.4537712],[-91.136656,33.4812872],[-91.1708921,33.4924604],[-91.175635,33.4717252],[-91.16936,33.4525932],[-91.177293,33.4436022],[-91.206807,33.4338102],[-91.235181,33.4389362],[-91.231661,33.4570642],[-91.208535,33.4685702],[-91.1852037,33.5007004],[-91.187367,33.5105162],[-91.226325,33.5411642],[-91.231418,33.5605572],[-91.17822,33.5825712],[-91.152148,33.5826852],[-91.134043,33.5944533],[-91.130445,33.6059983],[-91.139209,33.6256223],[-91.178311,33.6510733],[-91.219048,33.6614673],[-91.229015,33.6775073],[-91.212077,33.6982133],[-91.160866,33.7070603],[-91.13045,33.6744863],[-91.09404,33.6583153],[-91.03146,33.6781063],[-91.030402,33.6877303],[-91.059891,33.7147803],[-91.117733,33.7053063],[-91.146618,33.7324203],[-91.145112,33.7673043],[-91.132185,33.7833843],[-91.107318,33.7705833],[-91.053886,33.7786653],[-91.023285,33.7629553],[-91.000106,33.7691293],[-90.988466,33.7844943],[-91.000107,33.7995133],[-91.046849,33.8153293],[-91.073011,33.8574134],[-91.010318,33.9293164],[-91.084095,33.9561434],[-91.087921,33.9752994],[-91.075378,33.9835504],[-91.048367,33.9850424],[-91.0465705,33.9923975],[-91.01889,34.0031154],[-91.000108,33.9663924],[-90.967632,33.9632884],[-90.9611403,33.9784859],[-90.987948,34.0190024],[-90.89242,34.0268244],[-90.887837,34.0553674],[-90.870528,34.0804805],[-90.882628,34.0965795],[-90.918395,34.0930185],[-90.946323,34.1093385],[-90.958467,34.1250695],[-90.9543,34.1384625],[-90.91001,34.1654725],[-90.847168,34.1368485],[-90.825708,34.1419755],[-90.810884,34.1558675],[-90.808685,34.1758425],[-90.816572,34.1829875],[-90.887884,34.1819445],[-90.916048,34.1968805],[-90.93522,34.2190145],[-90.937152,34.2340745],[-90.929015,34.2445055],[-90.907082,34.2444565],[-90.89456,34.2243445],[-90.847808,34.2064945],[-90.828267,34.2736145],[-90.802928,34.2824295],[-90.765165,34.2804885],[-90.743082,34.3022215],[-90.744713,34.3248366],[-90.767732,34.3468366],[-90.765764,34.3620736],[-90.6832221,34.3687815],[-90.693129,34.3225346],[-90.669343,34.3129846],[-90.657488,34.3221956],[-90.666862,34.3485336],[-90.658542,34.3756696],[-90.613944,34.3906876],[-90.571145,34.4202836],[-90.56733,34.4403476],[-90.585477,34.4612116],[-90.588942,34.4910616],[-90.578493,34.5162606],[-90.540736,34.5480497],[-90.587224,34.6156967],[-90.588419,34.6709277],[-90.567334,34.6933357],[-90.549856,34.6954427],[-90.538061,34.6731967],[-90.552642,34.6596717],[-90.554129,34.6408357],[-90.532188,34.6274517],[-90.5081,34.6366467],[-90.466041,34.6742767],[-90.462552,34.6875407],[-90.471185,34.6990307],[-90.538974,34.6987477],[-90.568081,34.7247667],[-90.563544,34.7386357],[-90.5438113,34.7492421],[-90.544067,34.7911238],[-90.522892,34.8022298],[-90.514706,34.8017328],[-90.500994,34.7711517],[-90.5205564,34.7533528],[-90.5183175,34.7327552],[-90.488865,34.7236957],[-90.452479,34.7398627],[-90.47459,34.7931648],[-90.456935,34.8233478],[-90.483876,34.8612978],[-90.479872,34.8832288],[-90.459819,34.8919108],[-90.438313,34.8845458],[-90.42898,34.8671328],[-90.428754,34.8413648],[-90.414864,34.8318108],[-90.34038,34.8603218],[-90.323067,34.8463558],[-90.307384,34.8461598],[-90.303331,34.8588025],[-90.3177667,34.8710299],[-90.250095,34.9072848],[-90.244725,34.9209958],[-90.250056,34.9511608],[-90.296422,34.9763108],[-90.309297,34.9956588],[-90.295596,35.040093],[-90.2653068,35.0404409],[-90.209397,35.026546],[-90.195817,35.037788],[-90.195873,35.060208],[-90.165328,35.125228],[-90.142794,35.135091],[-90.096515,35.117131],[-90.065392,35.137691],[-90.066958,35.151839],[-90.0920676,35.1563676],[-90.1173989,35.1878965],[-90.1161879,35.1985045],[-90.0964719,35.1948545],[-90.088597,35.212376],[-90.074392,35.210589],[-90.079345,35.228838],[-90.105093,35.254288],[-90.152094,35.255989],[-90.168924,35.28028],[-90.158913,35.300637],[-90.109093,35.304987],[-90.103862,35.332405],[-90.110293,35.342788],[-90.0806579,35.3857906],[-90.112504,35.410153],[-90.130475,35.413745],[-90.146191,35.399468],[-90.13551,35.376668],[-90.166246,35.374745],[-90.179265,35.385194],[-90.169002,35.421853],[-90.129448,35.441931],[-90.11839,35.468791],[-90.098719,35.478595],[-90.085009,35.478835],[-90.067798,35.466224],[-90.074082,35.433983],[-90.062018,35.41518],[-90.0695631,35.4080689],[-90.054322,35.389277],[-90.044582,35.393073],[-90.056782,35.403863],[-90.031584,35.427662],[-90.018916,35.466231],[-90.043462,35.492339],[-90.04981,35.510454],[-90.032938,35.55344],[-89.989363,35.560043],[-89.956706,35.539369],[-89.9587824,35.5238469],[-89.9242905,35.5112816],[-89.9046661,35.519308],[-89.9109336,35.5477553],[-89.941997,35.556964],[-89.957495,35.58853],[-89.911082,35.617556],[-89.894345,35.615535],[-89.856619,35.634444],[-89.851558,35.659105],[-89.864739,35.670388],[-89.898916,35.650904],[-89.9315134,35.6611397],[-89.955753,35.690621],[-89.956252,35.733388],[-89.909825,35.759387],[-89.876462,35.738026],[-89.847127,35.755499],[-89.820876,35.756868],[-89.781176,35.805296],[-89.765438,35.811213],[-89.734707,35.806047],[-89.704387,35.819607],[-89.7063196,35.8371766],[-89.772467,35.865098],[-89.765689,35.891299],[-89.742606,35.906653],[-89.714934,35.906247],[-89.666101,35.882866],[-89.645346,35.891419],[-89.6425425,35.9053458],[-89.656147,35.92581],[-89.714565,35.963034],[-89.719168,35.985976],[-89.733095,36.000608],[-90.37789,35.9957227],[-90.3517261,36.0248177],[-90.348435,36.041669],[-90.337041,36.0470344],[-90.3332489,36.0675932],[-90.320465,36.0714064],[-90.3202504,36.0889824],[-90.2998817,36.0980421],[-90.2933666,36.1143511],[-90.2723247,36.1162839],[-90.2355623,36.1392351],[-90.2354229,36.1594163],[-90.2205473,36.1844938],[-90.2113527,36.1829654],[-90.1881355,36.205646],[-90.126332,36.229073],[-90.1309991,36.2411668],[-90.1169014,36.263584],[-90.0835776,36.2720136],[-90.0756705,36.2811602],[-90.0788784,36.2899296],[-90.064196,36.3024851],[-90.0823723,36.3221476],[-90.0632626,36.383598],[-90.0806058,36.4007327],[-90.115653,36.4056314],[-90.1275981,36.4169096],[-90.1386595,36.413823],[-90.1341051,36.4228278],[-90.1442921,36.4259399],[-90.1344672,36.4360676],[-90.1337081,36.4536675],[-90.1413284,36.4668166],[-90.1554906,36.463791],[-90.1423931,36.4706961],[-90.1596505,36.4798971],[-90.1600487,36.494345],[-90.1521672,36.4979542],[-94.6178753,36.4995]]]}}]}