{"type":"FeatureCollection","features":[{"type":"Feature","properties":{"id":"az"},"geometry":{"type":"Polygon","coordinates":[[[-114.8183584,32.4990817],[-112.2086814,31.6922315],[-111.0749881,31.3323564],[-109.050048,31.332366],[-109.045182,36.9989819],[-114.0501375,36.9997794],[-114.046606,36.195271],[-114.0677938,36.1822985],[-114.0765848,36.1613053],[-114.0906036,36.15076],[-114.0896441,36.1405227],[-114.1203026,36.1119455],[-114.1187246,36.0876122],[-114.1343073,36.0648135],[-114.13735,36.0404854],[-114.1515771,36.0247922],[-114.1769373,36.0275135],[-114.2416687,36.013886],[-114.280202,36.046362],[-114.3126762,36.0611833],[-114.3091542,36.0809374],[-114.3326021,36.11032],[-114.3733094,36.1417876],[-114.405475,36.147371],[-114.446605,36.12597],[-114.463637,36.139695],[-114.5021721,36.1287957],[-114.511721,36.150956],[-114.572031,36.15161],[-114.616694,36.130101],[-114.6299888,36.1426571],[-114.6653376,36.1169749],[-114.738948,36.1034971],[-114.7565764,36.0806923],[-114.7361348,36.0589247],[-114.7444539,36.0412812],[-114.722125,36.0292445],[-114.743174,36.0083325],[-114.7435517,35.9839719],[-114.7292376,35.9600146],[-114.730521,35.9432173],[-114.7079979,35.9286621],[-114.7080792,35.9117557],[-114.6971814,35.8982443],[-114.6622085,35.8723489],[-114.705164,35.8509088],[-114.6955918,35.8304907],[-114.7114417,35.806757],[-114.698897,35.7892686],[-114.6950937,35.7576361],[-114.7028362,35.7074266],[-114.6812014,35.6840966],[-114.6891972,35.6511321],[-114.6531499,35.6064921],[-114.6751499,35.57915],[-114.6631966,35.5646358],[-114.6635343,35.5346011],[-114.6788121,35.4979236],[-114.6000195,35.3419448],[-114.5959556,35.2921377],[-114.5697351,35.1855217],[-114.5793016,35.1285521],[-114.6270496,35.1193328],[-114.6462773,35.1022574],[-114.6028132,35.0689416],[-114.6377868,35.02476],[-114.6288594,34.9887743],[-114.6351376,34.965102],[-114.629413,34.9409424],[-114.6347262,34.8741371],[-114.5875753,34.8366267],[-114.5529557,34.7670111],[-114.4857449,34.7152128],[-114.4701368,34.7109598],[-114.4506658,34.6667538],[-114.458046,34.6571954],[-114.442686,34.6441624],[-114.4376449,34.6197595],[-114.4237503,34.6084395],[-114.4362984,34.5932425],[-114.4018269,34.5621771],[-114.3814291,34.5264702],[-114.3820229,34.4514294],[-114.3312367,34.4470174],[-114.2964352,34.4234157],[-114.2873626,34.4049259],[-114.2633057,34.400607],[-114.227106,34.3656192],[-114.1826051,34.3538238],[-114.1381384,34.3045668],[-114.1307816,34.2619386],[-114.1651327,34.2595255],[-114.1650887,34.2508323],[-114.2249856,34.2038572],[-114.2286354,34.1873423],[-114.2555606,34.1735947],[-114.2900826,34.1683239],[-114.3236352,34.136998],[-114.3526555,34.1330442],[-114.3671363,34.1183472],[-114.4167205,34.1070096],[-114.4343432,34.0868931],[-114.438544,34.0218406],[-114.4656197,34.0112119],[-114.4589251,33.995111],[-114.5005587,33.9613451],[-114.5230346,33.9538797],[-114.5343885,33.9381666],[-114.5355006,33.9259202],[-114.5081383,33.9031554],[-114.5259682,33.8985204],[-114.5036056,33.8755427],[-114.5035362,33.8660463],[-114.5306542,33.8530022],[-114.5179862,33.8202884],[-114.5269224,33.8123712],[-114.5049771,33.7614878],[-114.5122167,33.7338525],[-114.4940899,33.7073652],[-114.5317991,33.6728769],[-114.5139344,33.6595287],[-114.533371,33.6515214],[-114.5236138,33.6358085],[-114.5312961,33.6246765],[-114.52186,33.6117858],[-114.5407396,33.5902458],[-114.5241762,33.5529631],[-114.5587611,33.5320181],[-114.5685006,33.5098395],[-114.5916008,33.4994171],[-114.6224953,33.4576167],[-114.6285468,33.4295879],[-114.638815,33.4196834],[-114.6537552,33.4127744],[-114.687445,33.4179406],[-114.7253801,33.4054107],[-114.7076542,33.3831497],[-114.6980879,33.3525783],[-114.707194,33.3242114],[-114.7314741,33.3032791],[-114.7222982,33.2871419],[-114.6842066,33.2759244],[-114.672236,33.259266],[-114.6895111,33.246465],[-114.673165,33.2235283],[-114.6754565,33.1859085],[-114.7068202,33.0888464],[-114.6889895,33.0842056],[-114.6737028,33.0424885],[-114.6617751,33.0327351],[-114.6451425,33.0490232],[-114.6165473,33.0269799],[-114.5895501,33.0263033],[-114.5720666,33.0366311],[-114.5255797,33.0313415],[-114.5095893,33.0220003],[-114.4931206,32.9719198],[-114.4741357,32.97502],[-114.4677032,32.9683568],[-114.4810802,32.9356187],[-114.463111,32.9101355],[-114.469154,32.8443911],[-114.529746,32.7954162],[-114.526846,32.7571596],[-114.5390846,32.7573302],[-114.5390086,32.7498602],[-114.5644777,32.7496841],[-114.56446,32.7424267],[-114.5816216,32.7424552],[-114.581747,32.7351706],[-114.6150523,32.7345151],[-114.6171924,32.7285278],[-114.7025205,32.7449318],[-114.7651863,32.6431209],[-114.7897725,32.6211985],[-114.8105049,32.6223489],[-114.8003983,32.586757],[-114.8129517,32.557377],[-114.7914936,32.5563928],[-114.8057949,32.5374852],[-114.8033488,32.5271193],[-114.8125112,32.5233923],[-114.8084318,32.5069666],[-114.8183584,32.4990817]]]}}]}