{"type":"FeatureCollection","features":[{"type":"Feature","properties":{"id":"bc"},"geometry":{"type":"MultiPolygon","coordinates":[[[[-139.0613278,59.9996374],[-138.798517,59.9246481],[-138.707377,59.9063253],[-138.668649,59.8096569],[-138.626201,59.7685806],[-137.607356,59.2438033],[-137.542132,59.1064275],[-137.5,58.9853947],[-137.526114,58.9063722],[-137.451725,58.9083489],[-137.282846,58.9999978],[-136.9696775,59.1012333],[-136.828728,59.1599597],[-136.584444,59.1658544],[-136.489702,59.2597753],[-136.495756,59.2751325],[-136.469246,59.2840789],[-136.477156,59.4658242],[-136.368243,59.4489597],[-136.305021,59.4645178],[-136.2385042,59.5243264],[-136.2398303,59.5594125],[-136.346389,59.600556],[-136.1929042,59.6400267],[-135.9526453,59.6621664],[-135.4791608,59.7980414],[-135.3601092,59.7376147],[-135.2336683,59.6961431],[-135.2198447,59.6627764],[-135.1575897,59.6257194],[-135.1178333,59.62307],[-135.0289025,59.5636592],[-135.0275622,59.4747381],[-135.0772806,59.4517706],[-135.1010194,59.4275314],[-134.9897444,59.3871294],[-135.0305256,59.3463478],[-134.9599053,59.2809264],[-134.7007158,59.2490108],[-134.6791169,59.1922747],[-134.5655658,59.1311239],[-134.4833953,59.1316033],[-134.4471228,59.0892233],[-134.3818769,59.0387633],[-134.4071486,58.97921],[-134.313489,58.9621822],[-134.336463,58.9234136],[-134.258073,58.8610358],[-133.840506,58.7294442],[-133.7071183,58.6122742],[-133.5578053,58.5231314],[-133.377303,58.4305483],[-133.461504,58.3877233],[-133.345432,58.2763325],[-133.172311,58.1536756],[-133.070095,58.0003406],[-132.869367,57.8397131],[-132.751058,57.6959731],[-132.660864,57.6167369],[-132.553684,57.4965136],[-132.369791,57.3497467],[-132.247921,57.2112533],[-132.3689831,57.0915128],[-132.045191,57.0450592],[-132.123567,56.8736483],[-131.8728761,56.805995],[-131.9010717,56.753675],[-131.860669,56.7029842],[-131.835327,56.5992028],[-131.581067,56.6122319],[-131.471829,56.5525902],[-131.173466,56.4495239],[-131.087348,56.4060047],[-130.78198,56.3668442],[-130.6233081,56.2668783],[-130.540531,56.2474506],[-130.46787,56.2430533],[-130.426006,56.1415614],[-130.35009,56.1285419],[-130.246219,56.0964114],[-130.103798,56.1227981],[-130.003485,56.008075],[-130.0176459,55.9119531],[-130.003784,55.9074368],[-130.0834939,55.821711],[-130.1247643,55.805642],[-130.1524057,55.7662874],[-130.1477589,55.7149031],[-130.1116579,55.6829019],[-130.1279045,55.5810345],[-130.0898536,55.4979784],[-130.041216,55.4517254],[-130.0211082,55.3379165],[-129.976649,55.3003717],[-129.9741673,55.2819188],[-130.1028417,55.1926024],[-130.1808826,55.0912511],[-130.1875628,55.0628418],[-130.2733277,54.9739646],[-130.345938,54.9177286],[-130.5682041,54.7921536],[-130.6288741,54.7827202],[-130.6590382,54.7630584],[-130.6257206,54.7380735],[-130.6285756,54.7250924],[-130.5934109,54.6676987],[-130.7228789,54.6465772],[-131.0928022,54.6373303],[-131.2023705,54.619374],[-131.2296362,54.5820968],[-131.2263261,54.5454055],[-131.1323042,54.4431778],[-131.0103799,54.3660252],[-130.9238798,54.2629141],[-130.946445,54.1793587],[-130.9345214,54.1072],[-130.8232388,54.0365834],[-130.8307606,53.9557648],[-130.8134998,53.8494086],[-130.7435869,53.7739089],[-130.4850888,53.7119179],[-130.6239341,53.6519545],[-130.6678132,53.6066396],[-130.6508022,53.5648057],[-130.7188901,53.5023727],[-130.7228791,53.4649585],[-130.6981196,53.4358621],[-130.6,53.4],[-130.5,53.4],[-130.3981196,53.3775708],[-130.369913,53.3449282],[-130.2905978,53.3292087],[-130.2169239,53.2977523],[-130.1409631,53.2161353],[-130.0671812,53.1597982],[-129.9613113,53.1207524],[-129.871276,53.1],[-129.7905978,53.0163689],[-129.769913,52.9419486],[-129.7,52.9],[-129.4514454,52.9079087],[-129.4623912,52.8398099],[-129.5335111,52.6850567],[-129.5030873,52.5034341],[-129.4519787,52.4644988],[-129.3711199,52.455038],[-129.1789784,52.4848215],[-129.1466742,52.4424312],[-128.9695762,52.3551627],[-128.8219753,52.321449],[-128.8250356,52.2695171],[-128.7604294,52.2213168],[-128.6353987,52.2],[-128.5680326,52.1192494],[-128.502355,52.069848],[-128.5751316,51.9644574],[-128.5849565,51.9080181],[-128.5376088,51.8511376],[-128.4244457,51.8093021],[-128.3607617,51.7996295],[-128.2251193,51.7],[-128.2398278,51.6685217],[-128.1924805,51.5189935],[-128.1601122,51.4534184],[-127.9633332,51.3863805],[-127.9095373,51.3453063],[-127.8855614,51.2096163],[-127.8573551,51.1605043],[-127.8162328,51.0485085],[-127.8176634,51.0112063],[-127.8630466,50.9745748],[-127.9730387,50.9715004],[-128.0421192,50.9481324],[-128.1605867,50.8907746],[-128.264649,50.8555335],[-128.4976895,50.8295051],[-128.6595029,50.8733492],[-128.7441227,50.8828412],[-128.8906063,50.8608473],[-129.0642841,50.897628],[-129.1058335,50.8970186],[-129.1372734,50.881021],[-129.1488993,50.8497048],[-129.1312574,50.8343501],[-128.9582948,50.7797913],[-128.7802291,50.7408637],[-128.7440351,50.7436004],[-128.713823,50.7591513],[-128.6816117,50.7579341],[-128.6391299,50.7407819],[-128.5984904,50.7397853],[-128.5323082,50.7605471],[-128.5015678,50.7905668],[-128.4967052,50.7604911],[-128.4723874,50.7229645],[-128.446544,50.7013513],[-128.4330497,50.6639906],[-128.3957252,50.6318403],[-128.3893619,50.6113124],[-128.3619678,50.5852229],[-128.3123517,50.5657538],[-128.2783358,50.5161525],[-128.2339957,50.4830756],[-128.1835804,50.4661369],[-128.1542312,50.438374],[-128.1144585,50.4271087],[-128.0867278,50.4075607],[-128.0382727,50.400801],[-128.0464723,50.3483338],[-128.027824,50.3076572],[-128.0000029,50.2861907],[-127.9365744,50.2768503],[-127.9507523,50.2508446],[-127.9364157,50.2238131],[-127.945993,50.2042995],[-127.9355919,50.1783655],[-127.9736964,50.1584678],[-127.9900957,50.1306992],[-127.9825176,50.1000348],[-127.9628749,50.0814482],[-127.9000628,50.0560191],[-127.8270572,50.0380074],[-127.7681284,50.0395805],[-127.6898538,50.0690454],[-127.6555455,50.0549296],[-127.620651,50.0031992],[-127.5964613,49.9870141],[-127.491481,49.9542272],[-127.411512,49.9466614],[-127.3748365,49.9189343],[-127.331327,49.9116149],[-127.2693065,49.8663804],[-127.2342132,49.8551067],[-127.1947842,49.8259141],[-127.0689739,49.7669365],[-126.9728009,49.6678234],[-126.9421179,49.6429732],[-126.8988387,49.6251041],[-126.8868843,49.6],[-126.8491178,49.578321],[-126.7932808,49.5631698],[-126.7540545,49.561673],[-126.6891798,49.533438],[-126.6367584,49.5344751],[-126.624873,49.5085157],[-126.6307885,49.4032661],[-126.6174761,49.3700113],[-126.5940264,49.3438882],[-126.5518446,49.3328402],[-126.4645054,49.3342424],[-126.4328663,49.3430456],[-126.4096135,49.3665106],[-126.3946434,49.3638413],[-126.3771651,49.3464729],[-126.3004029,49.3036104],[-126.2943041,49.2708983],[-126.2756345,49.2520412],[-126.1654008,49.2033715],[-126.1598485,49.1591117],[-126.1338736,49.1359402],[-126.0731232,49.11596],[-125.9970678,49.1059228],[-125.9540893,49.0879526],[-125.9270566,49.056865],[-125.8513263,49.0227497],[-125.7684351,49.0215327],[-125.7456691,49.0089247],[-125.7206333,48.9679141],[-125.6734424,48.9516718],[-125.6158719,48.9071226],[-125.3862403,48.7950958],[-125.2600772,48.7490499],[-125.1915132,48.733625],[-125.1622118,48.7],[-124.9745607,48.6571461],[-124.8503291,48.6185585],[-124.7999996,48.5800346],[-124.7420519,48.5022228],[-124.72725,48.4934444],[-124.0120556,48.2966667],[-123.6790556,48.24],[-123.5412222,48.2245556],[-123.2484444,48.2840278],[-123.1151389,48.4228333],[-123.1598611,48.4535],[-123.2189444,48.5487222],[-123.2678889,48.694],[-123.0085,48.7671111],[-123.0085,48.8312222],[-123.3222397,49.0020717],[-114.0682072,48.9988717],[-114.0725355,49.0047041],[-114.0541379,49.0261731],[-114.0625364,49.0461862],[-114.080345,49.060278],[-114.1048862,49.0634907],[-114.1518117,49.0976988],[-114.1498021,49.1184755],[-114.1666637,49.1354981],[-114.1500068,49.1441169],[-114.1620746,49.1554622],[-114.2119259,49.172978],[-114.2227463,49.1889102],[-114.2462984,49.1868232],[-114.2567431,49.1767866],[-114.2870934,49.1782222],[-114.3180224,49.1999922],[-114.3481844,49.1933219],[-114.3956518,49.2086774],[-114.4023192,49.2131616],[-114.3938559,49.2193925],[-114.4059304,49.2246796],[-114.4031324,49.2402806],[-114.3802202,49.2493685],[-114.4470898,49.2641704],[-114.4459341,49.2888536],[-114.4536962,49.2977429],[-114.4913395,49.3139297],[-114.492375,49.322248],[-114.4788971,49.3265093],[-114.4874198,49.347101],[-114.5242797,49.3570128],[-114.5315365,49.3709047],[-114.5265578,49.3762003],[-114.5360131,49.3804766],[-114.5667676,49.3766995],[-114.5739015,49.3895283],[-114.5870301,49.3906564],[-114.6055427,49.4395073],[-114.5938001,49.469831],[-114.5959493,49.5017336],[-114.5725954,49.5248896],[-114.5722985,49.557379],[-114.5877845,49.5654974],[-114.6073909,49.5596136],[-114.6177471,49.5469699],[-114.6498641,49.5434452],[-114.6846653,49.5562047],[-114.7027507,49.5513196],[-114.7115039,49.5667053],[-114.7329734,49.5751164],[-114.7375332,49.5968448],[-114.7533325,49.6099208],[-114.7031971,49.6394783],[-114.6979011,49.6311452],[-114.6748003,49.6434616],[-114.6632784,49.636588],[-114.6570402,49.6630625],[-114.6700043,49.6720372],[-114.6647445,49.6768744],[-114.6770062,49.6963049],[-114.6383785,49.7177445],[-114.632516,49.7330199],[-114.6594615,49.7640453],[-114.63639,49.7846761],[-114.6473667,49.816788],[-114.6398381,49.8267155],[-114.6627925,49.8535274],[-114.6613585,49.8616495],[-114.6725878,49.8630429],[-114.6735526,49.8801527],[-114.6919559,49.8961368],[-114.6868739,49.9176259],[-114.6933657,49.942058],[-114.6829773,49.9662693],[-114.6549095,49.9669699],[-114.651483,49.9759136],[-114.652145,49.993484],[-114.6676329,50.0027536],[-114.6587165,50.0298536],[-114.6770946,50.048078],[-114.6668992,50.0517208],[-114.6629755,50.0656564],[-114.6792341,50.063479],[-114.6927723,50.071214],[-114.7040493,50.0941363],[-114.7353516,50.1209725],[-114.7256221,50.1419047],[-114.7257135,50.161852],[-114.7336345,50.1696063],[-114.7255545,50.1892658],[-114.7711804,50.2500971],[-114.7522508,50.2736295],[-114.7545749,50.2964274],[-114.7822374,50.3011425],[-114.782501,50.3155371],[-114.8012528,50.3298844],[-114.7677785,50.3501723],[-114.7695711,50.3591173],[-114.7911868,50.3587679],[-114.8181308,50.3719046],[-114.8133321,50.3787907],[-114.82598,50.3939918],[-114.8662655,50.3965429],[-114.8617054,50.424987],[-114.8741794,50.4301334],[-114.8764566,50.4399019],[-114.8886686,50.4363458],[-114.9127692,50.4512617],[-115.0135771,50.5689032],[-115.016558,50.5829564],[-115.0538398,50.571054],[-115.0737208,50.5859794],[-115.1191647,50.5703447],[-115.1575643,50.5733116],[-115.1908501,50.5549813],[-115.1869453,50.5400201],[-115.2096158,50.5279956],[-115.2312761,50.5446812],[-115.2320308,50.55993],[-115.2436614,50.5727689],[-115.232765,50.5786165],[-115.2401819,50.5888559],[-115.2788042,50.6012985],[-115.2964344,50.6126607],[-115.296907,50.6270139],[-115.3124447,50.6286583],[-115.3127017,50.6390901],[-115.2894755,50.6378638],[-115.2756494,50.6485655],[-115.3145643,50.7246144],[-115.3597628,50.7212669],[-115.3800255,50.7051973],[-115.4153071,50.7117124],[-115.4135317,50.7337035],[-115.4373196,50.7560898],[-115.4823549,50.7555607],[-115.483428,50.7707989],[-115.5013956,50.7845008],[-115.5177166,50.7807029],[-115.5600768,50.8042649],[-115.5668489,50.815871],[-115.5613614,50.8270473],[-115.5756744,50.8395304],[-115.6070269,50.8457683],[-115.6246206,50.8342472],[-115.6422528,50.8400985],[-115.6498281,50.8739184],[-115.5942997,50.8926464],[-115.5619245,50.8946828],[-115.5789582,50.9137559],[-115.610224,50.9262806],[-115.5976109,50.9397851],[-115.6122377,50.9470476],[-115.6122593,50.9590113],[-115.6289935,50.9816196],[-115.6512285,50.9988537],[-115.6713047,50.9997206],[-115.6897625,51.0144087],[-115.6930796,51.028229],[-115.7184826,51.0172928],[-115.7397756,51.0236233],[-115.7358361,51.0293194],[-115.7436764,51.0338739],[-115.7688427,51.0393375],[-115.7744068,51.0579817],[-115.7625324,51.0608622],[-115.7542354,51.0743597],[-115.777121,51.0662911],[-115.8036595,51.0693819],[-115.813418,51.0859662],[-115.8427954,51.0759683],[-115.8689678,51.0887501],[-115.8956711,51.0858527],[-115.9011239,51.0936274],[-115.9047076,51.0826724],[-115.9239405,51.082964],[-115.9678098,51.1212247],[-116.0098169,51.1259919],[-116.0150451,51.1370299],[-116.0072856,51.1557069],[-116.036356,51.1697229],[-116.0240855,51.1762922],[-116.0221766,51.1869465],[-115.9998436,51.1942698],[-116.0080103,51.2216464],[-116.0498571,51.2279847],[-116.0667535,51.2493482],[-116.1545368,51.2631814],[-116.1596758,51.2755205],[-116.152884,51.2868244],[-116.1638267,51.2974704],[-116.1954462,51.3007207],[-116.2197419,51.2916612],[-116.2284878,51.3014062],[-116.2691408,51.3123247],[-116.290822,51.3424394],[-116.2790116,51.3620041],[-116.2966498,51.3658179],[-116.3117689,51.3841798],[-116.2832059,51.4069641],[-116.2955541,51.4287197],[-116.2871642,51.4344556],[-116.2858208,51.4560404],[-116.3617364,51.4712571],[-116.3978502,51.5113122],[-116.3937622,51.525221],[-116.3830123,51.530496],[-116.3915058,51.5462534],[-116.4659777,51.5649972],[-116.4751629,51.5840496],[-116.4683935,51.6007517],[-116.4919484,51.611511],[-116.501545,51.6275431],[-116.5189081,51.6269632],[-116.5964388,51.6601601],[-116.5814681,51.6869998],[-116.5900163,51.693567],[-116.5810015,51.6975357],[-116.5852932,51.7134009],[-116.6289849,51.7296544],[-116.6338595,51.735379],[-116.6282357,51.7459028],[-116.6517214,51.7537361],[-116.6441517,51.7859312],[-116.6603033,51.8048316],[-116.6811659,51.8128372],[-116.7167904,51.7985753],[-116.7482578,51.8055367],[-116.784503,51.7636857],[-116.8206048,51.7371469],[-116.7976811,51.723704],[-116.8100366,51.7045603],[-116.8977117,51.7029715],[-116.9207819,51.7093599],[-116.927396,51.7287401],[-116.9767738,51.7600582],[-116.9628768,51.7746631],[-116.967457,51.7826227],[-116.9619458,51.7908641],[-116.9901151,51.8109542],[-116.9803606,51.8349113],[-117.0084374,51.8366269],[-117.0349629,51.8557499],[-117.0121451,51.8902093],[-117.0986106,51.9390782],[-117.10395,51.9573687],[-117.1200456,51.9551937],[-117.1479848,51.9732508],[-117.1965407,51.9787862],[-117.2025244,51.992699],[-117.2344016,52.0106372],[-117.2153026,52.0279441],[-117.2330611,52.0408166],[-117.2513809,52.0347933],[-117.2716814,52.0486052],[-117.2694824,52.055955],[-117.3057505,52.0739637],[-117.2934304,52.0854873],[-117.317115,52.1873861],[-117.3311819,52.1699306],[-117.3346633,52.1439175],[-117.3515108,52.1358697],[-117.4407271,52.1473441],[-117.4670369,52.1421137],[-117.4994237,52.1485484],[-117.5084167,52.1579414],[-117.5603676,52.1269966],[-117.6041468,52.1401252],[-117.6221351,52.1588952],[-117.6229699,52.1725029],[-117.6553432,52.1841549],[-117.6628183,52.1984477],[-117.6853596,52.1970047],[-117.7054818,52.1849625],[-117.7325047,52.1874634],[-117.7470811,52.1951711],[-117.7380866,52.2019899],[-117.8145866,52.2228298],[-117.8168859,52.242929],[-117.8443543,52.2727925],[-117.8228074,52.2836411],[-117.8232243,52.2904932],[-117.7917316,52.2936453],[-117.7934117,52.3023709],[-117.7740731,52.3188288],[-117.7510872,52.3182028],[-117.73852,52.343073],[-117.704857,52.3564369],[-117.728945,52.3819618],[-117.7218868,52.3898268],[-117.7625002,52.4134058],[-117.7928548,52.4083101],[-117.8180114,52.4175899],[-117.8531863,52.4136823],[-117.8929603,52.4277919],[-117.9159983,52.437356],[-117.9155645,52.4467137],[-117.93726,52.4477414],[-117.9696878,52.4673246],[-117.9715295,52.4811252],[-117.9874948,52.4846734],[-117.9836993,52.4925737],[-117.991934,52.5000492],[-118.0246517,52.4732767],[-118.0181289,52.4591131],[-118.0600446,52.4557436],[-118.0501319,52.4426982],[-118.034131,52.4378242],[-118.0393382,52.4221708],[-118.0528433,52.4151402],[-118.0454264,52.4022544],[-118.1388507,52.4060763],[-118.1433063,52.39251],[-118.17329,52.3910264],[-118.1854244,52.3729914],[-118.2232243,52.3766803],[-118.2206496,52.3959437],[-118.2436774,52.4036311],[-118.2377683,52.4227218],[-118.2517751,52.4463448],[-118.1939541,52.4764695],[-118.2019904,52.4886518],[-118.2353891,52.4873831],[-118.2631878,52.5045785],[-118.2906328,52.5392084],[-118.2719933,52.5645452],[-118.3287618,52.5777251],[-118.3365192,52.5858619],[-118.332472,52.6042793],[-118.356448,52.614863],[-118.3528256,52.6366607],[-118.3329448,52.6410159],[-118.3189752,52.6566852],[-118.2978901,52.6551025],[-118.2883048,52.6786988],[-118.3013456,52.6929755],[-118.3444449,52.7095817],[-118.3409193,52.7268558],[-118.3284665,52.7378684],[-118.4188891,52.7737783],[-118.4232146,52.7966483],[-118.3989896,52.820022],[-118.4025483,52.8428754],[-118.3841324,52.8471631],[-118.4469081,52.852884],[-118.4644568,52.8686254],[-118.4533314,52.8758521],[-118.4530295,52.886921],[-118.4982156,52.9058344],[-118.5223345,52.8967011],[-118.5497579,52.9073806],[-118.5770481,52.8852293],[-118.6154927,52.8812681],[-118.6171462,52.8985109],[-118.6074102,52.9059398],[-118.6228105,52.9198555],[-118.6106019,52.9356398],[-118.649393,52.9525757],[-118.6627501,52.9632952],[-118.6622912,52.9744956],[-118.6728629,52.9783847],[-118.6479922,52.9933616],[-118.6509114,52.999312],[-118.640158,52.9987012],[-118.6550323,53.0131325],[-118.6571189,53.0343862],[-118.6735763,53.0416902],[-118.6969158,53.0319391],[-118.70308,53.0461035],[-118.7312327,53.058119],[-118.7600266,53.0446461],[-118.7620783,53.0367123],[-118.7781641,53.0463661],[-118.7651967,53.0630017],[-118.7705277,53.0743571],[-118.7497245,53.0861551],[-118.7513227,53.0979018],[-118.7289006,53.112413],[-118.7824183,53.1345722],[-118.789628,53.1458134],[-118.7827298,53.1502958],[-118.7926541,53.1615363],[-118.8286821,53.1723374],[-118.834168,53.1843435],[-118.8617343,53.1879887],[-118.8753722,53.2045484],[-118.9201646,53.2122211],[-118.9252673,53.2253927],[-118.9481381,53.2368196],[-118.9823508,53.239955],[-119.0258252,53.2232814],[-118.9933128,53.2052685],[-118.9949203,53.1936891],[-119.0300793,53.1629499],[-118.9940305,53.1413231],[-119.0273561,53.1238373],[-119.0487747,53.1256608],[-119.0493397,53.1446526],[-119.0867053,53.1628406],[-119.1224254,53.1598876],[-119.1478793,53.1909567],[-119.1918395,53.1830128],[-119.2287909,53.1953698],[-119.2369887,53.192984],[-119.2366757,53.1821543],[-119.2613053,53.1766455],[-119.2528145,53.1899991],[-119.2700343,53.2215349],[-119.3008721,53.2566859],[-119.3432175,53.2842877],[-119.3320158,53.2986607],[-119.3592641,53.3087314],[-119.3493062,53.3163691],[-119.3517715,53.330036],[-119.3909537,53.3593735],[-119.4104989,53.3667731],[-119.4474319,53.348927],[-119.5205017,53.3705057],[-119.5458303,53.3639323],[-119.6057572,53.3847643],[-119.6105479,53.3817347],[-119.5971803,53.3672318],[-119.6065643,53.3631711],[-119.6809456,53.3701711],[-119.6799622,53.379222],[-119.700061,53.3903678],[-119.7301898,53.3888855],[-119.7316892,53.4034444],[-119.7670445,53.4293922],[-119.7590922,53.4385334],[-119.7722977,53.4440026],[-119.7941456,53.4786002],[-119.7822084,53.4858398],[-119.7849374,53.4915084],[-119.8157695,53.5005701],[-119.8354379,53.5185257],[-119.8655231,53.5002316],[-119.9011788,53.5166102],[-119.8989023,53.5351135],[-119.8618807,53.5531549],[-119.931552,53.608755],[-119.9217569,53.6145367],[-119.8789368,53.6183847],[-119.8567168,53.6063284],[-119.8324182,53.6100034],[-119.7702669,53.589973],[-119.7500465,53.5908637],[-119.7164435,53.6123184],[-119.7376512,53.6316286],[-119.7396908,53.6637953],[-119.7723121,53.674884],[-119.792713,53.7032478],[-119.8060179,53.7067768],[-119.8378482,53.6945322],[-119.8472822,53.7003213],[-119.8480666,53.7128907],[-119.9122082,53.7115662],[-119.9166059,53.7183374],[-119.8976643,53.7283892],[-119.9040734,53.7374145],[-119.8911896,53.7490146],[-119.8979348,53.7556314],[-119.8887311,53.7763984],[-119.9489281,53.7752008],[-119.9818419,53.7907747],[-119.9814748,53.8001561],[-119.9984233,53.8046354],[-120.0012733,53.7987116],[-120.0013586,60.0004699],[-139.0613278,59.9996374]]],[[[-133.2260288,53.911868],[-133.2089631,53.8556408],[-133.1822946,53.8295305],[-133.1988649,53.7940306],[-133.1830808,53.7597509],[-133.1595775,53.7421547],[-133.0857115,53.7177709],[-133.0974705,53.7040829],[-133.0985896,53.6816494],[-133.0677523,53.645614],[-133.0413725,53.631328],[-133.0683128,53.613562],[-133.0763183,53.5955118],[-133.0530907,53.539936],[-133.0164814,53.5203773],[-133.0072406,53.4999991],[-132.9700325,53.4787745],[-132.966532,53.4511229],[-132.9432943,53.4334788],[-132.9084103,53.4251267],[-132.8174319,53.426238],[-132.767258,53.4102973],[-132.7899609,53.3938774],[-132.8000013,53.3715026],[-132.8000037,53.2806456],[-132.7851788,53.2762519],[-132.7883281,53.2455912],[-132.7707598,53.225787],[-132.7468654,53.2147349],[-132.6662402,53.2099833],[-132.6643578,53.1899622],[-132.6515064,53.1721942],[-132.6677666,53.1353291],[-132.666487,53.1202799],[-132.6525637,53.1000099],[-132.6000001,53.1],[-132.6000011,53.0298545],[-132.5934124,53.0226414],[-132.5659425,53.0038787],[-132.5175609,52.9870905],[-132.452773,52.9911594],[-132.394076,52.9836254],[-132.4254482,52.9596699],[-132.4345502,52.9176466],[-132.4201161,52.9],[-132.4000004,52.9],[-132.4000007,52.8897427],[-132.3771388,52.8627765],[-132.3366139,52.8419652],[-132.3281556,52.8154911],[-132.2953088,52.7768423],[-132.2458235,52.7572419],[-132.1115253,52.6614034],[-132.0053683,52.6067056],[-131.9486726,52.5516289],[-131.8978225,52.527683],[-131.8336481,52.480329],[-131.723117,52.4416055],[-131.6687981,52.3922146],[-131.6651524,52.3626269],[-131.6203354,52.3031303],[-131.5770421,52.2826917],[-131.5548262,52.2594249],[-131.5109217,52.2357599],[-131.4944739,52.2046892],[-131.4745054,52.1864752],[-131.3829555,52.1404826],[-131.3676182,52.1203513],[-131.3319996,52.1053306],[-131.2765277,52.0596703],[-131.2295025,52.043133],[-131.1847075,52.0442517],[-131.1700178,52.0256105],[-131.1798555,52.0074747],[-131.1752993,51.9863886],[-131.1271176,51.9401781],[-130.9933085,51.8735938],[-130.9500942,51.8776983],[-130.9206133,51.9101811],[-130.9342967,51.9470226],[-130.8587802,52.0693848],[-130.8566278,52.1122606],[-130.9281978,52.2407001],[-131.1333606,52.3801737],[-131.1701978,52.4154484],[-131.1691429,52.4705624],[-131.2744616,52.5854314],[-131.3888132,52.7537776],[-131.4063736,52.8839557],[-131.5196703,52.9785314],[-131.5409451,53.0968064],[-131.7233847,53.2450565],[-131.8366814,53.4355906],[-131.8685935,53.517178],[-131.8489231,53.6024766],[-131.7893626,53.6986256],[-131.7906923,53.7803626],[-131.7226044,53.8612095],[-131.6638242,53.9137156],[-131.6183677,53.9808401],[-131.577148,54.2030919],[-131.5946813,54.2287686],[-131.6396425,54.2411837],[-131.6715546,54.2326355],[-131.702137,54.2069804],[-131.7340491,54.1587367],[-131.81117,54.1197896],[-131.9215326,54.0831458],[-132.0239173,54.0706639],[-132.0930601,54.0769053],[-132.267247,54.1509502],[-132.3555276,54.1564202],[-132.4355825,54.1462969],[-132.4994067,54.1187081],[-132.5422309,54.1576563],[-132.6515386,54.1911225],[-132.8329235,54.1740037],[-132.8661652,54.1867753],[-132.8933663,54.2610037],[-132.959514,54.2896839],[-133.0914682,54.2923181],[-133.1354808,54.272009],[-133.151335,54.2363066],[-133.1619284,54.1741869],[-133.1537995,54.1532993],[-133.1737397,54.1342223],[-133.1766928,54.119266],[-133.1647522,54.0869062],[-133.1478052,54.0728353],[-133.1407324,54.0475412],[-133.1885562,54.0127089],[-133.1964058,53.9918106],[-133.1929154,53.9716671],[-133.2260288,53.911868]]]]}}]}