{"type":"FeatureCollection","features":[{"type":"Feature","properties":{"id":"ca-n"},"geometry":{"type":"MultiPolygon","coordinates":[[[[-124.472435,40.41282],[-124.428055,40.361785],[-124.418276,40.314289],[-124.427899,40.288804],[-124.428222,40.258121],[-124.411026,40.225275],[-124.333689,40.167175],[-124.272099,40.13365],[-124.231204,40.093382],[-124.153762,40.063544],[-124.144099,40.052401],[-124.144105,40.018172],[-124.133255,39.999865],[-124.108581,39.978845],[-124.078596,39.972263],[-124.035355,39.931073],[-124.005454,39.889286],[-123.982946,39.876778],[-123.9536,39.826991],[-123.910529,39.799575],[-123.90097,39.780466],[-123.895741,39.711406],[-123.880306,39.689086],[-123.857183,39.674693],[-123.852516,39.592371],[-123.834649,39.549194],[-123.852648,39.514849],[-123.867826,39.508305],[-123.875126,39.494179],[-123.888895,39.443939],[-123.894936,39.348349],[-123.850092,39.231396],[-123.840771,39.187335],[-123.80921,39.141043],[-123.761965,39.041091],[-123.763148,39.00869],[-123.797217,38.989863],[-123.80986,38.961219],[-123.784676,38.893728],[-123.641253,38.764394],[-123.591962,38.740227],[-123.566089,38.709021],[-123.51058,38.68089],[-123.360929,38.510202],[-123.32381,38.498614],[-123.306742,38.478681],[-123.269188,38.457569],[-123.22022,38.441954],[-123.196159,38.410108],[-123.164757,38.388337],[-123.134312,38.345786],[-123.1418822,38.3193792],[-123.134523,38.296263],[-123.049617,38.214286],[-123.014817,38.149132],[-123.063797,38.036487],[-123.08513,38.008433],[-123.08388,37.983366],[-123.067965,37.958669],[-123.022507,37.942065],[-122.953224,37.941093],[-122.91917,37.954835],[-122.902284,37.977386],[-122.889291,37.974109],[-122.85046,37.945585],[-122.829804,37.910325],[-122.789027,37.893763],[-122.766771,37.865804],[-122.715845,37.845625],[-122.675654,37.848517],[-122.632472,37.827807],[-122.588174,37.789362],[-122.567497,37.639185],[-122.588177,37.579408],[-122.5790755,37.511377],[-122.563877,37.474273],[-122.537338,37.450738],[-122.509889,37.441554],[-122.503543,37.411902],[-122.467005,37.349889],[-122.484046,37.249944],[-122.464117,37.177848],[-122.445632,37.150037],[-122.396916,37.109888],[-122.393127,37.087164],[-122.376086,37.065648],[-122.276375,37.024834],[-122.261049,36.993452],[-122.188009,36.950251],[-122.076399,36.910199],[-122.03045915457437,36.75],[-116.87670458251785,36.75],[-117.2269331,37.0167006],[-118.5475236,37.9824066],[-120.0065184,39.0032856],[-119.9956059,40.3816281],[-119.9995297,41.9949298],[-121.0010883,41.9930588],[-122.376131,42.009499],[-123.0076515,42.0031197],[-123.1459166,42.0087612],[-123.6572315,41.9950959],[-124.328835,41.998334],[-124.306995,41.992906],[-124.288578,41.969564],[-124.291939,41.928498],[-124.27612,41.903052],[-124.285031,41.859487],[-124.311936,41.858788],[-124.347647,41.883154],[-124.401242,41.885588],[-124.435015,41.856507],[-124.438909,41.824504],[-124.392055,41.772377],[-124.330609,41.733793],[-124.211706,41.681193],[-124.209785,41.635205],[-124.190113,41.60819],[-124.18499,41.565769],[-124.160493,41.543409],[-124.133231,41.432311],[-124.139973,41.381821],[-124.176556,41.390352],[-124.206515,41.384718],[-124.231087,41.368856],[-124.24242,41.3433],[-124.23821,41.321446],[-124.220032,41.302994],[-124.160704,41.289293],[-124.195532,41.184582],[-124.237625,41.165959],[-124.252474,41.134075],[-124.249588,41.099025],[-124.227079,41.046622],[-124.204984,41.013638],[-124.182694,41.001313],[-124.197619,40.950529],[-124.232622,40.869286],[-124.403367,40.61317],[-124.447677,40.529709],[-124.455952,40.484047],[-124.482003,40.440318],[-124.472435,40.41282]]],[[[-123.156757,37.73784],[-123.126114,37.71673],[-123.09285,37.713688],[-123.068589,37.673041],[-123.040696,37.650328],[-122.986747,37.641783],[-122.963006,37.651984],[-122.941364,37.67658],[-122.935865,37.702459],[-122.949985,37.732187],[-122.9945311,37.7692015],[-123.033841,37.778375],[-123.043,37.7947642],[-123.070494,37.81383],[-123.1050169,37.823106],[-123.132272,37.819676],[-123.166012,37.796885],[-123.173825,37.775727],[-123.156757,37.73784]]]]}}]}