{"type":"FeatureCollection","features":[{"type":"Feature","properties":{"id":"ca-s"},"geometry":{"type":"MultiPolygon","coordinates":[[[[-122.48403645178848,37.25],[-122.484046,37.249944],[-122.464117,37.177848],[-122.445632,37.150037],[-122.396916,37.109888],[-122.393127,37.087164],[-122.376086,37.065648],[-122.276375,37.024834],[-122.261049,36.993452],[-122.188009,36.950251],[-122.076399,36.910199],[-122.001124,36.647704],[-122.040733,36.60012],[-122.04405,36.578249],[-122.017455,36.537405],[-122.021998,36.508908],[-121.970391,36.383368],[-121.959053,36.287108],[-121.9325833,36.25],[-121.901164,36.239653],[-121.880193,36.210314],[-121.770693,36.162014],[-121.7144833,36.12],[-121.708718,36.1026],[-121.6870333,36.0866667],[-121.6609,36.0441667],[-121.64818,35.998617],[-121.631818,35.978945],[-121.561461,35.943818],[-121.532011,35.884798],[-121.501047,35.842745],[-121.456097,35.817713],[-121.428496,35.785905],[-121.39346,35.763401],[-121.366362,35.680419],[-121.347721,35.664984],[-121.34855,35.6525],[-121.323512,35.624969],[-121.201555,35.58369],[-121.177756,35.561255],[-121.151056,35.516412],[-121.041635,35.41999],[-120.933292,35.392748],[-120.923435,35.348413],[-120.9646333,35.2541667],[-120.91915,35.1833333],[-120.800411,35.116577],[-120.752427,35.109456],[-120.725503,35.113576],[-120.689606,35.098828],[-120.694715,35.028839],[-120.726753,34.943805],[-120.734382,34.901499],[-120.720319,34.869241],[-120.673281,34.838624],[-120.702093,34.748329],[-120.664691,34.696344],[-120.68648,34.645023],[-120.705315,34.621408],[-120.713329,34.57496],[-120.706453,34.551907],[-120.682206,34.525326],[-120.64236,34.503765],[-120.594334,34.504072],[-120.559439,34.488466],[-120.523646,34.419505],[-120.500999,34.403136],[-120.456015,34.391485],[-120.287125,34.417609],[-120.14728,34.422916],[-120.09067,34.409286],[-120.024356,34.409343],[-119.916529,34.37261],[-119.891521,34.357457],[-119.8441667,34.3535333],[-119.797067,34.365331],[-119.716129,34.336108],[-119.651357,34.366708],[-119.584795,34.36166],[-119.500953,34.326922],[-119.466995,34.29366],[-119.401994,34.272258],[-119.375935,34.24988],[-119.3376452,34.2372958],[-119.285743,34.140805],[-119.217993,34.062491],[-119.158963,34.040253],[-118.952426,33.992959],[-118.8872995,33.987227],[-118.8411153,33.9553742],[-118.8147516,33.9472167],[-118.7865274,33.9514322],[-118.7274577,33.9803082],[-118.5573545,33.9876712],[-118.5234464,33.9530466],[-118.4472561,33.8487562],[-118.4439703,33.8390532],[-118.4844862,33.8031509],[-118.4855815,33.7536609],[-118.4669672,33.7255206],[-118.3966667,33.6859167],[-118.3191419,33.659541],[-118.2742458,33.6634222],[-118.2370141,33.6905875],[-118.1259043,33.6971378],[-118.096473,33.653651],[-118.049848,33.620015],[-117.934046,33.549254],[-117.816356,33.490872],[-117.741409,33.410118],[-117.713571,33.408777],[-117.62588,33.342109],[-117.571531,33.312302],[-117.467871,33.212494],[-117.435563,33.177512],[-117.3399667,33],[-117.323279,32.903064],[-117.33966,32.859167],[-117.3421333,32.8262167],[-117.320939,32.689847],[-117.309239,32.656401],[-117.2688082,32.619425],[-117.2468053,32.614864],[-117.2233214,32.621248],[-117.2050539,32.5295236],[-115.7717128,32.644304],[-114.7199073,32.7187133],[-114.7016521,32.7454824],[-114.6171924,32.7285278],[-114.6150523,32.7345151],[-114.581747,32.7351706],[-114.5816216,32.7424552],[-114.56446,32.7424267],[-114.5644777,32.7496841],[-114.526846,32.7571596],[-114.5302322,32.7946973],[-114.469154,32.8443911],[-114.463111,32.9101355],[-114.4810802,32.9356187],[-114.4682421,32.9553376],[-114.4681809,32.9701075],[-114.4928342,32.9715615],[-114.5017161,33.008969],[-114.5191736,33.0294793],[-114.5736635,33.0366428],[-114.5895501,33.0263033],[-114.6165473,33.0269799],[-114.6451425,33.0490232],[-114.6617751,33.0327351],[-114.6737028,33.0424885],[-114.6889895,33.0842056],[-114.7068202,33.0888464],[-114.6754565,33.1859085],[-114.673165,33.2235283],[-114.6895111,33.246465],[-114.672236,33.259266],[-114.6799361,33.2731823],[-114.7222982,33.2871419],[-114.731136,33.3017138],[-114.707194,33.3242114],[-114.6980531,33.3531666],[-114.7076542,33.3831497],[-114.7255978,33.4048302],[-114.687445,33.4179406],[-114.6537552,33.4127744],[-114.638815,33.4196834],[-114.6285468,33.4295879],[-114.6224953,33.4576167],[-114.5916008,33.4994171],[-114.5685006,33.5098395],[-114.5587611,33.5320181],[-114.5242459,33.5527434],[-114.5407396,33.5902458],[-114.52186,33.6117858],[-114.5312961,33.6246765],[-114.5236138,33.6358085],[-114.533371,33.6515214],[-114.5139344,33.6595287],[-114.5317991,33.6728769],[-114.4940899,33.7073652],[-114.5122167,33.7338525],[-114.5049771,33.7614878],[-114.5269224,33.8123712],[-114.5179862,33.8202884],[-114.5306542,33.8530022],[-114.5035362,33.8660463],[-114.5036056,33.8755427],[-114.5259682,33.8985204],[-114.5081383,33.9031554],[-114.5359162,33.933303],[-114.5230346,33.9538797],[-114.5005587,33.9613451],[-114.4589251,33.995111],[-114.4656197,34.0112119],[-114.438544,34.0218406],[-114.4339612,34.087706],[-114.4117035,34.1099796],[-114.3671363,34.1183472],[-114.3526555,34.1330442],[-114.3236352,34.136998],[-114.2900826,34.1683239],[-114.2555606,34.1735947],[-114.2286354,34.1873423],[-114.2249856,34.2038572],[-114.1650887,34.2508323],[-114.1651327,34.2595255],[-114.1307816,34.2619386],[-114.1381384,34.3045668],[-114.1826051,34.3538238],[-114.227106,34.3656192],[-114.2633057,34.400607],[-114.2873626,34.4049259],[-114.2964352,34.4234157],[-114.3307477,34.4467773],[-114.38264,34.4522532],[-114.3814291,34.5264702],[-114.4018269,34.5621771],[-114.4362984,34.5932425],[-114.4237503,34.6084395],[-114.4376449,34.6197595],[-114.442686,34.6441624],[-114.458046,34.6571954],[-114.4506658,34.6667538],[-114.4701368,34.7109598],[-114.4857449,34.7152128],[-114.5529557,34.7670111],[-114.5875753,34.8366267],[-114.6330458,34.8703613],[-114.6329611,35.0018894],[-115.9339329,36.0320751],[-117.2269331,37.0167006],[-117.54596702056764,37.25],[-122.48403645178848,37.25]]],[[[-120.581548,34.091488],[-120.566995,34.068638],[-120.523387,34.051133],[-120.518784,34.01408],[-120.488151,33.984283],[-120.466777,33.976116],[-120.411766,33.977045],[-120.367073,33.961036],[-120.298973,33.968457],[-120.280033,33.953939],[-120.264495,33.918916],[-120.221128,33.884187],[-120.149551,33.847962],[-120.117266,33.84158],[-120.02781,33.866512],[-119.980842,33.892317],[-119.93919,33.898643],[-119.91893,33.914354],[-119.904762,33.939674],[-119.83442,33.900788],[-119.772829,33.912414],[-119.707491,33.910388],[-119.63673,33.938277],[-119.538949,33.947656],[-119.49229,33.983215],[-119.432961,33.955905],[-119.377165,33.954391],[-119.311615,33.980023],[-119.296238,33.99724],[-119.293112,34.020152],[-119.312087,34.054388],[-119.342462,34.068964],[-119.467842,34.062931],[-119.512106,34.09346],[-119.557426,34.108603],[-119.614268,34.099432],[-119.654931,34.071218],[-119.693007,34.094854],[-119.750981,34.112582],[-119.792601,34.106375],[-119.82922,34.118702],[-119.928795,34.129902],[-119.965471,34.11256],[-119.991643,34.064868],[-120.01021,34.084043],[-120.045154,34.090606],[-120.080285,34.086401],[-120.102918,34.074494],[-120.171128,34.073318],[-120.197576,34.05815],[-120.252846,34.058031],[-120.284651,34.09475],[-120.338562,34.121687],[-120.355161,34.145021],[-120.418787,34.160569],[-120.471654,34.134102],[-120.497378,34.149892],[-120.538118,34.150344],[-120.567847,34.135618],[-120.582264,34.107517],[-120.581548,34.091488]]],[[[-119.7413606,33.3267933],[-119.7171564,33.3128793],[-119.6918792,33.309422],[-119.6500368,33.3252155],[-119.6358232,33.3431717],[-119.6314974,33.3640776],[-119.6503801,33.3999128],[-119.6914072,33.4151024],[-119.739644,33.3994828],[-119.7577028,33.3629593],[-119.7413606,33.3267933]]],[[[-119.627828,33.236946],[-119.605282,33.206919],[-119.574192,33.186484],[-119.51025,33.167417],[-119.444967,33.16527],[-119.394536,33.180836],[-119.375937,33.192186],[-119.360702,33.221452],[-119.362125,33.245221],[-119.37973,33.267632],[-119.429996,33.301031],[-119.525313,33.334862],[-119.609295,33.318229],[-119.625944,33.305036],[-119.636302,33.27304],[-119.627828,33.236946]]],[[[-119.11944,33.4688182],[-119.0952615,33.4301748],[-119.0557537,33.4090842],[-119.0308628,33.4095141],[-118.9853725,33.4259915],[-118.9639148,33.4691045],[-118.9720087,33.512511],[-118.9946422,33.5335193],[-119.0178165,33.5392427],[-119.0961198,33.5279672],[-119.1235599,33.4918699],[-119.11944,33.4688182]]],[[[-118.670173,33.000034],[-118.644732,33.000033],[-118.635522,32.9656],[-118.608802,32.92769],[-118.59693,32.890466],[-118.550515,32.825329],[-118.464712,32.760176],[-118.436538,32.75004],[-118.408322,32.751914],[-118.378377,32.770232],[-118.353494,32.765807],[-118.323819,32.773514],[-118.295841,32.798256],[-118.288784,32.820829],[-118.29725,32.845094],[-118.448863,32.96175],[-118.514966,33.049889],[-118.542103,33.073788],[-118.578337,33.086243],[-118.641301,33.081882],[-118.670782,33.057966],[-118.678551,33.026356],[-118.670173,33.000034]]],[[[-118.6586742,33.4506003],[-118.6181793,33.4062242],[-118.5483217,33.3769859],[-118.55124,33.3551941],[-118.540082,33.3229265],[-118.4961367,33.280602],[-118.3234453,33.2480196],[-118.2817316,33.2589296],[-118.2501202,33.2831492],[-118.2412195,33.3237871],[-118.2561283,33.3613236],[-118.3067942,33.4079438],[-118.3234453,33.441469],[-118.3660173,33.4681081],[-118.4216356,33.4818469],[-118.4700184,33.5137407],[-118.4883333,33.5135],[-118.5337305,33.5316578],[-118.6368904,33.5253615],[-118.661438,33.5040364],[-118.6679611,33.482706],[-118.6586742,33.4506003]]]]}}]}