{"type":"FeatureCollection","features":[{"type":"Feature","properties":{"id":"ct"},"geometry":{"type":"Polygon","coordinates":[[[-73.727811,41.10069],[-73.655291,41.012266],[-73.656559,40.984071],[-73.612405,40.950983],[-73.200345,41.036489],[-72.999547,41.087108],[-72.081777,41.2622393],[-72.019146,41.290637],[-71.929404,41.310549],[-71.907221,41.304535],[-71.892067,41.330075],[-71.857458,41.320869],[-71.829365,41.342432],[-71.837873,41.360145],[-71.830637,41.378772],[-71.8422859,41.3951017],[-71.8423606,41.410526],[-71.8187825,41.4197787],[-71.797745,41.416727],[-71.787239,41.656111],[-71.800671,42.023514],[-72.53156,42.0345758],[-72.6069351,42.0250061],[-72.6079737,42.0310835],[-72.7558941,42.0363492],[-72.7520155,42.028947],[-72.7651168,42.0224491],[-72.7589428,42.0154362],[-72.766733,42.0032657],[-72.8170238,41.9976982],[-72.8137839,42.0367437],[-73.4873386,42.0495412],[-73.551401,41.295142],[-73.481924,41.212707],[-73.727811,41.10069]]]}}]}