{"type":"FeatureCollection","features":[{"type":"Feature","properties":{"id":"de"},"geometry":{"type":"Polygon","coordinates":[[[-75.7890215,39.6597918],[-75.6936638,38.4600811],[-74.9852049,38.4512836],[-75.0166569,38.7911303],[-75.1684258,39.055551],[-75.2682769,39.1815572],[-75.3461575,39.2705462],[-75.5604145,39.4556394],[-75.5589658,39.4957644],[-75.5279216,39.4980825],[-75.5270575,39.5340784],[-75.5336636,39.5412354],[-75.5115578,39.5679638],[-75.5151737,39.5808453],[-75.5536607,39.6019024],[-75.559068,39.6296429],[-75.5168244,39.6656106],[-75.507348,39.6971834],[-75.4868843,39.7157729],[-75.4771846,39.7157873],[-75.4598128,39.7659854],[-75.4052809,39.7962274],[-75.4633782,39.8239982],[-75.5309149,39.8381776],[-75.5972992,39.837243],[-75.6588027,39.8229175],[-75.720601,39.7895228],[-75.7527423,39.757875],[-75.7737845,39.7222016],[-75.788594,39.7222006],[-75.7890215,39.6597918]]]}}]}