{"type":"FeatureCollection","features":[{"type":"Feature","properties":{"id":"fl"},"geometry":{"type":"MultiPolygon","coordinates":[[[[-87.634896,30.866261],[-87.615245,30.83421],[-87.545432,30.779389],[-87.529977,30.740952],[-87.501944,30.721274],[-87.4810141,30.7175578],[-87.4680322,30.6999854],[-87.4493729,30.6989462],[-87.4062946,30.6749202],[-87.3943037,30.6453313],[-87.396655,30.608876],[-87.407619,30.600797],[-87.411947,30.574169],[-87.43512,30.549089],[-87.438958,30.530291],[-87.4482341,30.5261093],[-87.444524,30.514248],[-87.449122,30.515301],[-87.450371,30.514462],[-87.430846,30.497772],[-87.435637,30.4802378],[-87.4258106,30.466296],[-87.4000198,30.4508416],[-87.3740378,30.4479572],[-87.3720675,30.434341],[-87.4035101,30.4101941],[-87.4289293,30.4070923],[-87.4507406,30.3675996],[-87.4507815,30.3454724],[-87.4615376,30.3346186],[-87.5035239,30.3248375],[-87.5008042,30.3063737],[-87.4498992,30.3111235],[-87.4521513,30.3001504],[-87.5183799,30.284045],[-87.5183845,30.1234654],[-87.3028403,30.1662314],[-87.1767452,30.1707729],[-86.8556366,30.2258567],[-86.7135293,30.2415582],[-86.6384558,30.2442227],[-86.5253975,30.2296072],[-86.4456553,30.230242],[-86.3064309,30.2073401],[-86.1498466,30.1608402],[-86.0051857,30.1038348],[-85.8935662,30.0432299],[-85.8039739,29.9763031],[-85.7098597,29.9337803],[-85.6457985,29.8737353],[-85.5896989,29.8355001],[-85.5775521,29.7450944],[-85.5434372,29.6486251],[-85.4945338,29.5732853],[-85.4467868,29.5314175],[-85.4023624,29.511554],[-85.3539658,29.5032898],[-85.3084726,29.5068355],[-85.259754,29.5227563],[-85.1764291,29.4828955],[-85.1292948,29.4510574],[-85.0630961,29.4343154],[-85.003441,29.4389936],[-84.8981938,29.4685757],[-84.7974145,29.5199934],[-84.7072224,29.5516691],[-84.6531842,29.5832061],[-84.588779,29.6386834],[-84.4752825,29.6852358],[-84.4200581,29.7448988],[-84.3264604,29.7456147],[-84.2611327,29.7651778],[-84.2200806,29.7927186],[-84.191017,29.8269064],[-84.1693444,29.8723894],[-84.1608923,29.9191932],[-84.0650395,29.9380111],[-84.0297484,29.9107504],[-83.9725803,29.8842729],[-83.9189417,29.839786],[-83.8767444,29.823629],[-83.8307484,29.8178652],[-83.781297,29.7884548],[-83.7575976,29.7511468],[-83.7418983,29.6962684],[-83.7056562,29.641696],[-83.6718879,29.6125684],[-83.6146678,29.5864899],[-83.5822036,29.5612498],[-83.5668312,29.4639971],[-83.5384015,29.4118381],[-83.5052277,29.382273],[-83.4357906,29.3476297],[-83.402969,29.3150907],[-83.3573761,29.2896279],[-83.3479124,29.2441984],[-83.3298109,29.2087127],[-83.3004022,29.1771939],[-83.2622314,29.1536504],[-83.2645646,29.1185326],[-83.2558337,29.0792075],[-83.1992876,28.9937581],[-83.1492711,28.9611673],[-83.0928367,28.9452227],[-83.0080815,28.9445023],[-82.9457356,28.9616817],[-82.9421842,28.905642],[-82.9158538,28.8542847],[-82.9275412,28.8093438],[-82.9231928,28.7633003],[-82.8905933,28.6979293],[-82.8700863,28.6173238],[-82.8393078,28.5725077],[-82.8567152,28.525125],[-82.8555992,28.4751423],[-82.8971585,28.3550279],[-82.9401934,28.337867],[-82.9744879,28.3135327],[-83.0016483,28.280467],[-83.017197,28.2442025],[-83.022206,28.1966555],[-82.9976262,28.0106909],[-83.0206897,27.8749163],[-83.0118887,27.8181346],[-82.9936199,27.7747802],[-82.963847,27.7296714],[-82.9152708,27.6819163],[-82.9351406,27.5821074],[-82.9286765,27.5404054],[-82.9029737,27.4793037],[-82.8617977,27.4216618],[-82.8326923,27.3539545],[-82.7346846,27.2446197],[-82.7141486,27.1970558],[-82.6705531,27.1521693],[-82.5937318,26.986708],[-82.49785,26.8319622],[-82.445229,26.7625558],[-82.4317484,26.7340772],[-82.4331927,26.6725853],[-82.4260166,26.6361923],[-82.3904782,26.5731766],[-82.380274,26.5359741],[-82.3594325,26.499678],[-82.3446868,26.4404142],[-82.3216658,26.3959109],[-82.2771654,26.3494034],[-82.2201913,26.3096672],[-82.169536,26.2864237],[-82.0884091,26.2699105],[-82.005645,26.2823655],[-81.9854714,26.2111261],[-81.9643221,26.0504753],[-81.9184661,25.9503295],[-81.9083368,25.8993612],[-81.87372,25.83412],[-81.80747,25.7363],[-81.76672,25.70025],[-81.72672,25.68151],[-81.68273,25.67277],[-81.62263,25.67334],[-81.57623,25.68604],[-81.51902,25.65694],[-81.50869,25.62361],[-81.4876,25.59205],[-81.42541,25.5516],[-81.38477,25.49701],[-81.358,25.42755],[-81.3252,25.39062],[-81.31491,25.35155],[-81.34024,25.26405],[-81.3423,25.22483],[-81.29506,25.09793],[-81.26785,25.05657],[-81.21427,25.01918],[-81.17055,24.96577],[-81.25486,24.98659],[-81.35038,24.97048],[-81.40548,24.9785],[-81.48849,24.96635],[-81.66013,24.88329],[-81.77824,24.81538],[-81.81421,24.80639],[-81.89429,24.76365],[-81.96754,24.75278],[-82.02695,24.72572],[-82.11387,24.74742],[-82.20073,24.73817],[-82.24395,24.71564],[-82.28243,24.67624],[-82.3098,24.63357],[-82.3265,24.58373],[-82.2157767,24.5837607],[-82.221043,24.557037],[-82.214165,24.532094],[-82.175098,24.499617],[-82.100333,24.499998],[-82.067171,24.523715],[-82.034272,24.482496],[-81.974409,24.471209],[-81.982054,24.445448],[-81.974468,24.420822],[-81.958437,24.405227],[-81.934811,24.396919],[-81.849757,24.405875],[-81.813522,24.417639],[-81.788985,24.439482],[-81.781807,24.460927],[-81.792362,24.495613],[-81.770807,24.496872],[-81.773685,24.472735],[-81.76287,24.449643],[-81.730113,24.430698],[-81.610259,24.454308],[-81.585826,24.471094],[-81.551446,24.478031],[-81.525671,24.500426],[-81.51886,24.526529],[-81.527852,24.553279],[-81.514615,24.564757],[-81.465088,24.552854],[-81.420636,24.570572],[-81.374801,24.571488],[-81.264626,24.599234],[-81.239914,24.617063],[-81.204259,24.631186],[-81.169393,24.634619],[-81.147686,24.649064],[-81.120618,24.635679],[-81.059736,24.635864],[-81.022583,24.665275],[-80.999792,24.668912],[-80.918911,24.713066],[-80.886958,24.719684],[-80.852228,24.748931],[-80.771092,24.765951],[-80.745115,24.788878],[-80.640428,24.838434],[-80.585451,24.889329],[-80.538164,24.912733],[-80.514343,24.940628],[-80.462886,24.955937],[-80.445522,24.973422],[-80.439101,24.997989],[-80.399658,25.023578],[-80.390435,25.057189],[-80.341864,25.0884],[-80.297246,25.16216],[-80.271649,25.164762],[-80.249773,25.179479],[-80.230822,25.212992],[-80.232661,25.240221],[-80.243168,25.255375],[-80.226227,25.286975],[-80.217862,25.295247],[-80.188586,25.291267],[-80.159462,25.304329],[-80.112612,25.375391],[-80.116411,25.411603],[-80.141757,25.434711],[-80.126347,25.474551],[-80.115671,25.541393],[-80.091947,25.538988],[-80.065809,25.548176],[-80.043814,25.579119],[-80.04351,25.598051],[-80.060238,25.625383],[-80.103573,25.640086],[-80.094144,25.66308],[-80.091223,25.721903],[-80.066872,25.756733],[-80.058654,25.794312],[-80.056056,25.837688],[-80.067685,25.902395],[-80.052257,25.974956],[-80.016904,26.257978],[-80.006149,26.432809],[-79.982476,26.569247],[-79.975425,26.80025],[-80.039102,27.029853],[-80.080955,27.125329],[-80.095411,27.18064],[-80.222395,27.446957],[-80.229299,27.485629],[-80.24977,27.518985],[-80.281354,27.621171],[-80.294927,27.639278],[-80.332526,27.761157],[-80.499773,28.077233],[-80.543999,28.271092],[-80.519428,28.391084],[-80.481209,28.425511],[-80.468605,28.463078],[-80.503585,28.540362],[-80.522973,28.608238],[-80.635573,28.750268],[-80.906836,29.144706],[-81.045706,29.432462],[-81.186399,29.76008],[-81.205177,29.822433],[-81.209268,29.875247],[-81.255134,30.000245],[-81.330627,30.299481],[-81.335381,30.361292],[-81.321563,30.378574],[-81.316897,30.407721],[-81.33229,30.433036],[-81.353574,30.44666],[-81.354883,30.492754],[-81.377674,30.54446],[-81.380867,30.627345],[-81.373398,30.662779],[-81.351553,30.685666],[-81.3470257,30.7123887],[-81.451241,30.709484],[-81.4740761,30.7139662],[-81.4888491,30.7264003],[-81.5323209,30.724176],[-81.5383452,30.7085312],[-81.5484076,30.7181477],[-81.5600047,30.7115681],[-81.5752254,30.7225444],[-81.5965903,30.7187389],[-81.6018973,30.7295006],[-81.609786,30.7158214],[-81.6231384,30.7233422],[-81.6244479,30.7363143],[-81.630432,30.728088],[-81.6367259,30.7337569],[-81.6521683,30.7288175],[-81.662323,30.754177],[-81.683096,30.748492],[-81.66996,30.7467075],[-81.672494,30.73879],[-81.694382,30.7484778],[-81.7200371,30.7446688],[-81.7617681,30.7756212],[-81.770706,30.77682],[-81.771568,30.764143],[-81.7830987,30.7616664],[-81.793388,30.787306],[-81.797172,30.781469],[-81.807449,30.790119],[-81.8686512,30.7928581],[-81.8828657,30.8004944],[-81.8920989,30.8248395],[-81.9013998,30.8297471],[-81.9093105,30.815774],[-81.9286595,30.8175059],[-81.9384438,30.8300837],[-81.9497482,30.8280238],[-81.964237,30.817928],[-81.9620365,30.7974374],[-81.9737328,30.7788143],[-82.007586,30.7931895],[-82.022772,30.7879219],[-82.011661,30.7616415],[-82.0276723,30.7509121],[-82.0368016,30.7546229],[-82.0455963,30.727967],[-82.0360118,30.7064746],[-82.0503648,30.6759464],[-82.049273,30.6555704],[-82.0282296,30.6223552],[-82.0274161,30.6067034],[-82.0157737,30.6018797],[-82.0051282,30.5637662],[-82.0192183,30.5328234],[-82.0167996,30.4755062],[-82.0399844,30.4367857],[-82.0341015,30.4201622],[-82.0439171,30.4148566],[-82.0370372,30.3719946],[-82.0653561,30.355687],[-82.1049583,30.368995],[-82.1616859,30.3572642],[-82.1928437,30.3789541],[-82.2069588,30.406769],[-82.2108734,30.425379],[-82.201307,30.4851783],[-82.225072,30.50769],[-82.2403157,30.5377855],[-82.234065,30.557749],[-82.2147,30.568481],[-83.676773,30.654905],[-84.8646122,30.7115958],[-84.8957787,30.7501115],[-84.9144937,30.7524661],[-84.937424,30.820889],[-84.925665,30.842685],[-84.939824,30.872588],[-84.934424,30.883588],[-84.983127,30.934786],[-84.981127,30.963386],[-85.005734,30.975908],[-85.001656,31.0006967],[-85.998611,30.99287],[-87.5988282,30.9975026],[-87.590933,30.953513],[-87.634896,30.866261]]],[[[-83.1089135,24.6110858],[-83.0981933,24.5649523],[-83.0742135,24.5261661],[-83.0435506,24.4985719],[-82.999876,24.4769814],[-82.9997416,24.5839167],[-82.9495079,24.5691491],[-82.9142171,24.5759483],[-82.8733944,24.5621556],[-82.8479397,24.5678121],[-82.8280765,24.583765],[-82.6566823,24.5837094],[-82.6414924,24.6287117],[-82.641371,24.6706148],[-82.6661834,24.7317111],[-82.7218952,24.7802023],[-82.7756685,24.7981729],[-82.8688863,24.7980892],[-82.9790644,24.7760527],[-83.0523826,24.7327299],[-83.0936869,24.6826782],[-83.1089135,24.6110858]]]]}}]}