{"type":"FeatureCollection","features":[{"type":"Feature","properties":{"id":"ga"},"geometry":{"type":"Polygon","coordinates":[[[-85.605165,34.984678],[-85.1840862,32.8627076],[-85.1545766,32.8492093],[-85.1542656,32.8395197],[-85.1678073,32.8281723],[-85.1681777,32.8121349],[-85.1217251,32.7742864],[-85.1367587,32.7710653],[-85.1416163,32.7606276],[-85.1351341,32.7465136],[-85.1147888,32.7398559],[-85.1186083,32.7154867],[-85.1114414,32.6854763],[-85.0877897,32.6586444],[-85.1034967,32.6431431],[-85.0824736,32.6370539],[-85.0891941,32.6230308],[-85.066552,32.5806952],[-85.0024016,32.5204763],[-84.99533,32.453243],[-84.971831,32.442843],[-84.96303,32.424244],[-84.9802111,32.4086292],[-84.9684383,32.3910979],[-84.9841683,32.3908049],[-84.9880615,32.3837402],[-84.9716606,32.3766575],[-84.984831,32.3727049],[-84.9837542,32.3622804],[-85.0042138,32.3447345],[-85.0052906,32.3258553],[-84.9361967,32.3001013],[-84.8884169,32.2608849],[-84.9083358,32.2488195],[-84.924427,32.250149],[-84.912927,32.24295],[-84.928227,32.219851],[-84.9734368,32.2175443],[-84.9802027,32.2077353],[-84.9653223,32.2035213],[-84.9650959,32.1946763],[-85.011267,32.180493],[-85.061144,32.134065],[-85.0470634,32.0904333],[-85.0586505,32.0466583],[-85.0489493,32.0215384],[-85.0658535,32.0001995],[-85.0672272,31.9682043],[-85.0864995,31.9599032],[-85.0786323,31.9405217],[-85.1131042,31.9117551],[-85.1125942,31.8939427],[-85.1344414,31.8915073],[-85.1285999,31.8777569],[-85.1420063,31.8391859],[-85.1311929,31.8159732],[-85.1322921,31.7937807],[-85.1421258,31.7818232],[-85.1257168,31.7678699],[-85.1291148,31.7588502],[-85.11893,31.732664],[-85.12553,31.694965],[-85.078646,31.6539515],[-85.0868175,31.6392674],[-85.058444,31.6204211],[-85.0579943,31.5708583],[-85.041305,31.540987],[-85.044986,31.51823],[-85.0716996,31.4686447],[-85.0659823,31.4306959],[-85.0753501,31.4266351],[-85.0925437,31.3639777],[-85.0838785,31.3264976],[-85.08998,31.2952277],[-85.1146635,31.2769151],[-85.097072,31.2262162],[-85.1079909,31.1880554],[-85.0990306,31.1807992],[-85.100207,31.16549],[-85.0774691,31.1574779],[-85.0539651,31.1201021],[-85.0358425,31.1086366],[-85.0285964,31.074375],[-85.0111985,31.0535021],[-84.9991479,31.0135228],[-85.005734,30.975908],[-84.982527,30.965586],[-84.983127,30.934786],[-84.934424,30.883588],[-84.939824,30.872588],[-84.925665,30.842685],[-84.937424,30.820889],[-84.9135864,30.7510002],[-84.8957787,30.7501115],[-84.8646122,30.7115958],[-83.676773,30.654905],[-82.2147,30.568481],[-82.234065,30.557749],[-82.2403157,30.5377855],[-82.225072,30.50769],[-82.201307,30.4851783],[-82.2108734,30.425379],[-82.1928437,30.3789541],[-82.1616859,30.3572642],[-82.1049583,30.368995],[-82.0656341,30.3556558],[-82.0370372,30.3719946],[-82.0439171,30.4148566],[-82.0341015,30.4201622],[-82.0399844,30.4367857],[-82.0167996,30.4755062],[-82.0192183,30.5328234],[-82.0051282,30.5636278],[-82.0157737,30.6018797],[-82.0274161,30.6067034],[-82.0282296,30.6223552],[-82.049273,30.6555704],[-82.0503648,30.6759464],[-82.0360118,30.7064746],[-82.0455963,30.727967],[-82.0368016,30.7546229],[-82.0276723,30.7509121],[-82.011661,30.7616415],[-82.022772,30.7879219],[-82.007586,30.7931895],[-81.9737328,30.7788143],[-81.9620365,30.7974374],[-81.964237,30.817928],[-81.9497482,30.8280238],[-81.9384438,30.8300837],[-81.9286595,30.8175059],[-81.9093105,30.815774],[-81.9013998,30.8297471],[-81.8920989,30.8248395],[-81.8828657,30.8004944],[-81.8686512,30.7928581],[-81.807449,30.790119],[-81.797172,30.781469],[-81.793388,30.787306],[-81.7830987,30.7616664],[-81.771568,30.764143],[-81.770706,30.77682],[-81.7617681,30.7756212],[-81.7200371,30.7446688],[-81.694382,30.7484778],[-81.672494,30.73879],[-81.66996,30.7467075],[-81.683096,30.748492],[-81.662323,30.754177],[-81.6521683,30.7288175],[-81.6367259,30.7337569],[-81.630432,30.728088],[-81.6244479,30.7363143],[-81.6231384,30.7233422],[-81.609786,30.7158214],[-81.6018973,30.7295006],[-81.5965903,30.7187389],[-81.5752254,30.7225444],[-81.5600047,30.7115681],[-81.5484076,30.7181477],[-81.5383452,30.7085312],[-81.5323209,30.724176],[-81.4888491,30.7264003],[-81.4740761,30.7139662],[-81.451241,30.709484],[-81.3470257,30.7123887],[-81.359146,30.744314],[-81.400482,30.766426],[-81.362682,30.845926],[-81.345207,30.931503],[-81.317535,30.9485],[-81.304832,30.970774],[-81.310709,30.997329],[-81.344498,31.01811],[-81.353416,31.037121],[-81.345306,31.059362],[-81.313637,31.067852],[-81.290199,31.093494],[-81.28653,31.116686],[-81.296417,31.15188],[-81.24791,31.160812],[-81.234337,31.170258],[-81.187675,31.246258],[-81.186119,31.326796],[-81.171089,31.370323],[-81.190758,31.399876],[-81.166939,31.423445],[-81.143845,31.471521],[-81.114998,31.487011],[-81.087067,31.529158],[-81.065826,31.625227],[-81.066635,31.657328],[-81.049789,31.688633],[-81.056623,31.714875],[-81.013812,31.728643],[-80.970726,31.798353],[-80.928589,31.816982],[-80.855339,31.910809],[-80.796272,31.953459],[-80.780693,32.01137],[-80.751429,32.033468],[-80.918003,32.037579],[-80.954483,32.068616],[-80.983192,32.079659],[-81.002318,32.100056],[-81.032633,32.085476],[-81.050317,32.085324],[-81.091575,32.110909],[-81.113343,32.1132],[-81.119995,32.134265],[-81.112236,32.150804],[-81.129756,32.165839],[-81.121149,32.174902],[-81.111132,32.172703],[-81.120439,32.1787],[-81.121795,32.191794],[-81.114032,32.195701],[-81.121885,32.195538],[-81.138925,32.219768],[-81.152064,32.222042],[-81.1436632,32.2291323],[-81.1565459,32.2426244],[-81.14577,32.2511198],[-81.1463349,32.2633343],[-81.1378075,32.2647756],[-81.1418759,32.2716818],[-81.1231364,32.2754084],[-81.1269708,32.2831025],[-81.119557,32.2864693],[-81.122933,32.307295],[-81.1334815,32.3080513],[-81.1307493,32.3254286],[-81.1378691,32.3271475],[-81.1284994,32.3408199],[-81.1441479,32.3513963],[-81.1516607,32.3416428],[-81.1602764,32.3404553],[-81.1545457,32.3497912],[-81.1740765,32.3628337],[-81.167555,32.368364],[-81.1817053,32.3791977],[-81.1782259,32.3930342],[-81.205364,32.4233261],[-81.2083924,32.4369204],[-81.1993601,32.4427735],[-81.2064083,32.4490179],[-81.1977166,32.4482376],[-81.1872603,32.4642256],[-81.2335577,32.4986702],[-81.2388326,32.507442],[-81.2339359,32.5183908],[-81.252882,32.51833],[-81.2799945,32.5366239],[-81.2746804,32.5443139],[-81.2802056,32.5557395],[-81.2894087,32.5514419],[-81.2910273,32.5627467],[-81.296747,32.553428],[-81.297955,32.563026],[-81.328753,32.561228],[-81.357721,32.5727893],[-81.3570769,32.5820522],[-81.366964,32.577059],[-81.369757,32.591231],[-81.3892083,32.5954223],[-81.4186633,32.6293983],[-81.4143602,32.6375394],[-81.4072743,32.6317433],[-81.4027383,32.6370373],[-81.4125563,32.6415293],[-81.3930363,32.6515483],[-81.4071963,32.6605253],[-81.3971573,32.6613843],[-81.4090153,32.6965573],[-81.4124063,32.6921013],[-81.4275203,32.7019013],[-81.4151233,32.7136753],[-81.4203413,32.7210573],[-81.4099913,32.7218693],[-81.4185453,32.7325913],[-81.4049353,32.7455653],[-81.4197013,32.7491733],[-81.4081623,32.7558093],[-81.4140413,32.7554293],[-81.4120963,32.7638723],[-81.4319433,32.7689173],[-81.4144593,32.7781553],[-81.4312383,32.7841473],[-81.4222433,32.7839923],[-81.4276703,32.7876193],[-81.4198823,32.7948633],[-81.4282953,32.8008383],[-81.4179873,32.8182023],[-81.4282383,32.8185903],[-81.4219553,32.8214723],[-81.4299463,32.8282523],[-81.4206233,32.8312293],[-81.4264783,32.8407793],[-81.4386553,32.8400823],[-81.4448693,32.8509723],[-81.4527473,32.8436965],[-81.4607253,32.8460443],[-81.4551323,32.8466175],[-81.4528863,32.8729704],[-81.4794483,32.8810884],[-81.4640723,32.898173],[-81.4804798,32.8975578],[-81.4800815,32.9132029],[-81.4881143,32.91545],[-81.4833979,32.9218555],[-81.5024303,32.9353594],[-81.4994493,32.9449944],[-81.5104551,32.9636522],[-81.4998333,32.9638224],[-81.4912003,32.9978304],[-81.5006333,33.0024604],[-81.4919573,33.0090994],[-81.5049575,33.0164753],[-81.5106933,33.0103214],[-81.5086594,33.0189051],[-81.5190783,33.0232024],[-81.5100415,33.0267721],[-81.5282952,33.0405414],[-81.5377788,33.0387033],[-81.5439194,33.0490254],[-81.5596378,33.0447451],[-81.5661748,33.0484281],[-81.559173,33.051765],[-81.5634257,33.0604533],[-81.567619,33.0534261],[-81.6028319,33.0736269],[-81.5964241,33.0794672],[-81.6006813,33.087156],[-81.6127638,33.080306],[-81.6122899,33.0942912],[-81.6425041,33.0929967],[-81.704634,33.116451],[-81.7516388,33.1478707],[-81.772593,33.1804969],[-81.7650984,33.1788777],[-81.757022,33.1979635],[-81.7682828,33.2169976],[-81.7788204,33.2221819],[-81.7789384,33.2098534],[-81.8052414,33.2114474],[-81.8096394,33.2226534],[-81.8530206,33.248542],[-81.839272,33.2547043],[-81.847362,33.266303],[-81.8352079,33.2581863],[-81.8281227,33.2626942],[-81.8364856,33.2629171],[-81.832636,33.275845],[-81.8632902,33.2885679],[-81.8603396,33.299042],[-81.8488385,33.2968184],[-81.847551,33.3068346],[-81.8548574,33.3108426],[-81.864163,33.3024395],[-81.8689583,33.3137408],[-81.8806817,33.3022077],[-81.8821515,33.3164462],[-81.8924083,33.3152448],[-81.8894364,33.3214488],[-81.8989566,33.3230522],[-81.9013561,33.3355945],[-81.9061734,33.3216461],[-81.9136621,33.3197455],[-81.9083229,33.3271875],[-81.919137,33.334442],[-81.9092418,33.3463591],[-81.9192402,33.3403403],[-81.9399832,33.3450492],[-81.9346892,33.3553768],[-81.9461201,33.3711175],[-81.9314001,33.367874],[-81.9246409,33.3740653],[-81.9458089,33.4069588],[-81.9093851,33.4118756],[-81.9319044,33.4246545],[-81.9129969,33.4383729],[-81.9287108,33.4648529],[-81.9872585,33.4875637],[-82.0018619,33.5202447],[-82.05375,33.5687676],[-82.0940785,33.5827687],[-82.1080409,33.5963375],[-82.1356203,33.591238],[-82.1850339,33.6198958],[-82.1968943,33.6311857],[-82.2007148,33.6646533],[-82.2344955,33.7000477],[-82.2480759,33.7529583],[-82.298286,33.783518],[-82.300213,33.800627],[-82.3244049,33.8200178],[-82.4034957,33.8654516],[-82.4256902,33.8644677],[-82.4548491,33.8814998],[-82.4941673,33.9108532],[-82.515958,33.9385994],[-82.556835,33.945353],[-82.5803547,33.9813752],[-82.57554,33.992049],[-82.5890841,34.0007495],[-82.5944942,34.0295139],[-82.6269591,34.0635401],[-82.6416802,34.0691289],[-82.6418739,34.0925901],[-82.6593056,34.1041385],[-82.6764896,34.1309675],[-82.7177256,34.1509119],[-82.7418706,34.210205],[-82.7468623,34.2664912],[-82.7796218,34.2956634],[-82.7944273,34.3402715],[-82.8345006,34.3648735],[-82.8604018,34.4571252],[-82.8759597,34.4642803],[-82.8766111,34.4750749],[-82.9039123,34.4862463],[-82.9244995,34.4812203],[-82.9396171,34.4863294],[-82.9548059,34.4771957],[-82.980271,34.4828888],[-83.0027549,34.4720341],[-83.0392099,34.4863881],[-83.054322,34.502794],[-83.068809,34.501865],[-83.087067,34.515965],[-83.077751,34.524185],[-83.084686,34.530685],[-83.102692,34.532402],[-83.1225507,34.5597152],[-83.1395128,34.5617994],[-83.1435935,34.5736437],[-83.1586241,34.5791079],[-83.1544524,34.5877548],[-83.1708767,34.59831],[-83.1596409,34.6033226],[-83.2312239,34.611254],[-83.2544185,34.6369199],[-83.2912218,34.6529498],[-83.3047661,34.6697924],[-83.3420027,34.6802924],[-83.340279,34.691635],[-83.3536886,34.6978263],[-83.3466363,34.7042527],[-83.353129,34.7286653],[-83.3188634,34.7575503],[-83.3243657,34.7884724],[-83.300847,34.8042756],[-83.306011,34.8163273],[-83.2951044,34.8130652],[-83.2888897,34.8246508],[-83.2711936,34.8185722],[-83.2673457,34.8485324],[-83.2492612,34.8449747],[-83.2486706,34.865126],[-83.2354795,34.8706026],[-83.2431554,34.8776667],[-83.2198792,34.878193],[-83.2136324,34.8886634],[-83.2053057,34.880233],[-83.2033532,34.8937181],[-83.1973195,34.8908616],[-83.1690184,34.9191191],[-83.1573736,34.9149762],[-83.1565746,34.9310161],[-83.1415494,34.9244563],[-83.1275756,34.9386348],[-83.1119647,34.9349084],[-83.1270145,34.9544267],[-83.114043,34.9504785],[-83.122274,34.9642238],[-83.0983376,34.9907586],[-83.1024253,34.9967687],[-83.6200602,34.9920436],[-83.6199469,34.9866764],[-85.605165,34.984678]]]}}]}