{"type":"FeatureCollection","features":[{"type":"Feature","properties":{"id":"hi"},"geometry":{"type":"MultiPolygon","coordinates":[[[[-178.443593,28.418986],[-178.440486,28.405172],[-178.415882,28.380086],[-178.411478,28.360661],[-178.39561,28.341901],[-178.375,28.335357],[-178.288895,28.32881],[-178.25,28.347151],[-178.233018,28.375],[-178.238469,28.45615],[-178.288827,28.5],[-178.281065,28.5],[-178.315121,28.516334],[-178.360627,28.513819],[-178.395769,28.5],[-178.427578,28.466102],[-178.443593,28.418986]]],[[[-176.043354,27.795897],[-176.039627,27.758242],[-176.029292,27.742683],[-176,27.709306],[-175.969598,27.693402],[-175.939488,27.688231],[-175.895192,27.699213],[-175.84505,27.728457],[-175.802939,27.723485],[-175.746115,27.732717],[-175.726159,27.75],[-175.665594,27.875],[-175.670128,27.941601],[-175.704354,27.982737],[-175.734928,28],[-175.810052,28.005942],[-175.966335,27.929911],[-175.981439,27.913218],[-175.992144,27.889499],[-175.988874,27.861904],[-175.955759,27.833055],[-175.921028,27.821439],[-175.924304,27.81371],[-176,27.835344],[-176.025016,27.821579],[-176.043354,27.795897]]],[[[-174.067457,26.052484],[-174.046093,26.002306],[-174,25.990212],[-173.925968,26.019627],[-173.903358,26.060056],[-173.913424,26.099399],[-173.929088,26.120139],[-173.957916,26.13569],[-174.007114,26.137053],[-174.052469,26.112987],[-174.067457,26.052484]]],[[[-171.809629,25.78135],[-171.797027,25.740539],[-171.77015,25.718199],[-171.737491,25.706533],[-171.699845,25.716858],[-171.68686,25.727879],[-171.667922,25.781217],[-171.688276,25.823768],[-171.75,25.837944],[-171.786978,25.822301],[-171.809629,25.78135]]],[[[-170.68488,25.50644],[-170.66812,25.47043],[-170.62946,25.45583],[-170.58965,25.47065],[-170.57341,25.50514],[-170.5891,25.54154],[-170.62855,25.55714],[-170.66845,25.54254],[-170.68488,25.50644]]],[[[-168.058387,24.987885],[-168.037751,24.959715],[-167.983537,24.949265],[-167.953685,24.964386],[-167.944593,25],[-167.962008,25.033216],[-168,25.05224],[-168.046577,25.031272],[-168.058387,24.987885]]],[[[-166.386532,23.846363],[-166.378839,23.823635],[-166.356342,23.805945],[-166.336822,23.79964],[-166.313574,23.803736],[-166.323742,23.770974],[-166.315823,23.74012],[-166.302607,23.728666],[-166.265589,23.71314],[-166.226782,23.727444],[-166.222827,23.704878],[-166.205415,23.691601],[-166.223964,23.672533],[-166.232285,23.64158],[-166.211058,23.59981],[-166.172218,23.58709],[-166.151155,23.590464],[-166.116781,23.611254],[-166.110682,23.625],[-166.117136,23.625],[-166.113842,23.652336],[-166.132954,23.684703],[-166.113494,23.697148],[-166.105881,23.713536],[-166.10678,23.742522],[-166.118499,23.766669],[-166.148171,23.785479],[-166.153478,23.818941],[-166.169739,23.837422],[-166.165936,23.875],[-166.182347,23.902325],[-166.25,23.93243],[-166.307072,23.924883],[-166.380463,23.883978],[-166.386532,23.846363]]],[[[-164.764911,23.574951],[-164.75,23.536146],[-164.723041,23.521757],[-164.685218,23.517149],[-164.654024,23.535221],[-164.640019,23.576111],[-164.654083,23.607069],[-164.68263,23.622806],[-164.709793,23.623234],[-164.753792,23.603517],[-164.764911,23.574951]]],[[[-161.982524,23.091275],[-161.985445,23.041131],[-161.976061,23.025564],[-161.955171,23.009169],[-161.931897,23.005313],[-161.875,23.019242],[-161.858059,23.060806],[-161.875,23.101637],[-161.887575,23.110384],[-161.91944,23.113988],[-161.965449,23.104987],[-161.982524,23.091275]]],[[[-160.600875,21.658163],[-160.590748,21.625],[-160.570728,21.606664],[-160.546216,21.600384],[-160.496243,21.618853],[-160.482907,21.640311],[-160.483196,21.665186],[-160.494145,21.690537],[-160.53174,21.711998],[-160.578265,21.70025],[-160.591869,21.685858],[-160.600875,21.658163]]],[[[-160.305007,21.845922],[-160.298526,21.7905],[-160.265778,21.74618],[-160.218301,21.728797],[-160.17031,21.739551],[-160.122015,21.82496],[-160.059408,21.845594],[-160.031032,21.869364],[-160.022908,21.896459],[-160.027502,21.931214],[-159.995625,21.982141],[-160.011688,22.019784],[-160.063461,22.072676],[-160.112624,22.082919],[-160.140416,22.073322],[-160.159544,22.041325],[-160.174011,21.991479],[-160.1995,21.981278],[-160.279947,21.920638],[-160.305007,21.845922]]],[[[-159.850959,22.027147],[-159.843609,22],[-159.793601,21.93978],[-159.711714,21.907557],[-159.631259,21.846688],[-159.5,21.833565],[-159.443999,21.817789],[-159.357779,21.865692],[-159.307978,21.908673],[-159.284354,21.940637],[-159.283711,22.018501],[-159.24502,22.101652],[-159.245779,22.166808],[-159.265517,22.203915],[-159.308798,22.25],[-159.389673,22.287507],[-159.412413,22.288846],[-159.432755,22.278035],[-159.484043,22.285916],[-159.524654,22.275494],[-159.547442,22.283076],[-159.596389,22.277999],[-159.677252,22.227108],[-159.75,22.199449],[-159.7728,22.18106],[-159.788826,22.160105],[-159.794006,22.134622],[-159.848124,22.076073],[-159.850959,22.027147]]],[[[-158.34465,21.577679],[-158.328652,21.546],[-158.298653,21.524718],[-158.301353,21.496818],[-158.290164,21.496822],[-158.285935,21.465164],[-158.240052,21.411531],[-158.228852,21.375631],[-158.183253,21.345935],[-158.164354,21.272335],[-158.13476,21.242391],[-158.091586,21.237863],[-157.963555,21.257738],[-157.931455,21.248339],[-157.898656,21.249939],[-157.859067,21.213135],[-157.810229,21.199238],[-157.745311,21.221671],[-157.719701,21.209485],[-157.675777,21.213801],[-157.616131,21.260429],[-157.600922,21.282919],[-157.602299,21.341521],[-157.628452,21.376616],[-157.638551,21.417809],[-157.652151,21.439107],[-157.640749,21.462695],[-157.650549,21.48509],[-157.702613,21.518709],[-157.747251,21.515307],[-157.761931,21.526389],[-157.780951,21.544607],[-157.802049,21.590099],[-157.844149,21.621804],[-157.881446,21.705183],[-157.941785,21.754579],[-157.991748,21.762965],[-158.050144,21.739881],[-158.095543,21.702995],[-158.120229,21.657305],[-158.122243,21.665698],[-158.148846,21.641999],[-158.175005,21.632009],[-158.311945,21.62178],[-158.335048,21.604573],[-158.34465,21.577679]]],[[[-157.366549,21.100956],[-157.349124,21.07224],[-157.321244,21.050676],[-157.231438,21.043099],[-157.077556,21.058358],[-156.963131,21.01287],[-156.877923,20.993364],[-156.829989,21.002259],[-156.672586,21.095717],[-156.652725,21.125],[-156.650886,21.145019],[-156.667378,21.19315],[-156.686507,21.210514],[-156.722076,21.226062],[-156.794843,21.234161],[-156.840869,21.223195],[-156.88611,21.234344],[-156.910279,21.229571],[-156.9274,21.256578],[-156.971289,21.274365],[-157.009086,21.265948],[-157.030163,21.24395],[-157.057396,21.244187],[-157.158992,21.257896],[-157.199538,21.276509],[-157.259973,21.278475],[-157.292296,21.265635],[-157.310521,21.244522],[-157.311675,21.204128],[-157.349892,21.157085],[-157.366549,21.100956]]],[[[-157.11724,20.891693],[-157.08568,20.836682],[-157.048069,20.820545],[-157.045183,20.770467],[-157.027278,20.728731],[-157,20.696895],[-156.973807,20.686784],[-156.875,20.690965],[-156.845415,20.711677],[-156.816993,20.719793],[-156.782302,20.75],[-156.75,20.807605],[-156.757459,20.850771],[-156.823329,20.930808],[-156.868474,20.964379],[-156.913323,20.977963],[-156.989822,20.985058],[-157.04949,20.979035],[-157.09993,20.948603],[-157.111227,20.93123],[-157.11724,20.891693]]],[[[-156.755978,20.526721],[-156.7291156,20.480194],[-156.7059759,20.4658379],[-156.656859,20.457266],[-156.546069,20.460845],[-156.5122,20.47478],[-156.489367,20.5],[-156.4792017,20.5466966],[-156.4684116,20.5563843],[-156.396426,20.533545],[-156.290472,20.536895],[-156.190607,20.575512],[-156.13527,20.569843],[-156.077119,20.596552],[-156.03861,20.600716],[-155.969594,20.652124],[-155.945797,20.683913],[-155.926837,20.738675],[-155.9365128,20.7920131],[-155.9683032,20.8342286],[-156.076476,20.880751],[-156.214341,20.983088],[-156.268578,21.003751],[-156.320479,21.00623],[-156.404908,20.974181],[-156.45109,20.968758],[-156.463434,20.979554],[-156.483134,21.02865],[-156.559513,21.082338],[-156.605889,21.09258],[-156.655947,21.081826],[-156.708489,21.043231],[-156.735017,21.005729],[-156.751796,20.948548],[-156.751941,20.913681],[-156.7410668,20.8799683],[-156.721737,20.842436],[-156.651921,20.772196],[-156.562697,20.738041],[-156.51187,20.735386],[-156.5,20.691232],[-156.531659,20.67922],[-156.549625,20.65803],[-156.597734,20.657879],[-156.704442,20.604591],[-156.742659,20.570091],[-156.755978,20.526721]]],[[[-156.120001,19.727176],[-156.078592,19.625001],[-156.038935,19.600948],[-156.030277,19.587478],[-156.012864,19.5],[-155.999134,19.466181],[-155.978105,19.445809],[-155.963615,19.386519],[-155.943213,19.344227],[-155.945104,19.29668],[-155.974738,19.130161],[-155.972538,19.101382],[-155.954064,19.053622],[-155.916334,18.999999],[-155.875,18.97643],[-155.828233,18.966542],[-155.781727,18.933417],[-155.739971,18.916891],[-155.722895,18.882523],[-155.694257,18.866786],[-155.662995,18.866159],[-155.639097,18.875],[-155.5656,18.934517],[-155.545351,18.96185],[-155.537366,18.989057],[-155.516554,19.011483],[-155.500002,19.064338],[-155.466097,19.095352],[-155.428934,19.107215],[-155.391434,19.14436],[-155.325377,19.17128],[-155.268405,19.219495],[-155.175617,19.211386],[-155.10551,19.23427],[-155.079339,19.254088],[-154.939663,19.312834],[-154.786132,19.440376],[-154.756605,19.506911],[-154.759333,19.536462],[-154.778294,19.559895],[-154.822221,19.59331],[-154.881428,19.619951],[-154.911451,19.662036],[-154.928935,19.673605],[-154.931853,19.715468],[-154.963843,19.769189],[-154.99472,19.788924],[-155.033315,19.793421],[-155.03162,19.875],[-155.086049,19.941743],[-155.14033,19.989481],[-155.252399,20.063448],[-155.397547,20.132833],[-155.54075,20.180249],[-155.582087,20.181316],[-155.688845,20.244776],[-155.7404,20.288925],[-155.836783,20.321226],[-155.883656,20.315209],[-155.91592,20.301049],[-155.942381,20.271628],[-155.959029,20.226871],[-155.95962,20.184027],[-155.947988,20.123786],[-155.932275,20.083445],[-155.884311,20.018327],[-155.938883,19.961518],[-155.962427,19.909152],[-156.012391,19.889753],[-156.053544,19.843534],[-156.095672,19.815013],[-156.120001,19.727176]]]]}}]}