{"type":"FeatureCollection","features":[{"type":"Feature","properties":{"id":"ia"},"geometry":{"type":"Polygon","coordinates":[[[-96.6397162,42.7370312],[-96.6305431,42.7299702],[-96.6347917,42.7247213],[-96.6237303,42.7253203],[-96.6301461,42.7052585],[-96.5984388,42.6986282],[-96.5856858,42.6824692],[-96.5743133,42.6823667],[-96.5784331,42.6717104],[-96.5663095,42.6763013],[-96.5555056,42.6639162],[-96.5592822,42.6575176],[-96.5421268,42.6607998],[-96.5373095,42.6457207],[-96.5155943,42.6299196],[-96.5182765,42.6195543],[-96.5313872,42.6143276],[-96.5272244,42.6087293],[-96.5177401,42.6167594],[-96.5096613,42.6131354],[-96.5015128,42.5888908],[-96.4913901,42.5871686],[-96.4960893,42.5799405],[-96.4857467,42.5747184],[-96.4994728,42.5705033],[-96.4985287,42.5583975],[-96.4769816,42.5556186],[-96.4790523,42.5256414],[-96.4938796,42.5160101],[-96.4760839,42.5086853],[-96.4759157,42.490424],[-96.4025675,42.4868678],[-96.3855144,42.4744273],[-96.3805093,42.4451233],[-96.4150186,42.4057454],[-96.408436,42.376092],[-96.417786,42.351449],[-96.407998,42.337408],[-96.375307,42.318339],[-96.365792,42.285875],[-96.328905,42.254734],[-96.323723,42.229887],[-96.35987,42.210545],[-96.348066,42.194747],[-96.349688,42.172043],[-96.310085,42.132523],[-96.2689,42.11359],[-96.267636,42.096177],[-96.279342,42.07028],[-96.271427,42.044988],[-96.223822,42.033346],[-96.223611,42.022652],[-96.241932,42.006965],[-96.236487,41.996428],[-96.194556,42.008662],[-96.183568,41.999987],[-96.1910177,41.9855692],[-96.1856418,41.9778085],[-96.156538,41.980137],[-96.129505,41.971673],[-96.144583,41.941544],[-96.136743,41.920826],[-96.161756,41.90182],[-96.142045,41.868865],[-96.110246,41.84885],[-96.107592,41.820685],[-96.075548,41.807811],[-96.064537,41.793002],[-96.077543,41.777824],[-96.079915,41.757895],[-96.106425,41.73789],[-96.073063,41.705004],[-96.082429,41.698159],[-96.111968,41.697773],[-96.121401,41.688522],[-96.120983,41.677861],[-96.099837,41.66103],[-96.095046,41.647365],[-96.117558,41.609999],[-96.081152,41.577289],[-96.093613,41.558271],[-96.09409,41.539265],[-96.05369,41.508859],[-96.040701,41.507076],[-96.027289,41.541081],[-96.005079,41.544004],[-95.992599,41.514174],[-96.019224,41.489296],[-96.011757,41.476212],[-95.962329,41.46281],[-95.936801,41.46519],[-95.922529,41.455766],[-95.9371452,41.3931729],[-95.92879,41.370096],[-95.957097,41.345794],[-95.925835,41.32158],[-95.882916,41.316647],[-95.871141,41.29669],[-95.877481,41.284583],[-95.9040498,41.2743087],[-95.913202,41.2794643],[-95.9044612,41.2994913],[-95.9280384,41.2984719],[-95.9295636,41.2820036],[-95.9149057,41.2716986],[-95.922304,41.26302],[-95.910629,41.234579],[-95.9271884,41.1971435],[-95.916119,41.185279],[-95.861659,41.187965],[-95.841616,41.175469],[-95.846188,41.166698],[-95.86964,41.16883],[-95.881289,41.159898],[-95.862587,41.088399],[-95.882415,41.060411],[-95.859654,41.035695],[-95.867286,41.001599],[-95.8298907,40.9777757],[-95.839743,40.93278],[-95.809474,40.891228],[-95.815933,40.879846],[-95.84859,40.861061],[-95.837186,40.835347],[-95.845342,40.811324],[-95.835232,40.779151],[-95.879027,40.753081],[-95.888907,40.731855],[-95.883178,40.717579],[-95.852615,40.702262],[-95.842801,40.677496],[-95.795489,40.662384],[-95.7759032,40.6471242],[-95.768926,40.621264],[-95.748626,40.603355],[-95.7660287,40.5853527],[-94.294813,40.571341],[-92.686693,40.589809],[-91.7292543,40.6136347],[-91.6863854,40.5811948],[-91.6882403,40.557044],[-91.6204197,40.5412264],[-91.6207547,40.5087597],[-91.5914183,40.4924711],[-91.5744328,40.4654563],[-91.5250965,40.4576748],[-91.533623,40.43832],[-91.5195677,40.4332926],[-91.5258609,40.4127439],[-91.4987256,40.4005387],[-91.4821921,40.4054175],[-91.4806771,40.396815],[-91.4920962,40.396343],[-91.4851177,40.3831055],[-91.4645834,40.3859298],[-91.4654908,40.3769547],[-91.4544048,40.3756007],[-91.4440349,40.386194],[-91.42041,40.378014],[-91.391613,40.384038],[-91.372921,40.399108],[-91.381468,40.44604],[-91.363683,40.494211],[-91.381857,40.528247],[-91.404125,40.539127],[-91.405241,40.554641],[-91.3396162,40.6136199],[-91.253074,40.637962],[-91.18698,40.637297],[-91.123928,40.669152],[-91.11219,40.69558],[-91.110424,40.745528],[-91.091703,40.779708],[-91.092993,40.821079],[-91.05643,40.848387],[-91.009536,40.900565],[-90.965344,40.921633],[-90.952233,40.954047],[-90.958142,40.979767],[-90.942253,41.034702],[-90.946627,41.096632],[-90.99496,41.160624],[-91.041536,41.166138],[-91.07298,41.207151],[-91.113648,41.241401],[-91.092034,41.286911],[-91.074841,41.305578],[-91.06652,41.365246],[-91.05158,41.385283],[-91.04589,41.414085],[-90.979815,41.434321],[-90.930016,41.421404],[-90.846558,41.455141],[-90.735791,41.4493187],[-90.655839,41.462132],[-90.6088547,41.4914773],[-90.5957755,41.5107412],[-90.5555865,41.5245226],[-90.461432,41.5235342],[-90.4057619,41.5695773],[-90.3433527,41.5903019],[-90.343452,41.646959],[-90.334525,41.679559],[-90.313435,41.698082],[-90.317668,41.72269],[-90.310708,41.742214],[-90.278633,41.767358],[-90.181973,41.80707],[-90.181901,41.843216],[-90.1496142,41.9148671],[-90.164939,41.948861],[-90.140061,42.003252],[-90.164485,42.042105],[-90.162895,42.116718],[-90.17097,42.125198],[-90.201404,42.130937],[-90.216107,42.15673],[-90.3304025,42.2019926],[-90.3554162,42.2052982],[-90.3939468,42.2281365],[-90.430884,42.27823],[-90.415937,42.322699],[-90.443874,42.355218],[-90.477279,42.383794],[-90.555018,42.416138],[-90.567968,42.440389],[-90.624328,42.458904],[-90.654027,42.478503],[-90.655927,42.491703],[-90.636927,42.513202],[-90.6416829,42.5376431],[-90.6851971,42.589062],[-90.706303,42.634169],[-90.921155,42.685406],[-90.949213,42.685573],[-91.026786,42.724228],[-91.035418,42.73734],[-91.053733,42.738238],[-91.06468,42.750914],[-91.060261,42.761847],[-91.069549,42.769628],[-91.0777927,42.8350803],[-91.0929781,42.8435361],[-91.100565,42.883078],[-91.146177,42.90985],[-91.14655,42.963345],[-91.174692,43.038713],[-91.178251,43.124982],[-91.175253,43.134665],[-91.1462,43.152405],[-91.12217,43.197255],[-91.066398,43.239293],[-91.057918,43.255366],[-91.072649,43.262129],[-91.07371,43.274746],[-91.107237,43.313645],[-91.20662,43.352524],[-91.21499,43.368006],[-91.198953,43.389835],[-91.200359,43.412701],[-91.233367,43.455168],[-91.216035,43.481142],[-91.217706,43.50055],[-96.5994244,43.5003786],[-96.5811954,43.4811373],[-96.5869744,43.4777397],[-96.5828476,43.4665312],[-96.6031978,43.4509301],[-96.5942709,43.4338884],[-96.5703671,43.4283955],[-96.5732424,43.4187799],[-96.5443389,43.3958255],[-96.5250485,43.3959499],[-96.5215187,43.3853154],[-96.5224532,43.3719679],[-96.5309933,43.3686221],[-96.5242956,43.3471094],[-96.5351214,43.336301],[-96.5238031,43.3100821],[-96.5302609,43.2997608],[-96.5521894,43.2927796],[-96.5739621,43.2990324],[-96.5887888,43.2959207],[-96.5790363,43.2932813],[-96.5850981,43.2684748],[-96.5529115,43.2587635],[-96.549371,43.2468312],[-96.5714402,43.2389063],[-96.5591021,43.222983],[-96.4761575,43.2215679],[-96.4738185,43.1892212],[-96.4646679,43.1812598],[-96.4686253,43.1518996],[-96.4502234,43.1422812],[-96.4363403,43.1204988],[-96.4628835,43.0915009],[-96.4541395,43.0855618],[-96.4602824,43.0646826],[-96.5103432,43.0501251],[-96.5217186,43.0393836],[-96.510777,43.0398021],[-96.5123709,43.0267413],[-96.4919647,43.0101533],[-96.5209351,42.9795804],[-96.5049943,42.9709652],[-96.499029,42.9575476],[-96.5198,42.9402158],[-96.5171169,42.9320612],[-96.5250572,42.9358016],[-96.5410539,42.9244976],[-96.5365051,42.9050385],[-96.5429207,42.9038165],[-96.5247745,42.891871],[-96.5406445,42.8894992],[-96.5378896,42.8779631],[-96.5503987,42.8690628],[-96.5474729,42.8570171],[-96.5410324,42.8583757],[-96.5451337,42.8496717],[-96.5561064,42.849315],[-96.5502914,42.8373421],[-96.5605911,42.839655],[-96.5635308,42.8281366],[-96.5677608,42.8381077],[-96.5818342,42.8376253],[-96.577489,42.8277039],[-96.5960177,42.8152782],[-96.5899881,42.8075571],[-96.5996426,42.7994022],[-96.5946659,42.7928994],[-96.6364869,42.7692602],[-96.627142,42.7545461],[-96.619031,42.7542153],[-96.6303607,42.750544],[-96.6284402,42.743461],[-96.6358324,42.7414518],[-96.630586,42.7351084],[-96.6397162,42.7370312]]]}}]}