{"type":"FeatureCollection","features":[{"type":"Feature","properties":{"id":"id"},"geometry":{"type":"Polygon","coordinates":[[[-117.2430324,44.3909736],[-117.235123,44.3738517],[-117.189769,44.336585],[-117.222647,44.297578],[-117.198147,44.273828],[-117.170342,44.25889],[-117.143394,44.258262],[-117.121037,44.277585],[-117.104208,44.27994],[-117.089503,44.258234],[-117.05303,44.229076],[-117.031862,44.248635],[-116.9764172,44.2428275],[-116.971675,44.197256],[-116.925392,44.191544],[-116.902752,44.179467],[-116.8938015,44.1619186],[-116.933704,44.100039],[-116.977351,44.085364],[-116.973185,44.049425],[-116.943361,44.035645],[-116.934727,44.023806],[-116.9444519,44.0031436],[-116.9352405,43.9909377],[-116.9746908,43.9670003],[-116.9636658,43.9526443],[-116.9682896,43.9372361],[-116.9624703,43.9283362],[-116.9825645,43.8678647],[-117.0209599,43.8585985],[-117.0113575,43.8417808],[-117.0251682,43.8416077],[-117.0330325,43.8295],[-117.0213944,43.8201921],[-117.026841,43.732905],[-117.0262469,42.000255],[-113.8032534,41.9888339],[-112.8328732,41.9993074],[-111.046805,42.0016282],[-111.0440889,43.2046978],[-111.0524623,44.4761567],[-111.127383,44.49762],[-111.138618,44.516854],[-111.131382,44.532429],[-111.150571,44.534971],[-111.158894,44.546264],[-111.17864,44.552477],[-111.18103,44.569231],[-111.227631,44.576687],[-111.240889,44.614525],[-111.219319,44.622521],[-111.252597,44.65125],[-111.278477,44.651265],[-111.266804,44.667512],[-111.296879,44.691444],[-111.29626,44.702271],[-111.322484,44.718776],[-111.323626,44.729072],[-111.337113,44.733204],[-111.352977,44.726178],[-111.384824,44.754954],[-111.397844,44.746383],[-111.397958,44.723644],[-111.414273,44.710739],[-111.438798,44.720545],[-111.488784,44.705643],[-111.484603,44.687574],[-111.468509,44.679178],[-111.476511,44.673724],[-111.472483,44.66619],[-111.490114,44.642471],[-111.500956,44.649639],[-111.51631,44.643997],[-111.502499,44.626508],[-111.522613,44.614084],[-111.523611,44.592215],[-111.50134,44.57249],[-111.507769,44.562298],[-111.478653,44.553395],[-111.469355,44.557674],[-111.468002,44.538951],[-111.499371,44.542029],[-111.512891,44.536041],[-111.547052,44.557176],[-111.585687,44.562628],[-111.613897,44.54868],[-111.703164,44.560148],[-111.715648,44.543369],[-111.749914,44.53958],[-111.762724,44.5258],[-111.77151,44.530868],[-111.779796,44.523843],[-111.801119,44.525985],[-111.807971,44.510161],[-111.82153,44.508941],[-111.863914,44.55146],[-111.869319,44.566621],[-111.902934,44.556673],[-111.947782,44.557013],[-111.977724,44.535744],[-112.032707,44.546642],[-112.032799,44.528403],[-112.069068,44.537151],[-112.1064,44.520569],[-112.136672,44.53986],[-112.164648,44.541533],[-112.183657,44.532953],[-112.222333,44.543943],[-112.22963,44.549519],[-112.229225,44.564089],[-112.256701,44.571678],[-112.267805,44.565461],[-112.286568,44.568559],[-112.313741,44.553041],[-112.319494,44.538904],[-112.352509,44.538021],[-112.358823,44.529411],[-112.358366,44.485261],[-112.386524,44.447308],[-112.407236,44.457465],[-112.43408,44.454348],[-112.441509,44.466575],[-112.455232,44.466254],[-112.472687,44.479297],[-112.500642,44.462766],[-112.541712,44.483771],[-112.577953,44.480092],[-112.601955,44.490705],[-112.625014,44.483027],[-112.63334,44.491096],[-112.661734,44.48599],[-112.71793,44.504273],[-112.743062,44.488338],[-112.78081,44.48466],[-112.83989,44.424714],[-112.819944,44.400198],[-112.810056,44.39876],[-112.812208,44.377142],[-112.844565,44.357969],[-112.854267,44.359588],[-112.881581,44.379256],[-112.889557,44.405938],[-112.901873,44.398861],[-112.945416,44.414632],[-112.952048,44.42502],[-112.971516,44.427567],[-113.004506,44.452827],[-113.006117,44.47098],[-113.026824,44.495512],[-113.00653,44.525776],[-113.045358,44.544323],[-113.037285,44.564769],[-113.067168,44.579062],[-113.062266,44.586236],[-113.088292,44.599663],[-113.053654,44.621657],[-113.050722,44.634542],[-113.065589,44.649253],[-113.067761,44.678786],[-113.097833,44.698868],[-113.101618,44.729465],[-113.116836,44.732517],[-113.120261,44.745951],[-113.134824,44.752763],[-113.131459,44.772758],[-113.163688,44.778819],[-113.193117,44.801653],[-113.238729,44.814144],[-113.246894,44.822973],[-113.341276,44.784664],[-113.354083,44.791798],[-113.3461,44.800611],[-113.356062,44.819798],[-113.377567,44.835239],[-113.421952,44.837599],[-113.42908,44.854858],[-113.455071,44.865424],[-113.4612,44.886754],[-113.478595,44.895595],[-113.471787,44.909837],[-113.490745,44.922852],[-113.498818,44.942203],[-113.443939,44.95938],[-113.446861,44.998276],[-113.437882,45.007343],[-113.448689,45.020016],[-113.446291,45.033892],[-113.455803,45.039712],[-113.449312,45.046177],[-113.452044,45.059174],[-113.485531,45.063624],[-113.489406,45.076526],[-113.522187,45.091388],[-113.506049,45.107784],[-113.511249,45.116129],[-113.549663,45.112879],[-113.569884,45.123851],[-113.576725,45.131237],[-113.565694,45.149602],[-113.590707,45.155886],[-113.592133,45.184779],[-113.636352,45.211847],[-113.655425,45.240006],[-113.691887,45.262503],[-113.691908,45.272356],[-113.680279,45.278886],[-113.738661,45.329409],[-113.740342,45.345439],[-113.72903,45.356086],[-113.738879,45.36813],[-113.733475,45.390811],[-113.749192,45.4029],[-113.776043,45.408477],[-113.77716,45.416563],[-113.759733,45.42711],[-113.776034,45.433746],[-113.774427,45.44651],[-113.784264,45.454886],[-113.776222,45.470905],[-113.759914,45.4804],[-113.772843,45.513307],[-113.766022,45.520621],[-113.834778,45.520657],[-113.817408,45.557033],[-113.821469,45.565948],[-113.796746,45.581573],[-113.806431,45.60163],[-113.861589,45.62382],[-113.885963,45.617382],[-113.904691,45.622007],[-113.895278,45.643847],[-113.919856,45.658117],[-113.93526,45.694341],[-113.964816,45.690019],[-113.970767,45.702929],[-113.988526,45.705977],[-113.996841,45.696858],[-114.015482,45.695901],[-114.014366,45.683769],[-114.02831,45.675237],[-114.015659,45.66425],[-114.01527,45.652766],[-114.066738,45.628166],[-114.081858,45.610568],[-114.086102,45.591464],[-114.121262,45.584592],[-114.135821,45.557098],[-114.180273,45.551238],[-114.193608,45.536372],[-114.24845,45.545813],[-114.24721,45.524719],[-114.269892,45.484552],[-114.330047,45.459722],[-114.345662,45.460657],[-114.367201,45.491854],[-114.425707,45.510719],[-114.430574,45.52951],[-114.463912,45.545029],[-114.456077,45.56224],[-114.471946,45.565223],[-114.49808,45.555461],[-114.52726,45.570855],[-114.564936,45.55771],[-114.552956,45.576603],[-114.558498,45.584463],[-114.537944,45.606592],[-114.563987,45.637621],[-114.507646,45.657535],[-114.49903,45.678874],[-114.515086,45.684911],[-114.495148,45.70397],[-114.504182,45.721814],[-114.54785,45.743264],[-114.544511,45.759178],[-114.566465,45.77331],[-114.544091,45.790361],[-114.531018,45.818898],[-114.511483,45.829436],[-114.517379,45.834947],[-114.509644,45.845357],[-114.487097,45.851671],[-114.474891,45.846585],[-114.437715,45.862608],[-114.409654,45.851573],[-114.405917,45.8704],[-114.396057,45.871228],[-114.387868,45.883926],[-114.395143,45.901433],[-114.413563,45.911631],[-114.414864,45.922133],[-114.431396,45.93604],[-114.402524,45.957944],[-114.411755,45.97787],[-114.4485,45.987603],[-114.457826,45.997478],[-114.479992,45.992902],[-114.487783,46.003646],[-114.47307,46.01415],[-114.480347,46.030349],[-114.507504,46.031464],[-114.493349,46.05258],[-114.468286,46.06279],[-114.472352,46.076806],[-114.462011,46.07858],[-114.460475,46.09779],[-114.474454,46.113108],[-114.520996,46.125112],[-114.517696,46.135585],[-114.527359,46.145411],[-114.514368,46.153972],[-114.514858,46.16768],[-114.475953,46.160606],[-114.444091,46.169273],[-114.447985,46.231565],[-114.468267,46.248663],[-114.47072,46.266041],[-114.464921,46.273219],[-114.441117,46.273865],[-114.425441,46.287856],[-114.433434,46.305549],[-114.414022,46.335564],[-114.41025,46.361054],[-114.422447,46.387046],[-114.384843,46.411359],[-114.382961,46.432172],[-114.368414,46.437115],[-114.3844,46.447012],[-114.379431,46.46029],[-114.400672,46.477813],[-114.403184,46.498811],[-114.35834,46.505212],[-114.342641,46.518431],[-114.347888,46.551471],[-114.329639,46.576199],[-114.344197,46.589969],[-114.322532,46.610889],[-114.328061,46.619755],[-114.320745,46.647063],[-114.358224,46.671138],[-114.412116,46.656825],[-114.424596,46.66066],[-114.453477,46.649209],[-114.452639,46.641561],[-114.466834,46.631801],[-114.541822,46.649992],[-114.582867,46.633367],[-114.605732,46.6359],[-114.614975,46.639975],[-114.614564,46.655075],[-114.635779,46.659476],[-114.639892,46.665614],[-114.63314,46.671818],[-114.642563,46.672912],[-114.623543,46.690933],[-114.620787,46.707262],[-114.665376,46.739234],[-114.698594,46.740451],[-114.713044,46.715426],[-114.739773,46.711941],[-114.74848,46.698555],[-114.766786,46.696902],[-114.768548,46.704763],[-114.78843,46.71277],[-114.765239,46.745391],[-114.76509,46.75815],[-114.783634,46.768666],[-114.7875,46.782776],[-114.798748,46.775832],[-114.829104,46.782626],[-114.865779,46.814529],[-114.895189,46.80163],[-114.898448,46.822354],[-114.920731,46.827083],[-114.928739,46.83521],[-114.928683,46.854767],[-114.948261,46.860009],[-114.931421,46.876998],[-114.936741,46.897279],[-114.921828,46.912703],[-114.925143,46.918681],[-114.960597,46.93001],[-115.001274,46.971901],[-115.048789,46.970036],[-115.049944,46.981057],[-115.067775,46.995212],[-115.071679,47.026361],[-115.079799,47.02824],[-115.087426,47.045716],[-115.105791,47.048413],[-115.131134,47.068956],[-115.14413,47.101911],[-115.171652,47.106782],[-115.19904,47.139887],[-115.244619,47.151312],[-115.261822,47.181431],[-115.300577,47.188334],[-115.291529,47.210854],[-115.324369,47.244724],[-115.319786,47.256684],[-115.384666,47.267803],[-115.411585,47.264369],[-115.425967,47.280278],[-115.455908,47.277618],[-115.465818,47.287477],[-115.482264,47.281444],[-115.528509,47.299244],[-115.538835,47.329059],[-115.550473,47.334263],[-115.550763,47.349686],[-115.575127,47.355903],[-115.577639,47.367404],[-115.617247,47.38252],[-115.643411,47.37734],[-115.657491,47.400455],[-115.677563,47.401786],[-115.675245,47.409393],[-115.692044,47.415342],[-115.712261,47.415442],[-115.721112,47.425698],[-115.759304,47.423862],[-115.747439,47.442042],[-115.716094,47.45288],[-115.646461,47.45683],[-115.629488,47.47961],[-115.661025,47.477848],[-115.667918,47.48882],[-115.686264,47.48494],[-115.690026,47.500762],[-115.711398,47.516771],[-115.698314,47.531375],[-115.742327,47.538325],[-115.75562,47.547933],[-115.687758,47.5953],[-115.698443,47.606579],[-115.694444,47.623761],[-115.729864,47.64192],[-115.736508,47.653811],[-115.722648,47.695118],[-115.753026,47.71695],[-115.777151,47.720376],[-115.784258,47.729963],[-115.781002,47.743184],[-115.797498,47.757334],[-115.83091,47.755036],[-115.847353,47.785094],[-115.845066,47.814999],[-115.852312,47.827857],[-115.870741,47.834962],[-115.881496,47.849612],[-115.901401,47.843097],[-115.918885,47.85362],[-115.938009,47.881093],[-115.968389,47.89925],[-115.966869,47.912598],[-115.993375,47.925977],[-116.018771,47.962895],[-116.049108,47.976842],[-116.0492317,49.0008447],[-117.0323503,48.9991971],[-117.042657,47.760857],[-117.0354685,46.4154735],[-117.0481062,46.3788012],[-117.062785,46.365287],[-117.06263,46.352522],[-117.023844,46.335976],[-117.020663,46.314793],[-116.986688,46.296662],[-116.9906962,46.27611],[-116.966742,46.256923],[-116.955264,46.23088],[-116.965841,46.203417],[-116.92187,46.167808],[-116.9346058,46.1539504],[-116.9336939,46.1390322],[-116.950276,46.123464],[-116.955263,46.102237],[-116.978823,46.095731],[-116.981962,46.084915],[-116.942656,46.061],[-116.918695,45.9988696],[-116.8934199,45.9778107],[-116.8908616,45.9603443],[-116.8756588,45.9543645],[-116.859795,45.907264],[-116.7960157,45.8605784],[-116.7809373,45.8245753],[-116.759787,45.816167],[-116.7358693,45.8265372],[-116.711822,45.826267],[-116.6962434,45.8192493],[-116.6643472,45.781858],[-116.5941586,45.779104],[-116.5476235,45.7525687],[-116.535698,45.734231],[-116.535396,45.691734],[-116.4898092,45.6521441],[-116.4631465,45.6112757],[-116.4823218,45.5775697],[-116.528688,45.5515481],[-116.5236326,45.5466889],[-116.5350178,45.525992],[-116.5580354,45.5037016],[-116.5550973,45.4630316],[-116.5883371,45.4431416],[-116.5971641,45.4136677],[-116.623193,45.3940761],[-116.673793,45.321511],[-116.674493,45.276349],[-116.691388,45.263739],[-116.703697,45.240099],[-116.729607,45.142091],[-116.745535,45.133038],[-116.754643,45.113972],[-116.774847,45.105536],[-116.796056,45.0612407],[-116.848241,45.0221839],[-116.8442928,45.0016745],[-116.8580078,44.9771766],[-116.8484127,44.9721717],[-116.8374263,44.9840718],[-116.825925,44.9835861],[-116.8514168,44.9611801],[-116.8316808,44.9320354],[-116.8512227,44.8893809],[-116.8660214,44.8701376],[-116.8981515,44.8542217],[-116.899058,44.840503],[-116.931099,44.804781],[-116.9347,44.783881],[-116.970902,44.773881],[-116.998903,44.756382],[-117.03827,44.748179],[-117.062273,44.727143],[-117.061799,44.706654],[-117.095868,44.664737],[-117.098221,44.640689],[-117.120522,44.614658],[-117.124754,44.583834],[-117.148255,44.564371],[-117.14293,44.557236],[-117.149242,44.536151],[-117.161033,44.525166],[-117.181583,44.52296],[-117.2002412,44.4920287],[-117.225076,44.482346],[-117.2150678,44.4271611],[-117.2430324,44.3909736]]]}}]}