{"type":"FeatureCollection","features":[{"type":"Feature","properties":{"id":"il"},"geometry":{"type":"Polygon","coordinates":[[[-91.5130518,40.1785449],[-91.5092178,40.1218839],[-91.4895788,40.0574429],[-91.4948508,40.0364609],[-91.465315,39.983995],[-91.41936,39.927717],[-91.420878,39.914865],[-91.443513,39.893583],[-91.446385,39.870394],[-91.432919,39.840554],[-91.377971,39.811273],[-91.363444,39.792804],[-91.367854,39.729136],[-91.27614,39.665759],[-91.229317,39.620853],[-91.181936,39.602677],[-91.168419,39.564928],[-91.153628,39.548248],[-91.100307,39.538695],[-91.0653786,39.4941158],[-91.059439,39.46886],[-91.03827,39.448436],[-90.940766,39.403984],[-90.9301496,39.3879558],[-90.9062824,39.3802191],[-90.7935293,39.3101847],[-90.7575597,39.2692194],[-90.7309993,39.2561806],[-90.7090874,39.1541553],[-90.6805381,39.0975145],[-90.7138246,39.0504911],[-90.6781808,38.9918487],[-90.6608041,38.9245796],[-90.6295948,38.8937765],[-90.583388,38.86903],[-90.549841,38.8722979],[-90.5019379,38.9080328],[-90.4695659,38.960963],[-90.4503448,38.967641],[-90.3992022,38.9618864],[-90.3088344,38.924457],[-90.250248,38.919344],[-90.1098311,38.8477631],[-90.1217546,38.7999862],[-90.1564538,38.7793725],[-90.2113956,38.721298],[-90.2092273,38.7028112],[-90.181244,38.6600763],[-90.1844697,38.6116674],[-90.2513866,38.5412327],[-90.2735461,38.4945194],[-90.2894806,38.4325403],[-90.3430901,38.3864132],[-90.3684349,38.339411],[-90.3730499,38.2909542],[-90.3617027,38.2321797],[-90.3327692,38.1901055],[-90.2839382,38.1653383],[-90.2412153,38.1105851],[-90.2176119,38.0928615],[-90.1731059,38.0695647],[-90.1302571,38.0627768],[-90.0706427,38.0196724],[-90.0697751,38.0122628],[-90.0320472,37.9953261],[-89.9999143,37.9643406],[-89.9409818,37.9709249],[-89.9355605,37.959414],[-89.9246483,37.9599848],[-89.9319723,37.9477149],[-89.9591646,37.9400563],[-89.9747941,37.9265276],[-89.9486631,37.8802846],[-89.9005222,37.8701687],[-89.840705,37.9045358],[-89.7990058,37.8812988],[-89.7975584,37.8619651],[-89.7861083,37.8514349],[-89.7401336,37.8467505],[-89.669413,37.7995317],[-89.6606172,37.7862017],[-89.668032,37.7595037],[-89.6633762,37.7499603],[-89.6168401,37.7494831],[-89.6017304,37.728091],[-89.5736856,37.7094393],[-89.5149712,37.6906283],[-89.5170558,37.6391112],[-89.4757574,37.5926364],[-89.4878279,37.580458],[-89.5196423,37.5827811],[-89.5168845,37.5368109],[-89.4858122,37.4849946],[-89.4377717,37.4337187],[-89.4208035,37.3856964],[-89.4337699,37.3460183],[-89.4902438,37.3322621],[-89.5119175,37.3110352],[-89.5207101,37.2836697],[-89.5005333,37.2517869],[-89.4585995,37.2483677],[-89.4676853,37.2201919],[-89.4614357,37.1976038],[-89.4238629,37.1362018],[-89.3791621,37.0954329],[-89.3756576,37.0806733],[-89.3854598,37.0560184],[-89.3804195,37.0410888],[-89.2802712,36.9881938],[-89.2636145,36.9991268],[-89.2582176,37.0196038],[-89.3055237,37.0486686],[-89.3077555,37.0697791],[-89.260537,37.0642794],[-89.2547823,37.0719614],[-89.2362424,37.039753],[-89.2005333,37.0160475],[-89.187378,36.9748162],[-89.1677729,36.9704635],[-89.1330128,36.9820008],[-89.178975,37.020928],[-89.181369,37.046305],[-89.1730858,37.0670969],[-89.111189,37.119052],[-89.086526,37.165602],[-89.041263,37.202881],[-89.000968,37.224401],[-88.9663559,37.2300973],[-88.9730011,37.2286648],[-88.931745,37.227593],[-88.86953,37.209711],[-88.797373,37.184854],[-88.732105,37.143956],[-88.693983,37.141155],[-88.625889,37.119458],[-88.5658748,37.0751977],[-88.4902138,37.0638061],[-88.4601887,37.0744723],[-88.4460491,37.0922741],[-88.4246176,37.1517268],[-88.4479309,37.20345],[-88.5118659,37.2620078],[-88.5038175,37.264846],[-88.5159409,37.284192],[-88.484462,37.345609],[-88.470224,37.396255],[-88.450127,37.411717],[-88.408808,37.425216],[-88.371214,37.40273],[-88.3580355,37.4032691],[-88.3097397,37.4395773],[-88.2839905,37.449799],[-88.0927575,37.4712015],[-88.0670941,37.4882977],[-88.062568,37.513563],[-88.069018,37.525297],[-88.139973,37.586451],[-88.160187,37.657592],[-88.122412,37.709685],[-88.059588,37.742608],[-88.0279522,37.7992415],[-88.0375147,37.80983],[-88.0689258,37.800987],[-88.090137,37.8169208],[-88.0829585,37.8304569],[-88.0450755,37.8213234],[-88.0258748,37.8331648],[-88.0651353,37.8532415],[-88.0972043,37.9023834],[-88.0880164,37.9061564],[-88.0651711,37.8939081],[-88.0209342,37.8880808],[-88.013516,37.8936961],[-88.0225399,37.9147417],[-88.0602908,37.9172003],[-88.0692256,37.9248913],[-88.0567862,37.9340666],[-88.0343835,37.9259552],[-88.0369344,37.9566457],[-88.0125237,37.9681598],[-88.025583,38.0082522],[-88.008095,38.0304392],[-88.0369771,38.0331054],[-88.0428323,38.0449613],[-87.9774598,38.0604111],[-87.9562541,38.0871392],[-87.9606548,38.100027],[-88.0109704,38.0844661],[-88.0155033,38.1007594],[-87.9757853,38.109392],[-87.9661922,38.1325375],[-87.94544,38.1265703],[-87.9109314,38.1624358],[-87.9211325,38.1740568],[-87.9255688,38.1593754],[-87.9343665,38.1564902],[-87.9376254,38.1725639],[-87.9764417,38.1984574],[-87.9844365,38.2107691],[-87.9801666,38.2424787],[-87.9880989,38.2572144],[-87.9725504,38.2508826],[-87.9643267,38.2340424],[-87.9578841,38.2501453],[-87.9413331,38.2573884],[-87.9524256,38.2704099],[-87.9356246,38.294669],[-87.9219943,38.3031406],[-87.9112502,38.2996769],[-87.9203031,38.2741716],[-87.9094702,38.2682832],[-87.8718388,38.3120465],[-87.8602567,38.304228],[-87.8631495,38.2784167],[-87.8417576,38.2794124],[-87.8312449,38.2977027],[-87.8331936,38.3226024],[-87.824439,38.3445884],[-87.806766,38.3627575],[-87.7787904,38.3716818],[-87.7449232,38.4108283],[-87.7414584,38.436013],[-87.730134,38.446518],[-87.7554652,38.4558098],[-87.75156,38.4692016],[-87.7415156,38.4785464],[-87.693188,38.488038],[-87.6726794,38.5070385],[-87.658844,38.5012411],[-87.6462007,38.5080795],[-87.6701045,38.5452957],[-87.650283,38.5567949],[-87.6517206,38.5675583],[-87.638247,38.576273],[-87.638393,38.5922],[-87.61196,38.589248],[-87.627348,38.60544],[-87.615585,38.625047],[-87.62012,38.639489],[-87.605817,38.646518],[-87.593678,38.667402],[-87.531231,38.684036],[-87.506172,38.733725],[-87.495799,38.740699],[-87.504046,38.748507],[-87.496906,38.766818],[-87.514861,38.770503],[-87.495509,38.784626],[-87.527342,38.818121],[-87.521681,38.826576],[-87.526729,38.850362],[-87.553394,38.86241],[-87.542642,38.865281],[-87.547064,38.875957],[-87.534919,38.878874],[-87.544089,38.895093],[-87.535955,38.886993],[-87.533695,38.900957],[-87.516831,38.903697],[-87.527645,38.907688],[-87.527715,38.919232],[-87.518826,38.923205],[-87.521765,38.941117],[-87.512187,38.954417],[-87.529496,38.971925],[-87.578319,38.988786],[-87.560427,38.992425],[-87.579117,39.001607],[-87.569696,39.019413],[-87.580373,39.040707],[-87.572588,39.057286],[-87.596373,39.079639],[-87.620258,39.086572],[-87.615684,39.103316],[-87.652796,39.106839],[-87.652083,39.115543],[-87.640761,39.114372],[-87.635019,39.122124],[-87.658745,39.135997],[-87.642175,39.157097],[-87.627713,39.154906],[-87.641549,39.160472],[-87.640434,39.166727],[-87.619618,39.170975],[-87.6204,39.185195],[-87.607879,39.184463],[-87.588614,39.197824],[-87.574558,39.218404],[-87.579319,39.243552],[-87.571586,39.252287],[-87.594684,39.248742],[-87.61005,39.282232],[-87.597946,39.299479],[-87.620589,39.307046],[-87.60592,39.311076],[-87.578331,39.340343],[-87.5544,39.340488],[-87.544013,39.352907],[-87.531646,39.347888],[-87.5233284,41.7603497],[-87.207774,41.760956],[-87.0199244,42.4935004],[-88.8040138,42.4920362],[-89.7094364,42.5053084],[-90.6409949,42.5079428],[-90.656527,42.489203],[-90.646727,42.471904],[-90.567968,42.440389],[-90.555018,42.416138],[-90.477279,42.383794],[-90.419027,42.328505],[-90.430884,42.27823],[-90.391108,42.225473],[-90.3554162,42.2052982],[-90.3304025,42.2019926],[-90.216107,42.15673],[-90.201404,42.130937],[-90.17097,42.125198],[-90.162895,42.116718],[-90.164485,42.042105],[-90.140061,42.003252],[-90.164135,41.956178],[-90.1496142,41.9148671],[-90.181901,41.843216],[-90.180954,41.809354],[-90.278633,41.767358],[-90.310708,41.742214],[-90.317668,41.72269],[-90.313435,41.698082],[-90.334525,41.679559],[-90.343452,41.646959],[-90.3425912,41.591308],[-90.4057619,41.5695773],[-90.461432,41.5235342],[-90.5555865,41.5245226],[-90.5957755,41.5107412],[-90.6088547,41.4914773],[-90.655839,41.462132],[-90.735791,41.4493187],[-90.846558,41.455141],[-90.930016,41.421404],[-90.979815,41.434321],[-91.04589,41.414085],[-91.05158,41.385283],[-91.06652,41.365246],[-91.074841,41.305578],[-91.092034,41.286911],[-91.113648,41.241401],[-91.07298,41.207151],[-91.041536,41.166138],[-90.99496,41.160624],[-90.946627,41.096632],[-90.942253,41.034702],[-90.958142,40.979767],[-90.952233,40.954047],[-90.962916,40.924957],[-91.009536,40.900565],[-91.05643,40.848387],[-91.092993,40.821079],[-91.091703,40.779708],[-91.110424,40.745528],[-91.11219,40.69558],[-91.123928,40.669152],[-91.18698,40.637297],[-91.253074,40.637962],[-91.3396162,40.6136199],[-91.405241,40.554641],[-91.404125,40.539127],[-91.384531,40.530948],[-91.364211,40.500043],[-91.381769,40.442555],[-91.372921,40.399108],[-91.384201,40.38643],[-91.415051,40.381747],[-91.444833,40.36317],[-91.46214,40.342414],[-91.492727,40.278217],[-91.490524,40.259498],[-91.505828,40.238839],[-91.5046387,40.1982699],[-91.5130518,40.1785449]]]}}]}