{"type":"FeatureCollection","features":[{"type":"Feature","properties":{"id":"in"},"geometry":{"type":"Polygon","coordinates":[[[-88.0972043,37.9023834],[-88.0651353,37.8532415],[-88.0258748,37.8331648],[-88.0450755,37.8213234],[-88.0856137,37.8294747],[-88.0911584,37.8188629],[-88.0767843,37.8047975],[-88.0635752,37.8004596],[-88.0346416,37.8092537],[-88.0279522,37.7992415],[-88.0013454,37.7989144],[-87.9509343,37.7717843],[-87.9341345,37.796421],[-87.9042995,37.8126513],[-87.9099721,37.8430357],[-87.9368853,37.8687233],[-87.9407472,37.8845073],[-87.8968974,37.9278645],[-87.8750308,37.9228714],[-87.8297781,37.8764325],[-87.7914344,37.8756679],[-87.7592445,37.8916689],[-87.6750166,37.90165],[-87.6640381,37.8874842],[-87.6816794,37.8562023],[-87.6737686,37.8296301],[-87.6138839,37.8326808],[-87.5902768,37.8585944],[-87.5837433,37.8780874],[-87.6203714,37.907372],[-87.6271232,37.9257131],[-87.6058186,37.9496186],[-87.6013967,37.971313],[-87.5874132,37.9752832],[-87.5755256,37.9670032],[-87.5775159,37.9516686],[-87.5609015,37.93212],[-87.5105254,37.9060785],[-87.4491367,37.9418611],[-87.4141397,37.9447794],[-87.3863044,37.9378649],[-87.220944,37.849134],[-87.162319,37.840159],[-87.1360013,37.8071373],[-87.1309373,37.7880116],[-87.111133,37.782512],[-87.0883478,37.7888928],[-87.067836,37.806065],[-87.043854,37.870796],[-87.045101,37.893775],[-87.033444,37.906593],[-86.969044,37.932858],[-86.919329,37.936664],[-86.85595,37.987292],[-86.820071,37.999392],[-86.794985,37.988982],[-86.765054,37.93251],[-86.73146,37.89434],[-86.716138,37.894073],[-86.680929,37.91501],[-86.647081,37.908621],[-86.644754,37.894806],[-86.6615755,37.8494228],[-86.638265,37.842718],[-86.598108,37.867382],[-86.599848,37.906754],[-86.588581,37.921159],[-86.534156,37.917007],[-86.50662,37.930719],[-86.525174,37.968228],[-86.521825,38.038327],[-86.452192,38.05049],[-86.4313519,38.0733392],[-86.4334569,38.0857841],[-86.463858,38.101177],[-86.4629338,38.1194263],[-86.431749,38.126121],[-86.4014075,38.1050399],[-86.379775,38.129274],[-86.335145,38.129242],[-86.323453,38.139032],[-86.327439,38.1562359],[-86.3732726,38.1680037],[-86.3754612,38.1874101],[-86.3610631,38.1967278],[-86.287773,38.15805],[-86.271802,38.137874],[-86.27872,38.089303],[-86.261273,38.052721],[-86.178983,38.011308],[-86.1231059,38.0158504],[-86.0946627,38.0086411],[-86.0761203,37.996853],[-86.052228,37.9621263],[-86.0397055,37.9592326],[-86.0283106,37.9932227],[-85.9470644,38.0050787],[-85.9250038,38.0225913],[-85.9050482,38.0900734],[-85.9064,38.1672112],[-85.8846848,38.1986],[-85.8432715,38.2323687],[-85.8291931,38.2765504],[-85.7809767,38.288292],[-85.7421415,38.2673516],[-85.6795066,38.2978552],[-85.6516545,38.3300966],[-85.631656,38.3987742],[-85.6067651,38.4386856],[-85.5812304,38.4513572],[-85.5249684,38.4575409],[-85.499305,38.4679915],[-85.4668181,38.5102489],[-85.4195683,38.5350275],[-85.415663,38.5631198],[-85.4382365,38.6046842],[-85.4385369,38.6589601],[-85.4569047,38.6885113],[-85.4518407,38.7101978],[-85.4360907,38.7284965],[-85.4148906,38.7367653],[-85.3636032,38.7303718],[-85.2767031,38.7413513],[-85.2469199,38.7319448],[-85.2148192,38.6962489],[-85.1729821,38.6880693],[-85.1368045,38.7001025],[-85.1017212,38.7265064],[-84.9922871,38.7781474],[-84.9412071,38.7756465],[-84.8872411,38.7947981],[-84.8135018,38.7853985],[-84.8299276,38.8303695],[-84.790939,38.8605682],[-84.7851776,38.8800143],[-84.8133086,38.89523],[-84.8664271,38.898712],[-84.8770234,38.9090092],[-84.8770556,38.9214725],[-84.8336253,38.9594334],[-84.8300311,38.9730473],[-84.8973868,39.0554755],[-84.8199343,39.105441],[-84.8035819,40.3102536],[-84.805883,41.760216],[-87.5233284,41.7603497],[-87.531646,39.347888],[-87.544013,39.352907],[-87.5544,39.340488],[-87.578331,39.340343],[-87.60592,39.311076],[-87.620589,39.307046],[-87.597946,39.299479],[-87.61005,39.282232],[-87.594684,39.248742],[-87.571586,39.252287],[-87.579319,39.243552],[-87.574558,39.218404],[-87.588614,39.197824],[-87.607879,39.184463],[-87.6204,39.185195],[-87.619618,39.170975],[-87.640434,39.166727],[-87.641549,39.160472],[-87.627713,39.154906],[-87.642175,39.157097],[-87.658745,39.135997],[-87.635019,39.122124],[-87.640761,39.114372],[-87.652083,39.115543],[-87.652796,39.106839],[-87.615684,39.103316],[-87.620258,39.086572],[-87.596373,39.079639],[-87.572588,39.057286],[-87.580373,39.040707],[-87.569696,39.019413],[-87.579117,39.001607],[-87.560427,38.992425],[-87.578319,38.988786],[-87.529496,38.971925],[-87.512187,38.954417],[-87.521765,38.941117],[-87.518826,38.923205],[-87.527715,38.919232],[-87.527645,38.907688],[-87.516831,38.903697],[-87.533695,38.900957],[-87.535955,38.886993],[-87.544089,38.895093],[-87.534919,38.878874],[-87.547064,38.875957],[-87.542642,38.865281],[-87.553394,38.86241],[-87.526729,38.850362],[-87.521681,38.826576],[-87.527342,38.818121],[-87.495509,38.784626],[-87.514861,38.770503],[-87.496906,38.766818],[-87.504046,38.748507],[-87.495799,38.740699],[-87.506172,38.733725],[-87.531231,38.684036],[-87.593678,38.667402],[-87.605817,38.646518],[-87.62012,38.639489],[-87.615585,38.625047],[-87.627348,38.60544],[-87.61196,38.589248],[-87.638393,38.5922],[-87.638247,38.576273],[-87.6517206,38.5675583],[-87.650283,38.5567949],[-87.6701045,38.5452957],[-87.6462007,38.5080795],[-87.658844,38.5012411],[-87.6726794,38.5070385],[-87.693188,38.488038],[-87.7415156,38.4785464],[-87.75156,38.4692016],[-87.7554652,38.4558098],[-87.730134,38.446518],[-87.7414584,38.436013],[-87.7449232,38.4108283],[-87.7787904,38.3716818],[-87.806766,38.3627575],[-87.824439,38.3445884],[-87.8331936,38.3226024],[-87.8312449,38.2977027],[-87.8417576,38.2794124],[-87.8631495,38.2784167],[-87.8602567,38.304228],[-87.8718388,38.3120465],[-87.9094702,38.2682832],[-87.9203031,38.2741716],[-87.9112502,38.2996769],[-87.9219943,38.3031406],[-87.9356246,38.294669],[-87.9524256,38.2704099],[-87.9413331,38.2573884],[-87.9578841,38.2501453],[-87.9643267,38.2340424],[-87.9725504,38.2508826],[-87.9880989,38.2572144],[-87.9801666,38.2424787],[-87.9844365,38.2107691],[-87.9764417,38.1984574],[-87.9376254,38.1725639],[-87.9343665,38.1564902],[-87.9255688,38.1593754],[-87.9211325,38.1740568],[-87.9109314,38.1624358],[-87.94544,38.1265703],[-87.9661922,38.1325375],[-87.9757853,38.109392],[-88.0155033,38.1007594],[-88.00723,38.0838771],[-87.9600603,38.0999825],[-87.9563511,38.0864305],[-87.9680282,38.0662835],[-87.9919948,38.0539721],[-88.0425775,38.045662],[-88.0369771,38.0331054],[-88.008095,38.0304392],[-88.025583,38.0082522],[-88.0125237,37.9681598],[-88.0369344,37.9566457],[-88.0343835,37.9259552],[-88.0567862,37.9340666],[-88.0692256,37.9248913],[-88.0602908,37.9172003],[-88.020975,37.9137956],[-88.0145482,37.891609],[-88.0532583,37.8914677],[-88.0863655,37.9057591],[-88.0972043,37.9023834]]]}}]}