{"type":"FeatureCollection","features":[{"type":"Feature","properties":{"id":"ks"},"geometry":{"type":"Polygon","coordinates":[[[-102.0517919,40.0032291],[-102.042132,36.9930715],[-100.0894928,37.0022994],[-94.6179515,36.9985962],[-94.608066,39.1174771],[-94.5882049,39.1497871],[-94.6093411,39.1611431],[-94.6534342,39.1547694],[-94.6611815,39.161346],[-94.6616454,39.1776095],[-94.6783084,39.1844195],[-94.7142054,39.1706536],[-94.7408454,39.1702376],[-94.7639382,39.1803227],[-94.7826686,39.2064598],[-94.8265139,39.2122098],[-94.8346867,39.2209376],[-94.8259734,39.2422631],[-94.8320592,39.2573292],[-94.8848128,39.2846981],[-94.9061808,39.3139717],[-94.9098851,39.3529551],[-94.881809,39.370432],[-94.8839939,39.3876148],[-94.8959521,39.3936032],[-94.9225833,39.3845479],[-94.9400096,39.3877921],[-94.9488969,39.4095296],[-94.972171,39.4205144],[-94.9874162,39.4448791],[-95.0415946,39.4671547],[-95.0545391,39.5024344],[-95.0886584,39.5207382],[-95.1105178,39.5445876],[-95.1128144,39.561771],[-95.1036069,39.577718],[-95.0651632,39.5764303],[-95.0502236,39.5880404],[-95.0469819,39.6052165],[-95.0548922,39.6275338],[-95.0274233,39.6657624],[-94.9731288,39.6845399],[-94.9707322,39.7320451],[-94.9627021,39.7419059],[-94.9445256,39.7448256],[-94.8957227,39.72405],[-94.8618595,39.7420974],[-94.8588716,39.758513],[-94.8709975,39.7738616],[-94.9107475,39.7574859],[-94.9364285,39.7752389],[-94.9283987,39.7892259],[-94.8831238,39.7954829],[-94.8761594,39.8165713],[-94.886933,39.833098],[-94.916918,39.836138],[-94.939767,39.85193],[-94.942407,39.861066],[-94.927359,39.883966],[-94.943867,39.89813],[-95.0151961,39.8994094],[-95.0243466,39.8918637],[-95.0273968,39.8721835],[-95.0416517,39.8646825],[-95.0821337,39.8616746],[-95.1283106,39.8734667],[-95.1407561,39.8822929],[-95.147365,39.9050778],[-95.1852164,39.8998103],[-95.2027261,39.905196],[-95.2051291,39.9390436],[-95.2480444,39.9475982],[-95.269073,39.9690458],[-95.3052077,39.9867383],[-95.3080545,40.0000001],[-102.0517919,40.0032291]]]}}]}