{"type":"FeatureCollection","features":[{"type":"Feature","properties":{"id":"ky"},"geometry":{"type":"MultiPolygon","coordinates":[[[[-89.571509,36.552569],[-89.539232,36.497934],[-89.485427,36.497491],[-89.465888,36.529946],[-89.479093,36.568206],[-89.500076,36.576305],[-89.546113,36.579989],[-89.571509,36.552569]]],[[[-89.41822,36.499029],[-89.301022,36.507233],[-88.0533223,36.497118],[-88.037822,36.51385],[-88.032489,36.540662],[-88.070532,36.678118],[-87.8504528,36.6650968],[-87.8535427,36.6350732],[-86.589906,36.652486],[-86.56388,36.6335536],[-86.550054,36.644817],[-86.543777,36.640536],[-86.507771,36.652445],[-85.677789,36.618157],[-85.488353,36.614994],[-85.195372,36.625498],[-84.543138,36.596277],[-83.690714,36.582581],[-83.648314,36.622683],[-83.577312,36.641784],[-83.529612,36.666184],[-83.4248145,36.6673015],[-83.3094021,36.710701],[-83.1946027,36.7394301],[-83.1351114,36.7425508],[-83.1255221,36.7615825],[-83.1324713,36.7642628],[-83.1331616,36.7845165],[-83.1043711,36.8039387],[-83.0983703,36.8135235],[-83.1021953,36.827974],[-83.0751937,36.8407346],[-83.0727071,36.8545314],[-83.0266861,36.8555657],[-83.0077171,36.8474443],[-82.9984689,36.8566003],[-82.908114,36.874642],[-82.8787506,36.8893576],[-82.867978,36.900048],[-82.877379,36.908471],[-82.857665,36.928669],[-82.8623,36.941338],[-82.855735,36.953818],[-82.870108,36.964978],[-82.867467,36.978049],[-82.837275,36.98728],[-82.82872,37.005798],[-82.782863,37.007821],[-82.759479,37.027255],[-82.747862,37.024425],[-82.742759,37.042796],[-82.722433,37.044949],[-82.726737,37.073039],[-82.716655,37.077406],[-82.725017,37.091822],[-82.721413,37.12083],[-82.633381,37.154418],[-82.592256,37.183039],[-82.498755,37.227029],[-82.349064,37.267942],[-82.343841,37.280739],[-82.324725,37.283042],[-81.9645413,37.5432531],[-81.975081,37.5465727],[-81.9944913,37.5379451],[-81.9983966,37.543347],[-82.0118592,37.5331422],[-82.0427788,37.5480888],[-82.0467676,37.5281551],[-82.0498895,37.5353053],[-82.0637366,37.5361757],[-82.07503,37.555824],[-82.102893,37.553046],[-82.103127,37.560097],[-82.116584,37.559588],[-82.133299,37.552996],[-82.144648,37.568315],[-82.127303,37.572681],[-82.127321,37.586667],[-82.131977,37.593537],[-82.156718,37.59279],[-82.156741,37.609202],[-82.169057,37.609869],[-82.164191,37.620192],[-82.18143,37.621842],[-82.172446,37.632589],[-82.175264,37.647971],[-82.191444,37.644378],[-82.187298,37.626935],[-82.21349,37.625408],[-82.216691,37.641329],[-82.23939,37.661465],[-82.257111,37.656749],[-82.282297,37.675826],[-82.288174,37.668227],[-82.294737,37.678277],[-82.303953,37.67576],[-82.296634,37.702403],[-82.333581,37.743283],[-82.311642,37.764294],[-82.331162,37.763125],[-82.323696,37.775028],[-82.337596,37.775369],[-82.339705,37.785509],[-82.377393,37.803009],[-82.386586,37.818212],[-82.401652,37.810091],[-82.39968,37.829935],[-82.420207,37.846425],[-82.414651,37.85626],[-82.424264,37.861709],[-82.407459,37.867475],[-82.417679,37.870658],[-82.419781,37.883821],[-82.462881,37.914832],[-82.474574,37.900295],[-82.475534,37.912038],[-82.488191,37.9180688],[-82.4804681,37.9262598],[-82.4993636,37.9293729],[-82.5012693,37.9356218],[-82.489045,37.938718],[-82.4978001,37.9454949],[-82.48512,37.946044],[-82.471801,37.959119],[-82.484265,37.963646],[-82.483836,37.971566],[-82.46938,37.973059],[-82.464257,37.983412],[-82.483871,37.984505],[-82.487732,37.99833],[-82.5173512,38.0012039],[-82.551259,38.070799],[-82.584039,38.090663],[-82.587782,38.108879],[-82.620351,38.121477],[-82.622125,38.133414],[-82.637306,38.13905],[-82.644739,38.165487],[-82.611343,38.171548],[-82.598437,38.217393],[-82.612216,38.236297],[-82.604625,38.247662],[-82.584001,38.246371],[-82.574656,38.263873],[-82.583056,38.296829],[-82.572691,38.318801],[-82.597979,38.344909],[-82.5934207,38.4218619],[-82.604089,38.459841],[-82.613802,38.474529],[-82.657051,38.496816],[-82.700045,38.544336],[-82.730958,38.559264],[-82.789776,38.559951],[-82.841954,38.588271],[-82.854291,38.613454],[-82.8593598,38.659487],[-82.8771987,38.6885137],[-82.869862,38.7276817],[-82.879882,38.7516661],[-82.8937865,38.7565188],[-82.9198952,38.7511473],[-82.9715706,38.7271464],[-83.0279828,38.7270878],[-83.0621327,38.6896727],[-83.1124724,38.6715819],[-83.1349493,38.6317241],[-83.1507529,38.6200567],[-83.2031847,38.6167036],[-83.246497,38.6284638],[-83.292823,38.5966129],[-83.3117487,38.6032536],[-83.3271982,38.6372528],[-83.3582046,38.6549669],[-83.4679606,38.6751727],[-83.4923579,38.6937483],[-83.5206177,38.7029589],[-83.6248805,38.6791261],[-83.6359956,38.6685386],[-83.6483338,38.6318724],[-83.6686327,38.6264077],[-83.769754,38.6554041],[-83.7866068,38.6988058],[-83.8364101,38.7173418],[-83.852085,38.751433],[-83.873168,38.762418],[-83.9263607,38.7712814],[-83.962195,38.7874403],[-84.0707461,38.7702642],[-84.212904,38.805707],[-84.2319801,38.8327618],[-84.2340133,38.8912915],[-84.2886849,38.9556029],[-84.3060175,39.0076679],[-84.3408853,39.0350143],[-84.4265175,39.0532162],[-84.4349504,39.0997745],[-84.4517088,39.1187554],[-84.4759131,39.1197709],[-84.5110307,39.0936629],[-84.5509613,39.0994914],[-84.5730627,39.0819127],[-84.6184457,39.0732675],[-84.6599255,39.0961367],[-84.6859301,39.1007653],[-84.718256,39.1368159],[-84.7513867,39.1475251],[-84.7874034,39.1154425],[-84.8324773,39.1003588],[-84.8972902,39.0574667],[-84.8300311,38.9730473],[-84.8336253,38.9594334],[-84.8770556,38.9214725],[-84.8770234,38.9090092],[-84.8664271,38.898712],[-84.8133086,38.89523],[-84.7851776,38.8800143],[-84.790939,38.8605682],[-84.8299276,38.8303695],[-84.8135018,38.7853985],[-84.8872411,38.7947981],[-84.9412071,38.7756465],[-84.9922871,38.7781474],[-85.1017212,38.7265064],[-85.1368045,38.7001025],[-85.1729821,38.6880693],[-85.2148192,38.6962489],[-85.2469199,38.7319448],[-85.2767031,38.7413513],[-85.3636032,38.7303718],[-85.4148906,38.7367653],[-85.4360907,38.7284965],[-85.4518407,38.7101978],[-85.4569047,38.6885113],[-85.4385369,38.6589601],[-85.4382365,38.6046842],[-85.415663,38.5631198],[-85.4195683,38.5350275],[-85.4668181,38.5102489],[-85.499305,38.4679915],[-85.5249684,38.4575409],[-85.5812304,38.4513572],[-85.6067651,38.4386856],[-85.631656,38.3987742],[-85.6516545,38.3300966],[-85.6795066,38.2978552],[-85.7421415,38.2673516],[-85.7809767,38.288292],[-85.8291931,38.2765504],[-85.8432715,38.2323687],[-85.8846848,38.1986],[-85.9064,38.1672112],[-85.9050482,38.0900734],[-85.9250038,38.0225913],[-85.9470644,38.0050787],[-86.0283106,37.9932227],[-86.0397055,37.9592326],[-86.052228,37.9621263],[-86.0761203,37.996853],[-86.0946627,38.0086411],[-86.1231059,38.0158504],[-86.178983,38.011308],[-86.261273,38.052721],[-86.27872,38.089303],[-86.271802,38.137874],[-86.287773,38.15805],[-86.3610631,38.1967278],[-86.3754612,38.1874101],[-86.3732726,38.1680037],[-86.327439,38.1562359],[-86.323453,38.139032],[-86.335145,38.129242],[-86.379775,38.129274],[-86.4014075,38.1050399],[-86.431749,38.126121],[-86.4629338,38.1194263],[-86.463858,38.101177],[-86.4334569,38.0857841],[-86.4313519,38.0733392],[-86.452192,38.05049],[-86.521825,38.038327],[-86.525174,37.968228],[-86.50662,37.930719],[-86.534156,37.917007],[-86.588581,37.921159],[-86.599848,37.906754],[-86.598108,37.867382],[-86.638265,37.842718],[-86.6615755,37.8494228],[-86.644754,37.894806],[-86.647081,37.908621],[-86.680929,37.91501],[-86.716138,37.894073],[-86.73146,37.89434],[-86.765054,37.93251],[-86.794985,37.988982],[-86.820071,37.999392],[-86.85595,37.987292],[-86.919329,37.936664],[-86.969044,37.932858],[-87.033444,37.906593],[-87.045101,37.893775],[-87.043854,37.870796],[-87.067836,37.806065],[-87.0883478,37.7888928],[-87.111133,37.782512],[-87.1309373,37.7880116],[-87.1360013,37.8071373],[-87.162319,37.840159],[-87.220944,37.849134],[-87.2986607,37.8961409],[-87.4119968,37.9445103],[-87.4491367,37.9418611],[-87.5105254,37.9060785],[-87.5560499,37.9281751],[-87.5775159,37.9516686],[-87.5778146,37.9702049],[-87.5977696,37.9739038],[-87.627322,37.9204092],[-87.6196667,37.9066742],[-87.5871472,37.884866],[-87.5839304,37.8724927],[-87.6124514,37.8336156],[-87.6441659,37.826196],[-87.6703493,37.8279687],[-87.6794159,37.8365323],[-87.6815936,37.8565592],[-87.6640381,37.8874842],[-87.6750166,37.90165],[-87.7592445,37.8916689],[-87.7914344,37.8756679],[-87.8297781,37.8764325],[-87.8750308,37.9228714],[-87.9039735,37.9254879],[-87.9381688,37.891067],[-87.9409821,37.87948],[-87.9099721,37.8430357],[-87.9071357,37.8073005],[-87.9341345,37.796421],[-87.9518454,37.7717018],[-88.0013454,37.7989144],[-88.0279522,37.7992415],[-88.059588,37.742608],[-88.122412,37.709685],[-88.159372,37.661847],[-88.156827,37.632801],[-88.1331642,37.5743593],[-88.063311,37.515755],[-88.072244,37.4819637],[-88.0927575,37.4712015],[-88.2839905,37.449799],[-88.365471,37.401663],[-88.413108,37.424468],[-88.456,37.408482],[-88.476592,37.386875],[-88.484462,37.345609],[-88.5159409,37.284192],[-88.5038175,37.264846],[-88.5118659,37.2620078],[-88.4479309,37.20345],[-88.4246176,37.1517268],[-88.4460491,37.0922741],[-88.4601887,37.0744723],[-88.4902138,37.0638061],[-88.5658748,37.0751977],[-88.625889,37.119458],[-88.693983,37.141155],[-88.732105,37.143956],[-88.80572,37.188595],[-88.931745,37.227593],[-89.000968,37.224401],[-89.029981,37.211144],[-89.086526,37.165602],[-89.111189,37.119052],[-89.154504,37.088907],[-89.181369,37.046305],[-89.17112,37.008072],[-89.1330128,36.9820008],[-89.11503,36.980335],[-89.099007,36.961389],[-89.117567,36.887356],[-89.137969,36.847349],[-89.1704,36.841522],[-89.178888,36.831368],[-89.171069,36.798119],[-89.12353,36.785309],[-89.116067,36.772423],[-89.119198,36.759802],[-89.130399,36.751702],[-89.169106,36.759473],[-89.184523,36.753638],[-89.199798,36.734217],[-89.19948,36.716045],[-89.169522,36.688878],[-89.171882,36.672526],[-89.15908,36.666352],[-89.197654,36.628936],[-89.213563,36.580119],[-89.236542,36.566824],[-89.27171,36.571387],[-89.3247212,36.6310753],[-89.365548,36.625059],[-89.376367,36.613868],[-89.41822,36.499029]]]]}}]}