{"type":"FeatureCollection","features":[{"type":"Feature","properties":{"id":"la"},"geometry":{"type":"Polygon","coordinates":[[[-94.0429641,33.0192302],[-94.0421928,31.9933661],[-94.017847,31.9923456],[-94.0162436,31.9800508],[-93.9740294,31.9222219],[-93.9606398,31.9236061],[-93.9533871,31.9105378],[-93.9279705,31.9122045],[-93.921869,31.903731],[-93.9326958,31.8928119],[-93.9246788,31.8942548],[-93.9240858,31.8866343],[-93.9004628,31.8965708],[-93.9018485,31.87441],[-93.8825365,31.8686333],[-93.8898963,31.8565295],[-93.8734263,31.8365194],[-93.8736608,31.8153235],[-93.8511178,31.7998635],[-93.8395108,31.8002178],[-93.8373223,31.7801818],[-93.8227061,31.7740467],[-93.8367491,31.7488375],[-93.8151956,31.7294447],[-93.8167925,31.7077744],[-93.7944536,31.7036687],[-93.8163385,31.6752745],[-93.8124199,31.670111],[-93.8217737,31.6738569],[-93.826462,31.666919],[-93.811455,31.6475317],[-93.8182104,31.6474449],[-93.8162255,31.6224709],[-93.8268397,31.6207109],[-93.819015,31.6149518],[-93.8277658,31.6169074],[-93.838917,31.6052482],[-93.8347487,31.5861187],[-93.8182855,31.5710494],[-93.818346,31.5546157],[-93.7873221,31.5273183],[-93.7595558,31.5240168],[-93.7475717,31.5306105],[-93.7424755,31.5154563],[-93.7109757,31.511816],[-93.7283778,31.4884524],[-93.7524533,31.4824962],[-93.7454045,31.4801539],[-93.749857,31.4693474],[-93.7233889,31.4537806],[-93.7039483,31.4555286],[-93.7095487,31.4416437],[-93.6919105,31.4388061],[-93.7048066,31.4105257],[-93.6743742,31.3977468],[-93.6710526,31.3661799],[-93.6391568,31.3720693],[-93.6455222,31.3591264],[-93.6687255,31.3526474],[-93.6739563,31.3238087],[-93.6871087,31.305024],[-93.6690581,31.2981256],[-93.659209,31.281861],[-93.6484909,31.2838507],[-93.6425257,31.2696102],[-93.6206067,31.271105],[-93.6140728,31.2596599],[-93.6216366,31.2492316],[-93.618021,31.2326008],[-93.5964158,31.2297382],[-93.6072278,31.204864],[-93.6005759,31.1768713],[-93.589255,31.1660646],[-93.5503446,31.1866168],[-93.5325451,31.183541],[-93.5327411,31.1745304],[-93.5432206,31.1706098],[-93.5364405,31.1584039],[-93.5488662,31.1504686],[-93.5392716,31.1146586],[-93.557908,31.0954898],[-93.5485241,31.0900328],[-93.552235,31.0786409],[-93.527374,31.0738495],[-93.5193255,31.0644434],[-93.5322724,31.0545442],[-93.5189283,31.0430871],[-93.5245638,31.0377231],[-93.5078656,31.0319267],[-93.5340258,31.0189045],[-93.5404023,31.0078363],[-93.5555921,31.0037191],[-93.5669728,31.0133324],[-93.5778272,30.9997156],[-93.5637317,30.9890184],[-93.5733648,30.9707276],[-93.5313719,30.9581574],[-93.5259792,30.9376537],[-93.532129,30.9243416],[-93.5434748,30.920121],[-93.5474667,30.9264758],[-93.5588738,30.9131059],[-93.549226,30.8966522],[-93.5681134,30.8938469],[-93.5746507,30.8847997],[-93.5585853,30.866951],[-93.5573938,30.8521842],[-93.568837,30.8434613],[-93.5525939,30.8352206],[-93.555337,30.8219563],[-93.5638185,30.8185931],[-93.5629502,30.8060752],[-93.5846779,30.8014734],[-93.5813494,30.7901346],[-93.5887426,30.784249],[-93.582649,30.7779386],[-93.5921827,30.7762203],[-93.5915507,30.7644257],[-93.6125968,30.7542353],[-93.6087814,30.7452725],[-93.6191417,30.7412025],[-93.6086323,30.7305398],[-93.6180448,30.7287288],[-93.6208256,30.6923818],[-93.6308652,30.6780585],[-93.649278,30.6672338],[-93.6547592,30.6708481],[-93.6826895,30.6422415],[-93.6812552,30.6201592],[-93.6889634,30.610894],[-93.6787799,30.5937103],[-93.6862808,30.5855516],[-93.6935565,30.5945443],[-93.7136666,30.5884778],[-93.7154973,30.5784486],[-93.7281042,30.5739126],[-93.7284295,30.5453018],[-93.7400002,30.5399721],[-93.7050334,30.5116301],[-93.7167964,30.495976],[-93.7095187,30.4831387],[-93.717182,30.4836397],[-93.6990192,30.4582376],[-93.7074026,30.456545],[-93.7025954,30.4493385],[-93.7077234,30.4449239],[-93.6972928,30.4423979],[-93.7025073,30.4297303],[-93.7126886,30.4333832],[-93.7185561,30.4223933],[-93.725562,30.4313796],[-93.7222556,30.4198563],[-93.7583872,30.3900309],[-93.7552813,30.3655362],[-93.7597453,30.3694629],[-93.7508716,30.3595709],[-93.76279,30.3533383],[-93.7596785,30.3415868],[-93.7663364,30.3437984],[-93.7584501,30.3388114],[-93.7660903,30.3327019],[-93.7553384,30.3313898],[-93.7427258,30.3011947],[-93.715011,30.2958076],[-93.7125975,30.2874261],[-93.7048638,30.290978],[-93.7088468,30.2653745],[-93.7026262,30.2605353],[-93.7105725,30.2455058],[-93.7031008,30.2385081],[-93.7094474,30.2385262],[-93.7044234,30.233816],[-93.7110243,30.2352637],[-93.7211311,30.2094228],[-93.7141021,30.2085663],[-93.7176831,30.1934595],[-93.7109885,30.1798613],[-93.7000193,30.1748153],[-93.7095024,30.1468135],[-93.6975809,30.1529259],[-93.6884273,30.1411219],[-93.7014092,30.1374477],[-93.7005925,30.1236374],[-93.7078017,30.1208139],[-93.7027294,30.1125976],[-93.7232311,30.0956684],[-93.7241195,30.0827174],[-93.7339858,30.0870304],[-93.7019981,30.066499],[-93.7000024,30.0581003],[-93.7104411,30.0552326],[-93.7185146,30.0658809],[-93.7411352,30.0228111],[-93.8029379,29.9754387],[-93.81807,29.9181136],[-93.8394368,29.8827212],[-93.9059038,29.8384398],[-93.9267407,29.8121547],[-93.9252251,29.7879391],[-93.8909471,29.7641362],[-93.8912408,29.7455896],[-93.8704129,29.7357394],[-93.8366978,29.6877644],[-93.811849,29.5954329],[-93.7876833,29.6053823],[-93.7712668,29.6231891],[-93.7656038,29.6439854],[-93.7702546,29.6710368],[-93.7255324,29.6877116],[-93.4652747,29.7190262],[-93.3883095,29.7141692],[-93.3636441,29.6987955],[-93.3343613,29.6957344],[-93.3065757,29.7046488],[-93.287523,29.7245137],[-93.2536173,29.728061],[-93.1869346,29.7209306],[-93.029702,29.678079],[-92.7597019,29.5677306],[-92.6214051,29.5279513],[-92.2876732,29.4821301],[-92.2340018,29.491258],[-92.1454972,29.5326433],[-92.0781496,29.5318159],[-92.0457347,29.5060083],[-92.0238924,29.4713902],[-91.9839858,29.4609759],[-91.9624258,29.4382863],[-91.9128595,29.420181],[-91.9049375,29.3850015],[-91.8768929,29.362897],[-91.8344149,29.3622509],[-91.7776814,29.3965891],[-91.7134145,29.3611228],[-91.6442981,29.3759555],[-91.5602328,29.3454299],[-91.529777,29.3446022],[-91.4211193,29.3030914],[-91.3219602,29.211463],[-91.2900126,29.1952219],[-91.2138377,29.1726282],[-91.1490818,29.166133],[-91.1057024,29.1390824],[-91.0181747,29.121769],[-90.9752611,29.1218716],[-90.9605785,29.1111972],[-90.9894662,29.1067864],[-91.0113668,29.0917096],[-91.0226023,29.0690548],[-91.0199221,29.0438522],[-90.9906168,29.0136012],[-90.9198894,28.9923572],[-90.7476428,28.9888127],[-90.5502843,29.0346486],[-90.4922886,29.0103534],[-90.4190349,28.9951131],[-90.3410119,29.0039287],[-90.2391023,29.033201],[-90.2083142,29.0338518],[-90.1572406,29.0537672],[-90.0336952,29.1352528],[-89.6053497,29.1993523],[-89.5113363,29.1698655],[-89.4692678,29.1080828],[-89.46572,28.9756069],[-89.4893019,28.9259484],[-89.4919149,28.9016138],[-89.465248,28.8652442],[-89.4256165,28.8544174],[-89.3869333,28.8700529],[-89.2799848,28.9780107],[-89.2351232,28.9871025],[-89.2096171,28.9703167],[-89.2005719,28.9456241],[-89.1797099,28.9274979],[-89.1462369,28.9192799],[-89.1156675,28.9266287],[-89.0458266,29.0071419],[-89.0133442,29.0277325],[-88.9971138,29.0851647],[-88.9466391,29.1036249],[-88.9226855,29.1242149],[-88.9086655,29.2063781],[-88.9173457,29.2349106],[-88.942586,29.2541157],[-89.0694869,29.2944328],[-89.0912286,29.3258753],[-89.112802,29.3398424],[-89.1191064,29.3605454],[-89.1376378,29.3818974],[-89.1424469,29.4299999],[-89.1196854,29.4585208],[-89.0448897,29.4867077],[-88.960815,29.5771118],[-88.9124983,29.6125962],[-88.8140274,29.7291063],[-88.7765111,29.8111791],[-88.7606212,29.8818188],[-88.761983,29.9583205],[-88.7830136,30.0249025],[-88.8343286,30.0907107],[-88.8586421,30.143683],[-89.096476,30.165829],[-89.183669,30.212155],[-89.260977,30.181998],[-89.416711,30.177639],[-89.494973,30.16075],[-89.51477,30.1617249],[-89.5341327,30.1949202],[-89.5687315,30.1805995],[-89.5820546,30.1877414],[-89.597761,30.213061],[-89.6156437,30.2231729],[-89.6141563,30.2445399],[-89.6317612,30.2570251],[-89.6251591,30.264295],[-89.6323184,30.2684393],[-89.6312108,30.2795299],[-89.647396,30.2896524],[-89.6405155,30.3067674],[-89.6260477,30.3142617],[-89.6338736,30.3213301],[-89.629568,30.3390661],[-89.6571542,30.3565228],[-89.6599863,30.3733065],[-89.6839475,30.4061739],[-89.6773739,30.418162],[-89.6834498,30.4516788],[-89.7057726,30.4650498],[-89.7247929,30.492138],[-89.7471926,30.4926637],[-89.7466803,30.5028548],[-89.757348,30.4994148],[-89.7573303,30.5183757],[-89.767968,30.5133112],[-89.7791444,30.5440543],[-89.788578,30.5444396],[-89.799723,30.5470557],[-89.8039186,30.5495446],[-89.7922687,30.5482028],[-89.8040885,30.5603251],[-89.79177,30.5625484],[-89.78692,30.5691486],[-89.8078427,30.5678131],[-89.815735,30.5857766],[-89.8100429,30.5845621],[-89.8072388,30.5873781],[-89.8224717,30.6046461],[-89.8139204,30.6076842],[-89.8231298,30.6079653],[-89.8215315,30.6199511],[-89.830745,30.6173642],[-89.8137269,30.6378459],[-89.8231536,30.6392638],[-89.8205402,30.6461127],[-89.8330222,30.6572654],[-89.8404763,30.6519676],[-89.8404923,30.6606659],[-89.8522164,30.6618607],[-89.8377962,30.6717754],[-89.847023,30.6695976],[-89.8353204,30.6915641],[-89.838065,30.7039991],[-89.8467342,30.7051935],[-89.8425002,30.7205639],[-89.8308359,30.7154681],[-89.8255643,30.7273204],[-89.8364109,30.7271493],[-89.8275971,30.7319985],[-89.83687,30.7346241],[-89.8159133,30.7383932],[-89.8286984,30.737893],[-89.8223311,30.7543243],[-89.8333958,30.7534039],[-89.8255936,30.7579415],[-89.8352596,30.7707518],[-89.8287692,30.7685216],[-89.8297981,30.7818829],[-89.8194503,30.7832016],[-89.8177003,30.7960961],[-89.8121882,30.7872885],[-89.8032416,30.7913475],[-89.815705,30.8035285],[-89.8046385,30.8023578],[-89.7986749,30.8207953],[-89.781444,30.8186906],[-89.7924112,30.8502663],[-89.7806614,30.8453188],[-89.78356,30.8558356],[-89.7720863,30.8538656],[-89.767789,30.8655402],[-89.7792377,30.8753627],[-89.7695283,30.881318],[-89.7734844,30.8977147],[-89.758719,30.8972822],[-89.764202,30.9118692],[-89.7444561,30.9188623],[-89.7564743,30.9430345],[-89.7368059,30.9661412],[-89.7270091,30.9671685],[-89.7368683,30.9761249],[-89.7297797,30.9804797],[-89.7295366,31.0040759],[-91.6374581,30.9992681],[-91.578413,31.0239932],[-91.559907,31.0540822],[-91.567648,31.0701492],[-91.625994,31.1168593],[-91.624217,31.1336923],[-91.591502,31.1730813],[-91.5893108,31.1912333],[-91.601616,31.2085363],[-91.644356,31.2343773],[-91.654027,31.2557163],[-91.637672,31.2676433],[-91.564192,31.2615963],[-91.515614,31.2781733],[-91.50866,31.3150943],[-91.548967,31.3472183],[-91.546207,31.3824434],[-91.55568,31.3863764],[-91.568953,31.3775924],[-91.576265,31.4104614],[-91.565179,31.4234104],[-91.541626,31.4316694],[-91.52695,31.3808184],[-91.4927699,31.3635423],[-91.4969787,31.3521376],[-91.4787477,31.3598239],[-91.466962,31.3907961],[-91.513366,31.4443594],[-91.5146994,31.5088008],[-91.522216,31.5219541],[-91.5140694,31.5316688],[-91.4802535,31.530035],[-91.443916,31.5424294],[-91.405415,31.5764294],[-91.403915,31.5897294],[-91.422716,31.5970284],[-91.488618,31.5874294],[-91.516567,31.6117815],[-91.515462,31.6303355],[-91.497665,31.6453345],[-91.474318,31.6253285],[-91.436716,31.6126285],[-91.401015,31.6203285],[-91.397915,31.7093275],[-91.3692697,31.7466703],[-91.2783586,31.744845],[-91.259238,31.7603999],[-91.2657689,31.7687479],[-91.2853391,31.7717332],[-91.3654799,31.7606048],[-91.343014,31.8468245],[-91.2939083,31.8599695],[-91.2825871,31.8150482],[-91.2569666,31.811675],[-91.245047,31.8314105],[-91.268112,31.8530245],[-91.2675408,31.8623502],[-91.235833,31.8754432],[-91.20101,31.9091226],[-91.1809137,31.9172971],[-91.1840425,31.9343313],[-91.19321,31.9356216],[-91.1856197,31.9637935],[-91.1650917,31.9820058],[-91.1101979,31.9883058],[-91.0819878,32.0061681],[-91.084408,32.0314196],[-91.15141,32.0492186],[-91.16131,32.0597186],[-91.16031,32.0703176],[-91.139309,32.0817176],[-91.103708,32.0502186],[-91.0799909,32.0479644],[-91.081572,32.0772276],[-91.0339109,32.1009792],[-91.0306762,32.1203706],[-91.0076369,32.1371441],[-91.0028293,32.1617468],[-91.0248595,32.1622053],[-91.0583228,32.1807414],[-91.0483958,32.1491975],[-91.0527156,32.1237723],[-91.0923297,32.1446719],[-91.1038504,32.1409106],[-91.1084009,32.125497],[-91.162822,32.1326577],[-91.174552,32.1549417],[-91.164171,32.1968517],[-91.133587,32.2133957],[-91.1129838,32.2064435],[-91.083708,32.2264137],[-91.0612562,32.2185309],[-91.039007,32.2423127],[-91.0027996,32.2228631],[-91.0032246,32.1975458],[-90.995234,32.192762],[-90.983588,32.210493],[-90.98029,32.2435647],[-90.9691844,32.2520674],[-90.982985,32.2702577],[-90.979475,32.2936657],[-90.964149,32.2968357],[-90.947834,32.2834497],[-90.916157,32.3035457],[-90.9009892,32.3250969],[-90.912363,32.3394177],[-90.986672,32.3517237],[-91.003506,32.3621088],[-90.99408,32.4038258],[-90.966255,32.4209908],[-90.966869,32.4354628],[-90.978547,32.4469958],[-90.998974,32.4501288],[-91.029606,32.4335058],[-91.052907,32.4384058],[-91.095308,32.4587048],[-91.116008,32.4831038],[-91.116708,32.5001028],[-91.093741,32.5490918],[-91.038106,32.4904038],[-91.004206,32.4821038],[-90.987831,32.4941538],[-91.005468,32.5138058],[-91.061685,32.5364118],[-91.080398,32.5564058],[-91.010228,32.6018908],[-91.002962,32.6225189],[-91.014286,32.6404459],[-91.0256822,32.6465614],[-91.0373958,32.6377425],[-91.049796,32.6071518],[-91.119854,32.5847588],[-91.141148,32.5971728],[-91.151318,32.6158829],[-91.149753,32.6440049],[-91.124746,32.6682569],[-91.0719299,32.6845928],[-91.0531468,32.7143656],[-91.0568663,32.725228],[-91.077176,32.7324979],[-91.1351994,32.7340124],[-91.1639806,32.780026],[-91.1616538,32.8122335],[-91.143559,32.8447029],[-91.105631,32.85836],[-91.064449,32.901028],[-91.064804,32.926428],[-91.081913,32.944732],[-91.080355,32.962758],[-91.09693,32.986376],[-91.135517,32.979621],[-91.134041,32.91764],[-91.15169,32.901899],[-91.170235,32.899355],[-91.199775,32.908476],[-91.214027,32.930284],[-91.199415,32.952278],[-91.201842,32.961176],[-91.173308,32.986052],[-91.1659657,33.0042455],[-94.0429641,33.0192302]]]}}]}