{"type":"FeatureCollection","features":[{"type":"Feature","properties":{"id":"ma"},"geometry":{"type":"Polygon","coordinates":[[[-73.5082102,42.086134],[-73.4970181,42.049624],[-72.8137839,42.0367437],[-72.8170238,41.9976982],[-72.766733,42.0032657],[-72.7589428,42.0154362],[-72.7651168,42.0224491],[-72.7520155,42.028947],[-72.7558941,42.0363492],[-72.6079737,42.0310835],[-72.6069351,42.0250061],[-72.53156,42.0345758],[-71.800671,42.023514],[-71.799188,42.008053],[-71.3813271,42.0189359],[-71.381463,41.8935458],[-71.3387869,41.8985926],[-71.3340402,41.862604],[-71.3425502,41.8446565],[-71.3354167,41.8356453],[-71.3475459,41.8232462],[-71.340481,41.797033],[-71.3284718,41.7806942],[-71.2610672,41.7520824],[-71.1954793,41.6750899],[-71.1325581,41.6603662],[-71.1419579,41.6125329],[-71.1316195,41.5937162],[-71.1204946,41.4974252],[-71.088571,41.431315],[-71.0349457,41.4062911],[-71.0305892,41.3795848],[-71.0074298,41.3578574],[-70.9762243,41.3490215],[-70.9470227,41.3515885],[-70.8991779,41.3257526],[-70.873545,41.2986897],[-70.8957987,41.2748776],[-70.8973628,41.2461843],[-70.8622445,41.2099615],[-70.8164381,41.199329],[-70.7736633,41.2047109],[-70.7476367,41.2222549],[-70.7341912,41.2603252],[-70.7020616,41.289995],[-70.6354649,41.2977114],[-70.5148233,41.2982249],[-70.4920846,41.2739544],[-70.4565612,41.2636457],[-70.3438591,41.2760344],[-70.2853595,41.2412111],[-70.18017,41.2053478],[-70.1130459,41.1912541],[-70.0054672,41.1890234],[-69.961046,41.1967469],[-69.9160529,41.2190375],[-69.8949125,41.2575999],[-69.8993944,41.2974901],[-69.9579869,41.3870203],[-69.9929312,41.4227639],[-70.0203211,41.4382282],[-70.0619674,41.4425375],[-70.0973412,41.4283081],[-70.1162448,41.3966196],[-70.103224,41.3581733],[-70.1479138,41.3442011],[-70.1746003,41.3558398],[-70.2126378,41.3592055],[-70.233335,41.3821806],[-70.2669926,41.3933851],[-70.3321606,41.3925829],[-70.3830828,41.3683964],[-70.3809199,41.4096266],[-70.3947215,41.4472014],[-70.4204416,41.4650508],[-70.477838,41.4804435],[-70.3951279,41.55565],[-70.3431539,41.5693663],[-70.3154667,41.5694009],[-70.3005242,41.5376902],[-70.26488,41.519821],[-70.2236954,41.5214847],[-70.1916084,41.5411572],[-70.1264955,41.5255631],[-70.1179254,41.488101],[-70.0773162,41.4654298],[-70.0351326,41.4672572],[-69.9997409,41.4918397],[-69.9620099,41.501363],[-69.9277073,41.5331716],[-69.9204328,41.5749954],[-69.8973998,41.5981152],[-69.8686473,41.6503163],[-69.8605707,41.6985136],[-69.8657995,41.7979064],[-69.8982847,41.9141272],[-69.9408657,41.9982502],[-69.9975412,42.0668052],[-70.0602092,42.104803],[-70.1665737,42.1330755],[-70.2366472,42.1297858],[-70.2751832,42.1154316],[-70.6096391,42.1398397],[-70.6243839,42.1552437],[-70.6457166,42.188432],[-70.6507144,42.2260123],[-70.6797997,42.2531865],[-70.6921544,42.2776234],[-70.6011382,42.5493127],[-70.5735946,42.5772625],[-70.5455246,42.5872058],[-70.5148194,42.6116436],[-70.4995384,42.6787871],[-70.5079699,42.6981255],[-70.5258365,42.7132761],[-70.605487,42.7399753],[-70.6452967,42.742002],[-70.6964554,42.7239523],[-70.7052932,42.7307224],[-70.7376518,42.7931429],[-70.735768,42.8245946],[-70.7475993,42.8541182],[-70.7329801,42.8754003],[-70.820239,42.8717876],[-70.8477182,42.8608672],[-70.8856028,42.8828344],[-70.9146307,42.8866472],[-70.9670178,42.8688002],[-71.0311972,42.8592974],[-71.0449202,42.8486666],[-71.0644128,42.8062744],[-71.1328052,42.8214761],[-71.1666472,42.8088811],[-71.18614,42.7909349],[-71.1817862,42.7373414],[-71.2238257,42.7464861],[-71.2454264,42.7425463],[-71.2948705,42.6972433],[-73.264851,42.745853],[-73.5082102,42.086134]]]}}]}