{"type":"FeatureCollection","features":[{"type":"Feature","properties":{"id":"mb"},"geometry":{"type":"Polygon","coordinates":[[[-102.0075681,59.9994439],[-102.004039,55.8093815],[-101.9637277,55.8093992],[-101.9638087,55.46042],[-101.9241924,55.4604325],[-101.9240555,55.111545],[-101.8852911,55.1115689],[-101.8853319,54.7625693],[-101.8474228,54.7625602],[-101.8474842,54.4135639],[-101.8104613,54.4135399],[-101.8104345,54.0644058],[-101.7713228,54.0644025],[-101.7706467,53.7108988],[-101.735099,53.7107061],[-101.7355437,53.3658084],[-101.7006057,53.3657811],[-101.7006943,53.0164508],[-101.6716045,53.0164479],[-101.671588,52.6672606],[-101.6377053,52.6672739],[-101.6378127,52.3181495],[-101.6090547,52.318158],[-101.6093112,51.9685811],[-101.5772302,51.9685683],[-101.5705439,51.3018759],[-101.53911,51.301712],[-101.5389827,50.9485807],[-101.5086946,50.9484851],[-101.5087288,50.5943934],[-101.4769949,50.5943875],[-101.4767208,50.2405059],[-101.4471535,50.2405433],[-101.4471985,49.88666],[-101.417546,49.8866701],[-101.4177744,49.5327142],[-101.3925639,49.5327312],[-101.3922176,49.1777123],[-101.362087,49.1777115],[-101.361989,48.9994722],[-95.1531944,48.9988611],[-95.1536713,52.8415679],[-94.4297409,53.28199],[-93.6570511,53.7374915],[-92.5277099,54.552452],[-91.379715,55.3383677],[-90.1935881,56.107868],[-88.9865273,56.849167],[-89.0107886,56.8499003],[-89.0278,56.84063],[-89.0272395,56.8509307],[-89.0333286,56.8426658],[-89.0367,56.84099],[-89.0394467,56.8496847],[-89.18374,56.87052],[-89.3402195,56.9174714],[-89.3613553,56.9202472],[-89.3642092,56.9095412],[-89.3740368,56.9090257],[-89.4083047,56.9236318],[-89.5139738,56.9248177],[-89.586803,56.9466341],[-89.6833628,56.94967],[-89.691546,56.9579984],[-89.6773335,56.9572033],[-89.7802735,56.9696848],[-89.8940447,57.0001854],[-89.9542286,56.9990985],[-90.0150917,57.0276087],[-89.9714742,57.0207487],[-90.10755,57.06386],[-90.1632701,57.07308],[-90.18903,57.09313],[-90.21703,57.10246],[-90.20904,57.1022801],[-90.4218,57.16985],[-90.41481,57.1753399],[-90.40671,57.1764499],[-90.39825,57.16603],[-90.39527,57.17148],[-90.3820799,57.1646699],[-90.4014001,57.1781399],[-90.39068,57.17638],[-90.3864399,57.16963],[-90.36315,57.1590099],[-90.39289,57.1786],[-90.4933799,57.19883],[-90.4965999,57.1931299],[-90.4682599,57.1935899],[-90.47554,57.1906601],[-90.47084,57.18007],[-90.4740201,57.1783399],[-90.4815999,57.17785],[-90.48743,57.17528],[-90.4983899,57.1737],[-90.4825,57.18542],[-90.5009399,57.1847701],[-90.5372999,57.19829],[-90.53777,57.2054601],[-90.5571899,57.20432],[-90.58617,57.22306],[-90.63384,57.2380599],[-90.6607099,57.2389399],[-90.695,57.23433],[-90.6442499,57.23774],[-90.6266699,57.2320301],[-90.6295699,57.2310599],[-90.62441,57.23045],[-90.6686701,57.23256],[-90.66486,57.2255701],[-90.6777901,57.22274],[-90.7068499,57.22609],[-90.7458599,57.2444701],[-90.77281,57.25199],[-90.78535,57.2477299],[-90.76493,57.24942],[-90.7448401,57.2380499],[-90.8863701,57.2656101],[-90.90056,57.2571401],[-90.9215099,57.2627399],[-90.9423199,57.25399],[-90.9482901,57.2541699],[-90.9335101,57.2594801],[-90.965993,57.2541722],[-90.9818224,57.2602591],[-90.9649899,57.25845],[-90.9717173,57.2607014],[-91.0080182,57.2632749],[-91.04118,57.2609499],[-91.0298801,57.26],[-91.0433799,57.25509],[-91.05553,57.25758],[-91.04885,57.25877],[-91.06444,57.25887],[-91.05554,57.25733],[-91.0803701,57.25233],[-91.0859599,57.2539499],[-91.06951,57.25532],[-91.08776,57.25577],[-91.1040501,57.25141],[-91.1011501,57.25265],[-91.1275399,57.2539399],[-91.1385101,57.2519301],[-91.1395399,57.2501501],[-91.1304199,57.2529599],[-91.1162696,57.2528362],[-91.37984,57.19996],[-91.5730209,57.1544294],[-91.58195,57.1455599],[-91.6083599,57.1450901],[-91.6532899,57.12689],[-91.6861799,57.1285201],[-91.8150201,57.0896001],[-91.9602499,57.05965],[-91.953586,57.0500247],[-91.9770185,57.0558951],[-92.0651462,57.04875],[-92.0676762,57.0398115],[-92.0714405,57.0472146],[-92.0943673,57.0477052],[-92.1062046,57.0347821],[-92.109376,57.0445253],[-92.1230536,57.0492079],[-92.1236273,57.0406713],[-92.1286852,57.0478924],[-92.1895987,57.0347789],[-92.263091,57.0017124],[-92.2214448,57.0357171],[-92.2773115,57.0233593],[-92.1947987,57.0687655],[-92.3686627,57.0587528],[-92.4498204,57.0452052],[-92.6107923,56.9817875],[-92.628913,56.9678793],[-92.6872366,56.9859069],[-92.5700026,57.0741435],[-92.540321,57.1073779],[-92.4843132,57.1975244],[-92.4566439,57.225987],[-92.4396745,57.259825],[-92.4246001,57.3278899],[-92.42666,57.3632299],[-92.4527,57.44399],[-92.49861,57.52507],[-92.51603,57.5382101],[-92.54217,57.5418899],[-92.53708,57.54904],[-92.5643699,57.5965],[-92.66771,57.71457],[-92.7217292,57.7937635],[-92.729068,57.8304118],[-92.7619004,57.8738705],[-92.7820504,57.9435277],[-92.8130265,58.0136126],[-92.81243,58.0346101],[-92.8004086,58.0361353],[-92.7978335,58.0194322],[-92.79577,58.0373999],[-92.848906,58.1027114],[-92.8466585,58.1333069],[-92.8839701,58.15065],[-92.9012811,58.1816666],[-92.8937924,58.1822039],[-92.8981912,58.1879957],[-92.9032399,58.18343],[-92.9414899,58.2082899],[-92.9192,58.2004701],[-92.92887,58.21314],[-92.9150248,58.2037541],[-92.93953,58.2218499],[-92.9277277,58.2187428],[-92.9787541,58.2795762],[-92.9812646,58.3060901],[-92.9720163,58.308294],[-92.9737973,58.3069976],[-92.9776812,58.2959932],[-92.968626,58.3091056],[-93.0111551,58.3267764],[-93.0315828,58.344827],[-93.0446519,58.3653729],[-93.0372045,58.3656235],[-93.0548751,58.3876214],[-93.0537513,58.4119417],[-93.10572,58.4757601],[-93.1067701,58.4988999],[-93.1318546,58.5344765],[-93.1364197,58.5558995],[-93.13243,58.5599399],[-93.1344295,58.5537698],[-93.1269944,58.5528294],[-93.1401587,58.5714917],[-93.1321013,58.5776841],[-93.1358349,58.598804],[-93.1285501,58.600889],[-93.1475401,58.625542],[-93.1535912,58.6576899],[-93.144536,58.6868085],[-93.1746733,58.7105818],[-93.1667447,58.7249717],[-93.2110069,58.7631578],[-93.24781,58.7709401],[-93.2451189,58.7776948],[-93.2343686,58.7826663],[-93.2294548,58.7866141],[-93.22601,58.7917101],[-93.2553434,58.7737348],[-93.2580578,58.7640778],[-93.2475329,58.7669151],[-93.2352805,58.7546463],[-93.2646699,58.7524801],[-93.27214,58.76308],[-93.30351,58.7447099],[-93.3370328,58.7589534],[-93.3286858,58.763744],[-93.3553801,58.76045],[-93.41601,58.7223799],[-93.41636,58.71061],[-93.4258601,58.72286],[-93.45739,58.72532],[-93.4747899,58.73831],[-93.4590199,58.7373401],[-93.46608,58.7497299],[-93.4556799,58.7460499],[-93.4667601,58.7629101],[-93.5359154,58.7809394],[-93.5294468,58.767452],[-93.5927228,58.765807],[-93.6162083,58.7709442],[-93.6407469,58.7882069],[-93.7163181,58.789142],[-93.7492089,58.7931619],[-93.7543973,58.8006849],[-93.7440634,58.770561],[-93.7784854,58.7721357],[-93.7756915,58.7818832],[-93.7907307,58.7708463],[-93.8131215,58.7693132],[-93.8289222,58.7993724],[-93.8232049,58.7793057],[-93.8382401,58.7633479],[-93.8473446,58.7644115],[-93.8418176,58.7721886],[-93.8566702,58.7708988],[-93.8696701,58.7671648],[-93.8756506,58.7536641],[-93.8896868,58.7515607],[-93.8971063,58.7557405],[-93.8950375,58.7645377],[-93.9088755,58.7663862],[-93.9739219,58.7708401],[-94.0794422,58.7629386],[-94.1663216,58.7728175],[-94.2022982,58.7894615],[-94.209941,58.8100563],[-94.2192373,58.7942643],[-94.2609428,58.7914522],[-94.2680227,58.7797932],[-94.2863775,58.7751711],[-94.2852039,58.7629467],[-94.3021204,58.7401588],[-94.341173,58.7109167],[-94.3680647,58.7029913],[-94.4279115,58.7028988],[-94.4381305,58.7103866],[-94.4320032,58.71223],[-94.4455575,58.7113056],[-94.4449603,58.7173328],[-94.4654557,58.724588],[-94.4627282,58.7298868],[-94.4788441,58.7434549],[-94.4737609,58.7418749],[-94.4791925,58.7461118],[-94.4746668,58.754068],[-94.4836433,58.7848384],[-94.5161105,58.8054962],[-94.5061701,58.80923],[-94.51146,58.8229899],[-94.56512,58.84182],[-94.59062,58.8594201],[-94.60571,58.8861101],[-94.6166661,58.887572],[-94.58908,58.89054],[-94.58552,58.89916],[-94.60849,58.8929901],[-94.6471803,58.8900491],[-94.60951,58.89361],[-94.6145423,58.896931],[-94.60192,58.9005],[-94.59853,58.91308],[-94.6095501,58.92651],[-94.6002378,58.9287167],[-94.60249,58.93965],[-94.6173688,58.9495365],[-94.6186806,58.9407718],[-94.6273164,58.9391845],[-94.62141,58.9471],[-94.6564899,58.9556099],[-94.6705801,58.9498001],[-94.6574,58.94331],[-94.6651599,58.9401401],[-94.6571599,58.9350399],[-94.65934,58.9322799],[-94.66756,58.9385801],[-94.67964,58.9322699],[-94.66676,58.94242],[-94.68875,58.9464899],[-94.684,58.95065],[-94.69113,58.95465],[-94.6770599,58.9607199],[-94.67666,58.96278],[-94.69191,58.9602799],[-94.7071701,58.9682701],[-94.72511,59.00003],[-94.75059,59.01326],[-94.74493,59.02383],[-94.76113,59.02515],[-94.7603101,59.0155299],[-94.78625,59.01675],[-94.773,59.02725],[-94.78725,59.04475],[-94.78325,59.05],[-94.7905,59.05025],[-94.7775,59.0545],[-94.78975,59.05525],[-94.78375,59.05625],[-94.78975,59.061],[-94.80075,59.057],[-94.7983229,59.0624705],[-94.80825,59.0655],[-94.82375,59.06],[-94.857,59.06825],[-94.856,59.079],[-94.7935,59.0805],[-94.79975,59.096],[-94.79125,59.10375],[-94.80225,59.1045],[-94.788,59.112],[-94.78175,59.132],[-94.7775,59.12975],[-94.76825,59.131],[-94.7835,59.136],[-94.77275,59.1495],[-94.781,59.15125],[-94.77325,59.15425],[-94.79175,59.1825],[-94.77925,59.199],[-94.785,59.20175],[-94.766,59.2125],[-94.7905,59.22375],[-94.7825,59.22675],[-94.7925,59.2365],[-94.77275,59.2575],[-94.78375,59.26075],[-94.785,59.26975],[-94.76625,59.288],[-94.7555,59.28725],[-94.75825,59.29725],[-94.7374561,59.3122626],[-94.7591552,59.3144774],[-94.76575,59.33425],[-94.77175,59.322],[-94.791,59.3225],[-94.79375,59.3325],[-94.78175,59.32325],[-94.774,59.32925],[-94.783,59.33475],[-94.77825,59.3375],[-94.79175,59.34025],[-94.794,59.34275],[-94.793,59.34475],[-94.7775,59.3385],[-94.77625,59.3345],[-94.7595,59.33675],[-94.70825,59.3215],[-94.69775,59.343],[-94.66775,59.34825],[-94.6618811,59.351329],[-94.6686449,59.3503625],[-94.66925,59.35925],[-94.675,59.36125],[-94.687,59.361],[-94.6715242,59.3518197],[-94.699,59.35575],[-94.69625,59.35],[-94.7085,59.343],[-94.72675,59.3415],[-94.71075,59.35025],[-94.7128777,59.3686204],[-94.704,59.36925],[-94.7181147,59.3769433],[-94.7093933,59.386741],[-94.72575,59.392],[-94.72125,59.396],[-94.7331372,59.4082075],[-94.72975,59.4135],[-94.744,59.42675],[-94.7335,59.4415],[-94.7505,59.469],[-94.7635,59.47525],[-94.76175,59.48975],[-94.774,59.49525],[-94.76975,59.5005],[-94.79475,59.50975],[-94.79375,59.53175],[-94.78375,59.5365],[-94.801,59.53825],[-94.7855,59.5425],[-94.7855,59.54625],[-94.79525,59.5425],[-94.802,59.549],[-94.769,59.55125],[-94.77575,59.55275],[-94.76325,59.565],[-94.77825,59.57975],[-94.7945,59.57675],[-94.7935,59.579],[-94.78275,59.57925],[-94.77575,59.582],[-94.7865,59.57925],[-94.793,59.581],[-94.78525,59.589],[-94.7935,59.58425],[-94.81775,59.6005],[-94.831,59.60125],[-94.83575,59.60225],[-94.8365,59.6035],[-94.81625,59.60375],[-94.80225,59.6175],[-94.80225,59.62275],[-94.81475,59.6205],[-94.808,59.6265],[-94.81775,59.63025],[-94.80175,59.6445],[-94.822,59.646],[-94.80725,59.6575],[-94.81575,59.66],[-94.8115,59.66475],[-94.76025,59.657],[-94.78375,59.672],[-94.79275,59.66975],[-94.78825,59.67275],[-94.79825,59.67875],[-94.8075,59.678],[-94.79975,59.675],[-94.80275,59.67225],[-94.81425,59.67475],[-94.80475,59.68675],[-94.79375,59.679],[-94.7885,59.68075],[-94.80725,59.68975],[-94.7945,59.7015],[-94.8075,59.707],[-94.79875,59.71525],[-94.8125,59.71725],[-94.7895,59.72725],[-94.8045,59.728],[-94.8085,59.73625],[-94.7909091,59.7407394],[-94.8,59.74725],[-94.77975,59.7675],[-94.76825,59.7705],[-94.7445,59.76225],[-94.74225,59.76325],[-94.76425,59.7715],[-94.76675,59.7765],[-94.7460723,59.7777551],[-94.773,59.7815],[-94.77125,59.7905],[-94.78975,59.7975],[-94.79025,59.80875],[-94.80675,59.8055],[-94.7915,59.81],[-94.8005,59.825],[-94.79475,59.82775],[-94.7945,59.83075],[-94.802,59.83425],[-94.7975,59.85375],[-94.8017532,59.8628308],[-94.81425,59.8645],[-94.80925,59.86425],[-94.80175,59.86775],[-94.82175,59.8785],[-94.8223219,59.8877691],[-94.8105,59.88675],[-94.807,59.89],[-94.828,59.9],[-94.81,59.907],[-94.825,59.91425],[-94.82275,59.92325],[-94.8315,59.92875],[-94.822,59.9295],[-94.83025,59.9345],[-94.81975,59.9395],[-94.83625,59.94],[-94.82875,59.949],[-94.8512743,59.9630319],[-94.8495773,59.9711482],[-94.8334968,59.9758544],[-94.8261809,59.9994213],[-102.0075681,59.9994439]]]}}]}