{"type":"FeatureCollection","features":[{"type":"Feature","properties":{"id":"md","osmRelations":[162112,162069]},"geometry":{"type":"Polygon","coordinates":[[[-77.1197949,38.9343511],[-77.147162,38.9645869],[-77.2349144,38.9760861],[-77.2559021,39.0021137],[-77.2465637,39.0252107],[-77.294732,39.047171],[-77.3399354,39.0627732],[-77.385786,39.0621081],[-77.4614206,39.0754086],[-77.4839115,39.1084259],[-77.5205479,39.1213475],[-77.527376,39.1461112],[-77.5092232,39.1799287],[-77.4776402,39.1904262],[-77.4601246,39.2284119],[-77.4898337,39.2488472],[-77.543228,39.266937],[-77.5605636,39.2858479],[-77.5663675,39.3059713],[-77.6161607,39.3026494],[-77.6754872,39.324377],[-77.6933646,39.318292],[-77.7256888,39.32151],[-77.7596482,39.3376004],[-77.7439681,39.3574689],[-77.7531907,39.3801277],[-77.7363335,39.3872646],[-77.7382952,39.3985494],[-77.753724,39.42393],[-77.803294,39.4378431],[-77.7852976,39.4450976],[-77.7981856,39.460452],[-77.7776489,39.4617188],[-77.7956174,39.4713231],[-77.7971638,39.4800682],[-77.765993,39.495724],[-77.781608,39.499067],[-77.802845,39.489339],[-77.8453999,39.4980121],[-77.8463741,39.5045707],[-77.8257716,39.5165016],[-77.8244247,39.5279302],[-77.8367355,39.5318879],[-77.8434642,39.5174123],[-77.8628528,39.5145517],[-77.8651681,39.5382399],[-77.8887122,39.5552705],[-77.878548,39.563408],[-77.8359707,39.566627],[-77.8296699,39.5907809],[-77.8373449,39.6055848],[-77.8850351,39.6157691],[-77.8811274,39.6009341],[-77.8900735,39.5974363],[-77.9236129,39.6049699],[-77.9410671,39.6189054],[-77.9359511,39.5969366],[-77.9462108,39.584712],[-77.9553065,39.608083],[-77.9772726,39.5995376],[-78.0097356,39.6027649],[-78.0374781,39.6368119],[-78.0998078,39.6796621],[-78.1804517,39.6956312],[-78.2020265,39.6768798],[-78.232631,39.673616],[-78.2235832,39.6608857],[-78.2542061,39.6400286],[-78.2663329,39.6189079],[-78.3555583,39.6407067],[-78.3555957,39.6262163],[-78.3821934,39.6277273],[-78.3754575,39.608228],[-78.4310364,39.6227537],[-78.425353,39.6078567],[-78.3947192,39.585128],[-78.407791,39.578651],[-78.4437326,39.5915224],[-78.4570269,39.5872699],[-78.4539556,39.574141],[-78.4168019,39.548423],[-78.437072,39.5535344],[-78.4379627,39.5386392],[-78.4609777,39.5508853],[-78.4482656,39.5409256],[-78.4619129,39.5368561],[-78.4678816,39.5170722],[-78.5228974,39.5250269],[-78.5657776,39.5195089],[-78.5879669,39.5281184],[-78.5915049,39.5370343],[-78.6023283,39.5322423],[-78.623101,39.539695],[-78.6538234,39.534527],[-78.6755695,39.5403501],[-78.7242287,39.5639406],[-78.7332461,39.5865751],[-78.7459274,39.5796954],[-78.7606791,39.582832],[-78.7769443,39.6039533],[-78.7556873,39.6105161],[-78.7471614,39.6056756],[-78.7332178,39.6150431],[-78.7471917,39.6268874],[-78.7634189,39.6190383],[-78.7777327,39.6219564],[-78.7665655,39.6483893],[-78.7809881,39.636979],[-78.7952336,39.6369298],[-78.8015979,39.6276851],[-78.7960291,39.6063622],[-78.8090682,39.6082509],[-78.825579,39.5894533],[-78.8158872,39.5628411],[-78.8390819,39.5671247],[-78.8705266,39.5389453],[-78.8748403,39.5227535],[-78.8926243,39.5244514],[-78.8922431,39.5139374],[-78.9051924,39.5118323],[-78.9166959,39.4862547],[-78.9344447,39.4861447],[-78.9418711,39.4702591],[-78.9586288,39.4631996],[-78.9564234,39.4403835],[-78.9655569,39.438416],[-79.0181114,39.4678308],[-79.0309118,39.4653224],[-79.0469869,39.4835111],[-79.0572327,39.470691],[-79.0677475,39.4801855],[-79.0830372,39.4714047],[-79.1009858,39.4768824],[-79.1052585,39.4720058],[-79.0945685,39.4647545],[-79.1079352,39.4612248],[-79.1029144,39.4504549],[-79.1168899,39.4389439],[-79.1107282,39.4320049],[-79.1288497,39.429655],[-79.1275363,39.4178142],[-79.1417342,39.4170693],[-79.1432637,39.4052521],[-79.1595065,39.4167867],[-79.166539,39.4008972],[-79.1622996,39.3880236],[-79.1801218,39.3960795],[-79.177096,39.3891158],[-79.1978609,39.3881007],[-79.2141536,39.3634262],[-79.2562652,39.3570248],[-79.2537826,39.3370528],[-79.2683019,39.3361455],[-79.2818109,39.3231503],[-79.2901385,39.2992641],[-79.314375,39.3044758],[-79.3459271,39.2937695],[-79.3446498,39.2848591],[-79.3870511,39.2677285],[-79.4406001,39.2164016],[-79.4730978,39.2019282],[-79.4870169,39.2058766],[-79.4767594,39.7211311],[-75.788594,39.7222006],[-75.7886629,39.6499653],[-75.6936638,38.4600811],[-74.9852049,38.4512836],[-74.9861735,38.4356189],[-75.0247644,38.3070915],[-75.046693,38.2837988],[-75.1246156,38.0962439],[-75.166435,38.027834],[-75.2418015,38.0274595],[-75.624341,37.9943011],[-75.633832,37.984517],[-75.629532,37.975963],[-75.638222,37.979395],[-75.648228,37.966771],[-75.6374659,37.952269],[-75.6448221,37.9379112],[-75.6787557,37.9451745],[-75.7010477,37.9340289],[-75.7149194,37.943363],[-75.7721005,37.8932016],[-75.813907,37.912039],[-75.952672,37.906827],[-75.943693,37.946133],[-76.041467,37.95401],[-76.2366082,37.8865288],[-76.261812,37.908786],[-76.333372,37.942956],[-76.412934,37.966332],[-76.465008,38.01322],[-76.516609,38.026783],[-76.51616,38.04492],[-76.536457,38.074903],[-76.596156,38.106676],[-76.60543,38.148933],[-76.763973,38.167791],[-76.839368,38.163609],[-76.876744,38.173019],[-76.91113,38.197357],[-76.94902,38.208418],[-76.962251,38.229888],[-76.956923,38.237472],[-76.962086,38.256964],[-77.0276899,38.3046372],[-77.030662,38.311578],[-77.0146874,38.3329098],[-77.0115562,38.3744729],[-77.041807,38.4007357],[-77.0561187,38.3964378],[-77.084282,38.3685784],[-77.1386274,38.367663],[-77.1580931,38.3484408],[-77.177336,38.341608],[-77.2425218,38.3308797],[-77.284642,38.3426642],[-77.2880792,38.3591274],[-77.3051407,38.3752909],[-77.3232579,38.4319005],[-77.3186591,38.4739227],[-77.309638,38.495636],[-77.285309,38.519695],[-77.2763088,38.5474441],[-77.2563195,38.5603355],[-77.2464297,38.5932767],[-77.2004415,38.6189014],[-77.1303635,38.6348975],[-77.1363968,38.6505295],[-77.132752,38.674013],[-77.122632,38.685256],[-77.079948,38.70901],[-77.053142,38.709891],[-77.043338,38.718468],[-77.0403701,38.7902611],[-76.909366,38.8928623],[-77.0389358,38.7916303],[-77.0378761,38.8303925],[-77.0463067,38.8411974],[-77.0345235,38.8400531],[-77.0309984,38.8497653],[-77.0424929,38.8635174],[-77.0393176,38.869291],[-77.0590825,38.8806293],[-77.0687196,38.9003453],[-77.0977959,38.9084053],[-77.1197949,38.9343511]]]}}]}