{"type":"FeatureCollection","features":[{"type":"Feature","properties":{"id":"me"},"geometry":{"type":"MultiPolygon","coordinates":[[[[-71.0841694,45.3054741],[-71.0344058,44.7099589],[-70.9727416,43.570138],[-70.9506394,43.551317],[-70.9534716,43.5406441],[-70.963802,43.5393701],[-70.9546616,43.5093029],[-70.9675892,43.4809402],[-70.9761342,43.4784732],[-70.9611164,43.4691879],[-70.9666253,43.4512514],[-70.9609793,43.4383886],[-70.9869809,43.4137673],[-70.9822967,43.3982812],[-70.9884271,43.3895544],[-70.9728518,43.3487426],[-70.9561812,43.3341054],[-70.9307077,43.3364204],[-70.9303051,43.3291955],[-70.9111093,43.319504],[-70.9123542,43.3076965],[-70.8961779,43.2985817],[-70.9060086,43.2917679],[-70.896773,43.2926345],[-70.8964196,43.2851721],[-70.8833613,43.2833367],[-70.882774,43.2728786],[-70.8417436,43.2534008],[-70.838131,43.2425525],[-70.8178174,43.2381344],[-70.8098214,43.2258819],[-70.8192824,43.1929919],[-70.8282548,43.1877887],[-70.8235697,43.1742391],[-70.8336106,43.1461022],[-70.8270798,43.1273952],[-70.7659359,43.0925063],[-70.7567806,43.0803147],[-70.7018909,43.0722444],[-70.7011973,43.0452405],[-70.630714,42.9852862],[-70.6111518,42.9789898],[-70.5613593,42.9222206],[-70.5357857,42.9513353],[-70.5305687,43.0146465],[-70.5526421,43.0431155],[-70.5980173,43.0576363],[-70.5553968,43.121399],[-70.5470514,43.1257871],[-70.5413035,43.102683],[-70.5238265,43.0845154],[-70.4805875,43.0702595],[-70.4308063,43.0810135],[-70.4054901,43.1134149],[-70.4121888,43.1435661],[-70.4446642,43.1676858],[-70.4838687,43.1736635],[-70.5216474,43.1624726],[-70.5239127,43.1791364],[-70.5073983,43.2162302],[-70.5117435,43.2396776],[-70.4914582,43.2606631],[-70.4880779,43.2861581],[-70.4218839,43.2975473],[-70.3659531,43.3249926],[-70.3184029,43.389394],[-70.2847588,43.4053245],[-70.1559866,43.5244518],[-69.8552125,43.6469557],[-69.8088546,43.6473516],[-69.7865761,43.6581408],[-69.7303971,43.6572801],[-69.7083382,43.6682327],[-69.6863292,43.6982107],[-69.6647457,43.7117586],[-69.6172882,43.6998244],[-69.5509382,43.7071506],[-69.5190907,43.7321325],[-69.5057855,43.7784631],[-69.4092707,43.8108265],[-69.3872798,43.7990226],[-69.3972103,43.7633783],[-69.3875889,43.7361116],[-69.3563786,43.7108896],[-69.3350935,43.7044936],[-69.2829491,43.7137736],[-69.2380978,43.7500941],[-69.2332766,43.7809694],[-69.2425359,43.7997681],[-69.2623413,43.815382],[-69.2365549,43.8256351],[-69.1971992,43.7960017],[-69.1498258,43.795745],[-69.0830058,43.8256562],[-69.055895,43.8589235],[-69.022785,43.8425166],[-69.0242958,43.8198538],[-69.0099225,43.7984494],[-68.9811606,43.783799],[-68.9498362,43.780179],[-68.9255122,43.7500928],[-68.870742,43.7335578],[-68.8269162,43.7357238],[-68.8053616,43.7459941],[-68.7861396,43.7683749],[-68.7853249,43.8043483],[-68.7494734,43.8325427],[-68.7127537,43.8384078],[-68.6694333,43.8695832],[-68.6637892,43.8939353],[-68.6732916,43.9163819],[-68.6959947,43.9348705],[-68.7351689,43.943733],[-68.7808116,43.931067],[-68.8043477,43.9029869],[-68.8228773,43.9255082],[-68.8624939,43.9389962],[-68.8991951,43.9343841],[-68.9387328,43.9125738],[-68.9497291,43.9346651],[-68.9806413,43.9594029],[-68.8785994,43.9701488],[-68.8155369,43.9521968],[-68.7071908,43.9638373],[-68.6595864,43.9479986],[-68.5850767,43.9543205],[-68.5472767,43.9686322],[-68.4931061,44.0105682],[-68.4849451,44.028318],[-68.463012,44.0321245],[-68.4368436,44.0532421],[-68.3687965,44.0452291],[-68.303483,44.0561894],[-68.2792122,44.0699536],[-68.2631363,44.0906263],[-68.2239086,44.0919556],[-68.1800629,44.1184432],[-68.1713314,44.143936],[-68.1707494,44.1901228],[-68.1375792,44.2068706],[-68.122626,44.2260505],[-68.1282798,44.2642624],[-68.0609586,44.2782642],[-68.0278441,44.2742239],[-67.999446,44.2802043],[-67.973647,44.295168],[-67.9607782,44.3192741],[-67.9251776,44.3414431],[-67.8981504,44.3221353],[-67.8744427,44.3169345],[-67.8237282,44.3270469],[-67.7952616,44.3611729],[-67.7960425,44.379529],[-67.8055696,44.3910221],[-67.7747497,44.4113211],[-67.7417442,44.3908409],[-67.7153288,44.3865091],[-67.674641,44.3946463],[-67.6274132,44.3834831],[-67.5675844,44.3972204],[-67.4994334,44.427558],[-67.473027,44.4483509],[-67.4442275,44.4811371],[-67.4433964,44.505289],[-67.3881999,44.5204083],[-67.3359831,44.5227067],[-67.3008199,44.5498673],[-67.2358716,44.5581504],[-67.1408547,44.6082767],[-67.0967107,44.639202],[-67.0392792,44.6969797],[-66.9775206,44.7312499],[-66.9522687,44.7604307],[-66.9025436,44.7765777],[-66.8854174,44.7941927],[-66.9325503,44.8255236],[-66.9652927,44.8288782],[-66.9748525,44.8416237],[-66.9821229,44.8672758],[-66.96871,44.9102064],[-67.0220089,44.953732],[-67.1125604,45.112593],[-67.1586326,45.1618377],[-67.2027895,45.1713663],[-67.2272856,45.1634401],[-67.247428,45.1808995],[-67.2833616,45.1918685],[-67.3026869,45.1607225],[-67.2960203,45.1479355],[-67.3201058,45.1423071],[-67.320819,45.1313497],[-67.3408412,45.1250572],[-67.4050269,45.1600848],[-67.4005192,45.1776879],[-67.4292644,45.1934861],[-67.436988,45.2227584],[-67.4641968,45.245137],[-67.4764207,45.2754179],[-67.489663,45.2821559],[-67.4850791,45.2911745],[-67.4761082,45.2886554],[-67.4603058,45.3000395],[-67.4518373,45.3177027],[-67.4569081,45.3252762],[-67.4288481,45.3443598],[-67.4253519,45.3574339],[-67.4345281,45.3649831],[-67.419237,45.3771226],[-67.4612448,45.4222468],[-67.4726794,45.423239],[-67.4821084,45.459413],[-67.5037187,45.4867218],[-67.4637375,45.4970728],[-67.4712399,45.5008681],[-67.4635739,45.5083741],[-67.4515905,45.4990885],[-67.4501453,45.5102831],[-67.4162107,45.5013115],[-67.4348645,45.528153],[-67.4206642,45.5496908],[-67.4288714,45.5683499],[-67.423194,45.5716065],[-67.4500178,45.6024786],[-67.4932903,45.6013579],[-67.4879594,45.5958373],[-67.4990248,45.5866684],[-67.5192426,45.5876977],[-67.6083781,45.6061629],[-67.6391215,45.6251301],[-67.6455692,45.6133522],[-67.6752538,45.6307561],[-67.7095738,45.6813276],[-67.7345647,45.6889341],[-67.7179608,45.6676758],[-67.7272491,45.6626539],[-67.74444,45.6729301],[-67.7542953,45.6675793],[-67.7687184,45.6774875],[-67.8036458,45.6776648],[-67.8181093,45.6937492],[-67.8031214,45.696055],[-67.809724,45.7294584],[-67.7819873,45.7310905],[-67.7931635,45.7505164],[-67.8062621,45.7552541],[-67.8064545,45.7944122],[-67.7806366,45.817722],[-67.755319,45.8233502],[-67.7971144,45.8600245],[-67.8039094,45.8828971],[-67.768053,45.8981117],[-67.7653244,45.9097523],[-67.7506286,45.9176364],[-67.7812562,45.943451],[-67.7901984,47.0672248],[-67.882917,47.1044034],[-67.8907344,47.1264845],[-67.9286646,47.1562186],[-67.9572831,47.1996936],[-67.9896158,47.2098627],[-68.0198202,47.2386573],[-68.0739475,47.2593026],[-68.0822244,47.2710655],[-68.1358273,47.2957212],[-68.1522979,47.3097879],[-68.1545603,47.3251568],[-68.2145338,47.3396062],[-68.2344711,47.3553012],[-68.2649073,47.3522175],[-68.2847982,47.3602876],[-68.3631321,47.354657],[-68.3777219,47.3435518],[-68.384714,47.3240813],[-68.3778565,47.2873746],[-68.4487676,47.2820088],[-68.4750234,47.2971403],[-68.516766,47.2960866],[-68.5497976,47.2821407],[-68.5800475,47.2871149],[-68.5976749,47.2701547],[-68.5935435,47.2587701],[-68.6175116,47.2433726],[-68.6598453,47.236124],[-68.6871504,47.2444096],[-68.7170162,47.2405805],[-68.7644432,47.2220504],[-68.8114565,47.2151734],[-68.9000329,47.1777412],[-68.9237402,47.1973768],[-68.9611869,47.2056858],[-69.0337729,47.2404023],[-69.0507453,47.2564795],[-69.0548816,47.377716],[-69.0396417,47.3842086],[-69.0454114,47.3929871],[-69.0375639,47.3968435],[-69.0427328,47.4019708],[-69.0400285,47.4002574],[-69.0352387,47.4018005],[-69.0424935,47.4047464],[-69.0305977,47.4074197],[-69.0422484,47.4157126],[-69.0432161,47.4267836],[-69.047434,47.4277413],[-69.0465475,47.4242724],[-69.0521489,47.4221421],[-69.0521198,47.4300086],[-69.0635481,47.4340583],[-69.090137,47.4241355],[-69.0988826,47.4314475],[-69.107743,47.4276836],[-69.1077947,47.4353754],[-69.1220168,47.4426966],[-69.1622574,47.4474307],[-69.1788961,47.4573785],[-69.2051958,47.4519524],[-69.22447,47.4598397],[-69.9971231,46.6955228],[-70.0565033,46.4155811],[-70.0969458,46.4094817],[-70.1077592,46.3877236],[-70.1270231,46.3804044],[-70.1269894,46.3708156],[-70.1911844,46.3502247],[-70.20894,46.3295028],[-70.2058756,46.2997364],[-70.2316289,46.2910367],[-70.2530678,46.2588342],[-70.2508897,46.2491147],[-70.2736481,46.2168347],[-70.2710758,46.2108347],[-70.2926928,46.1914742],[-70.2362825,46.1452408],[-70.2545272,46.1137133],[-70.2531133,46.1001275],[-70.2859306,46.0998364],[-70.3019053,46.0823689],[-70.31095,46.0642014],[-70.2783161,46.0562911],[-70.2973636,46.0407189],[-70.3013742,46.0276278],[-70.3179975,46.0190808],[-70.3023719,45.9986864],[-70.2839411,45.9954908],[-70.3069828,45.9826939],[-70.3158603,45.9629919],[-70.2769994,45.9672589],[-70.2391336,45.943945],[-70.2630856,45.9239886],[-70.2533764,45.9073683],[-70.2657106,45.8937589],[-70.2588044,45.8911686],[-70.3077981,45.8588497],[-70.3419442,45.8523411],[-70.3594214,45.8354497],[-70.3708169,45.8351997],[-70.3966967,45.8080967],[-70.3961622,45.7986561],[-70.4168725,45.7955344],[-70.4056314,45.7765217],[-70.4070294,45.7625344],[-70.3884325,45.7502211],[-70.3938972,45.7401042],[-70.3838408,45.7345703],[-70.4003497,45.7197272],[-70.4391664,45.7038811],[-70.4654736,45.7065367],[-70.5263858,45.6663558],[-70.5585819,45.6664767],[-70.5908731,45.6304633],[-70.6191458,45.61203],[-70.6445761,45.6069825],[-70.6780906,45.5705022],[-70.6876922,45.5694256],[-70.6891903,45.5621847],[-70.6771031,45.5522169],[-70.7225622,45.513675],[-70.7115967,45.5018106],[-70.7163969,45.4864725],[-70.6917219,45.4742669],[-70.681115,45.4521831],[-70.6507344,45.4449447],[-70.6298244,45.4263144],[-70.635045,45.4110617],[-70.6212694,45.4027358],[-70.6363247,45.3952383],[-70.6348875,45.3834186],[-70.6517839,45.3769581],[-70.6781678,45.3942717],[-70.7120156,45.3904786],[-70.7296544,45.3990981],[-70.7545847,45.4283122],[-70.7981056,45.4265078],[-70.8259586,45.3983719],[-70.8027536,45.3675203],[-70.8199006,45.3401936],[-70.8075908,45.3276589],[-70.8084297,45.311815],[-70.8162956,45.2981811],[-70.8354672,45.2939658],[-70.8318956,45.2789086],[-70.8489469,45.2630919],[-70.8486353,45.2451783],[-70.8375897,45.23499],[-70.8575392,45.2291397],[-70.8969522,45.2418661],[-70.8985106,45.2583292],[-70.9213422,45.2792247],[-70.9120097,45.2963189],[-70.9178356,45.3117242],[-70.9389003,45.3199803],[-70.9523783,45.3391153],[-70.9849844,45.3319097],[-71.0106567,45.3476783],[-71.0121225,45.3338697],[-71.0018772,45.3284283],[-71.0085189,45.3192389],[-71.0841694,45.3054741]]],[[[-68.1992467,43.9684295],[-68.1941112,43.9486396],[-68.1789636,43.9320169],[-68.1257913,43.9171746],[-68.0766388,43.9336469],[-68.060885,43.9515752],[-68.0560491,43.971418],[-68.0622336,43.9906949],[-68.0787379,44.0070566],[-68.1290862,44.0200344],[-68.1774301,44.0049041],[-68.1992467,43.9684295]]]]}}]}