{"type":"FeatureCollection","features":[{"type":"Feature","properties":{"id":"mi"},"geometry":{"type":"Polygon","coordinates":[[[-90.4185348,46.5661318],[-90.393262,46.532433],[-90.368229,46.541132],[-90.350184,46.5371437],[-90.347227,46.548988],[-90.339404,46.549288],[-90.344053,46.552059],[-90.33223,46.553432],[-90.309441,46.537285],[-90.316554,46.516896],[-90.27694,46.524447],[-90.272551,46.504512],[-90.231236,46.509893],[-90.230918,46.501529],[-90.216637,46.501637],[-90.204212,46.478309],[-90.188834,46.468919],[-90.190792,46.459816],[-90.1784739,46.4577407],[-90.1784841,46.4403585],[-90.16742,46.441705],[-90.158369,46.409454],[-90.118703,46.359345],[-90.1202632,46.3369919],[-89.091741,46.1383883],[-88.8161869,46.0203401],[-88.7961167,46.023389],[-88.7965575,46.033645],[-88.7791892,46.0315113],[-88.7802204,46.0151566],[-88.770621,46.025561],[-88.7594943,46.0195247],[-88.73898,46.027459],[-88.721261,46.022221],[-88.718314,46.013182],[-88.679073,46.013699],[-88.663483,45.992702],[-88.670827,45.988547],[-88.615957,45.987896],[-88.601178,46.01777],[-88.58827,46.005098],[-88.565663,46.015679],[-88.514692,46.020019],[-88.489355,45.991367],[-88.458672,45.999514],[-88.4160832,45.9751677],[-88.380503,45.991765],[-88.330578,45.966508],[-88.3274639,45.9552151],[-88.319698,45.963626],[-88.291981,45.95109],[-88.246894,45.963532],[-88.237106,45.948278],[-88.2098257,45.9442775],[-88.1918935,45.9526513],[-88.1698726,45.9394253],[-88.1475714,45.9373794],[-88.126227,45.921693],[-88.102461,45.921546],[-88.094927,45.915323],[-88.106624,45.902213],[-88.101264,45.882282],[-88.0705133,45.8725907],[-88.1344238,45.8225675],[-88.130129,45.809708],[-88.107608,45.80304],[-88.094754,45.785755],[-88.072167,45.780085],[-87.991447,45.795393],[-87.98087,45.776977],[-87.9897223,45.7711914],[-87.963452,45.75822],[-87.876898,45.754379],[-87.862211,45.745018],[-87.85548,45.726943],[-87.8091364,45.7097756],[-87.809075,45.699717],[-87.781419,45.681483],[-87.781623,45.67328],[-87.8234439,45.6627675],[-87.8251286,45.652987],[-87.79588,45.618846],[-87.780845,45.614599],[-87.777199,45.588498],[-87.786766,45.582828],[-87.792372,45.563055],[-87.829348,45.568777],[-87.8337329,45.5610452],[-87.8033518,45.5385577],[-87.802241,45.513059],[-87.792769,45.499967],[-87.8132455,45.4635826],[-87.861697,45.434473],[-87.849322,45.403872],[-87.875424,45.379373],[-87.871485,45.371546],[-87.888052,45.354697],[-87.870367,45.356267],[-87.875845,45.365017],[-87.869167,45.366049],[-87.850133,45.340435],[-87.832612,45.352249],[-87.754104,45.349442],[-87.693956,45.389893],[-87.65735,45.368754],[-87.648126,45.339396],[-87.697652,45.28255],[-87.69878,45.26942],[-87.71045,45.259324],[-87.711339,45.239965],[-87.724992,45.23214],[-87.726198,45.209391],[-87.74181,45.197469],[-87.736104,45.172244],[-87.683902,45.144135],[-87.659952,45.107512],[-87.442508,45.076434],[-87.405694,45.201969],[-87.315422,45.240657],[-87.17117,45.35254],[-87.101133,45.44423],[-86.754236,45.44361],[-86.249548,45.236125],[-86.49993,45.0808],[-86.686288,44.881002],[-87.013234,44.131905],[-87.125079,43.670445],[-87.147166,43.379859],[-87.0198613,42.4938001],[-87.207774,41.760956],[-84.805883,41.760216],[-84.8059801,41.6961278],[-83.415851,41.733794],[-83.1125519,41.9593496],[-83.1496826,42.0409889],[-83.1217041,42.1254313],[-83.1339374,42.1748022],[-83.1279986,42.2386949],[-83.0794903,42.3087142],[-82.8281825,42.3734081],[-82.6621745,42.5414564],[-82.6329909,42.557104],[-82.5909251,42.5500199],[-82.5189332,42.6137372],[-82.5096536,42.6381746],[-82.510507,42.6650326],[-82.4673621,42.7624117],[-82.4820278,42.8082412],[-82.4682554,42.8556736],[-82.4703454,42.8874094],[-82.4553164,42.9267424],[-82.4167856,42.9667846],[-82.4131115,42.9773672],[-82.4241342,42.9978293],[-82.1228056,43.5911944],[-82.5186111,45.3386389],[-83.5971667,45.8212778],[-83.4337778,45.9981667],[-83.5719444,46.1057778],[-83.655,46.1216944],[-83.7598611,46.1027222],[-83.8263333,46.1188611],[-83.9035278,46.0604444],[-83.9554722,46.05675],[-83.9763333,46.1024167],[-84.0063056,46.1183056],[-84.0059722,46.1494444],[-84.0771389,46.1873333],[-84.10825,46.2414444],[-84.0976389,46.2563611],[-84.1154167,46.2680278],[-84.1194444,46.3148889],[-84.1059444,46.3219722],[-84.139,46.3724444],[-84.1460556,46.4187778],[-84.1111389,46.5042222],[-84.129,46.5305],[-84.1776944,46.5270833],[-84.1936667,46.5402222],[-84.2258889,46.5340556],[-84.2548056,46.5008056],[-84.27625,46.4929444],[-84.3418889,46.5075],[-84.4211389,46.5005833],[-84.4452222,46.4890833],[-84.4756389,46.4528611],[-84.5568333,46.4608056],[-84.7628333,46.6343056],[-84.8601389,46.8889167],[-87.1138101,47.8166994],[-88.369862,48.306063],[-88.677442,48.245397],[-89.33755,47.974261],[-89.4833363,48.0138889],[-90.4185348,46.5661318]]]}}]}