{"type":"FeatureCollection","features":[{"type":"Feature","properties":{"id":"mo"},"geometry":{"type":"Polygon","coordinates":[[[-95.7741441,40.5734889],[-95.763366,40.550797],[-95.768693,40.534106],[-95.7530255,40.5249992],[-95.7201579,40.5282763],[-95.7086914,40.5213294],[-95.6950873,40.5330531],[-95.6940441,40.5569425],[-95.6785692,40.5625496],[-95.6557351,40.5465676],[-95.6523452,40.5380835],[-95.661687,40.517309],[-95.7003889,40.5050976],[-95.694301,40.4717892],[-95.6570705,40.4397553],[-95.6605103,40.41238],[-95.643934,40.386849],[-95.641027,40.366399],[-95.623728,40.346567],[-95.625204,40.334288],[-95.6539378,40.3224831],[-95.6566281,40.3108916],[-95.6452357,40.3058353],[-95.6106956,40.3137387],[-95.5637843,40.2979955],[-95.5519466,40.2887906],[-95.5565128,40.2692355],[-95.550455,40.2603406],[-95.4756731,40.2407658],[-95.4696827,40.2251968],[-95.482319,40.200667],[-95.4791981,40.1861553],[-95.436348,40.15872],[-95.4267187,40.1337852],[-95.40118,40.1278524],[-95.3932815,40.1186863],[-95.4207112,40.0610456],[-95.4108653,40.0357798],[-95.3895793,40.0266447],[-95.3533873,40.0310145],[-95.3154215,40.0120524],[-95.3052077,39.9867383],[-95.269073,39.9690458],[-95.2480444,39.9475982],[-95.2051291,39.9390436],[-95.2027261,39.905196],[-95.1852164,39.8998103],[-95.147365,39.9050778],[-95.1407561,39.8822929],[-95.1283106,39.8734667],[-95.0821337,39.8616746],[-95.0355514,39.8657337],[-95.0243466,39.8918637],[-95.0058588,39.900651],[-94.95154,39.900533],[-94.929574,39.888754],[-94.939767,39.85193],[-94.916918,39.836138],[-94.886933,39.833098],[-94.877044,39.823754],[-94.8762131,39.8094838],[-94.8861748,39.7935179],[-94.9283987,39.7892259],[-94.9364285,39.7752389],[-94.9107475,39.7574859],[-94.8709975,39.7738616],[-94.8588716,39.758513],[-94.8618595,39.7420974],[-94.8957227,39.72405],[-94.9445256,39.7448256],[-94.9627021,39.7419059],[-94.9707322,39.7320451],[-94.9731288,39.6845399],[-95.0274233,39.6657624],[-95.0548922,39.6275338],[-95.0469819,39.6052165],[-95.0502236,39.5880404],[-95.0651632,39.5764303],[-95.1036069,39.577718],[-95.1128144,39.561771],[-95.1105178,39.5445876],[-95.0886584,39.5207382],[-95.0545391,39.5024344],[-95.0415946,39.4671547],[-94.9874162,39.4448791],[-94.972171,39.4205144],[-94.9488969,39.4095296],[-94.9400096,39.3877921],[-94.9225833,39.3845479],[-94.8959521,39.3936032],[-94.8839939,39.3876148],[-94.881809,39.370432],[-94.9098851,39.3529551],[-94.9061808,39.3139717],[-94.8848128,39.2846981],[-94.8320592,39.2573292],[-94.8259734,39.2422631],[-94.8346867,39.2209376],[-94.8265139,39.2122098],[-94.7826686,39.2064598],[-94.7639382,39.1803227],[-94.7408454,39.1702376],[-94.7142054,39.1706536],[-94.6783084,39.1844195],[-94.6616454,39.1776095],[-94.6611815,39.161346],[-94.6534342,39.1547694],[-94.6093411,39.1611431],[-94.5889777,39.1525139],[-94.5902528,39.1379798],[-94.608066,39.1174771],[-94.6178753,36.4995],[-90.1521672,36.4979542],[-90.1600487,36.494345],[-90.1596505,36.4798971],[-90.1423931,36.4706961],[-90.1554906,36.463791],[-90.1413284,36.4668166],[-90.1337081,36.4536675],[-90.1344672,36.4360676],[-90.1442921,36.4259399],[-90.1341051,36.4228278],[-90.1386595,36.413823],[-90.1275981,36.4169096],[-90.115653,36.4056314],[-90.0806058,36.4007327],[-90.0632626,36.383598],[-90.0823723,36.3221476],[-90.064196,36.3024851],[-90.0788784,36.2899296],[-90.0756705,36.2811602],[-90.0835776,36.2720136],[-90.1169014,36.263584],[-90.1309991,36.2411668],[-90.126332,36.229073],[-90.1881355,36.205646],[-90.2113527,36.1829654],[-90.2205473,36.1844938],[-90.2354229,36.1594163],[-90.2355623,36.1392351],[-90.2723247,36.1162839],[-90.2933666,36.1143511],[-90.2998817,36.0980421],[-90.3202504,36.0889824],[-90.320465,36.0714064],[-90.3332489,36.0675932],[-90.337041,36.0470344],[-90.348435,36.041669],[-90.3517261,36.0248177],[-90.37789,35.9957227],[-89.706932,36.000981],[-89.688577,36.029238],[-89.678821,36.084636],[-89.666598,36.095802],[-89.601936,36.11947],[-89.591605,36.144096],[-89.607004,36.171179],[-89.69263,36.224959],[-89.703511,36.243412],[-89.695235,36.252766],[-89.652518,36.250692],[-89.602374,36.238106],[-89.5346797,36.2527857],[-89.539487,36.277368],[-89.578492,36.288317],[-89.611819,36.309088],[-89.620255,36.323006],[-89.605668,36.342234],[-89.531822,36.339246],[-89.519,36.3486],[-89.509722,36.373626],[-89.545255,36.427079],[-89.543406,36.43877],[-89.523427,36.456572],[-89.519501,36.475419],[-89.570071,36.544387],[-89.563185,36.568749],[-89.528271,36.5809943],[-89.479093,36.568206],[-89.465888,36.529946],[-89.493947,36.473559],[-89.486193,36.462114],[-89.464433,36.457747],[-89.420664,36.493959],[-89.376367,36.613868],[-89.365548,36.625059],[-89.3247212,36.6310753],[-89.27171,36.571387],[-89.236542,36.566824],[-89.213563,36.580119],[-89.197654,36.628936],[-89.15908,36.666352],[-89.171882,36.672526],[-89.169522,36.688878],[-89.19948,36.716045],[-89.199798,36.734217],[-89.184523,36.753638],[-89.169106,36.759473],[-89.130399,36.751702],[-89.119198,36.759802],[-89.116067,36.772423],[-89.12353,36.785309],[-89.171069,36.798119],[-89.178888,36.831368],[-89.1704,36.841522],[-89.137969,36.847349],[-89.117567,36.887356],[-89.0993482,36.9632219],[-89.125069,36.983499],[-89.1677729,36.9704635],[-89.187378,36.9748162],[-89.2005333,37.0160475],[-89.2362424,37.039753],[-89.2547823,37.0719614],[-89.260537,37.0642794],[-89.3077555,37.0697791],[-89.3055237,37.0486686],[-89.2582176,37.0196038],[-89.2636145,36.9991268],[-89.2802712,36.9881938],[-89.3220075,37.0156668],[-89.3786804,37.0395514],[-89.3854598,37.0560184],[-89.3756576,37.0806733],[-89.3791621,37.0954329],[-89.4238629,37.1362018],[-89.4614357,37.1976038],[-89.4676853,37.2201919],[-89.4585995,37.2483677],[-89.5005333,37.2517869],[-89.5207101,37.2836697],[-89.5119175,37.3110352],[-89.4902438,37.3322621],[-89.4337699,37.3460183],[-89.4208035,37.3856964],[-89.4377717,37.4337187],[-89.4858122,37.4849946],[-89.5168845,37.5368109],[-89.5196423,37.5827811],[-89.4878279,37.580458],[-89.4757574,37.5926364],[-89.5170558,37.6391112],[-89.5149712,37.6906283],[-89.5736856,37.7094393],[-89.6017304,37.728091],[-89.6168401,37.7494831],[-89.6633762,37.7499603],[-89.668032,37.7595037],[-89.6606172,37.7862017],[-89.669413,37.7995317],[-89.7401336,37.8467505],[-89.7861083,37.8514349],[-89.7975584,37.8619651],[-89.7990058,37.8812988],[-89.840705,37.9045358],[-89.9005222,37.8701687],[-89.9486631,37.8802846],[-89.9747941,37.9265276],[-89.9591646,37.9400563],[-89.9319723,37.9477149],[-89.9246483,37.9599848],[-89.9355605,37.959414],[-89.9409818,37.9709249],[-89.9999143,37.9643406],[-90.0320472,37.9953261],[-90.0697751,38.0122628],[-90.0706427,38.0196724],[-90.1302571,38.0627768],[-90.1731059,38.0695647],[-90.2176119,38.0928615],[-90.2412153,38.1105851],[-90.2839382,38.1653383],[-90.3327692,38.1901055],[-90.3599176,38.228008],[-90.3730499,38.2909542],[-90.3684349,38.339411],[-90.3430901,38.3864132],[-90.2894806,38.4325403],[-90.2735461,38.4945194],[-90.2513866,38.5412327],[-90.1844697,38.6116674],[-90.181244,38.6600763],[-90.2092273,38.7028112],[-90.2113956,38.721298],[-90.1564538,38.7793725],[-90.1217546,38.7999862],[-90.1098311,38.8477631],[-90.250248,38.919344],[-90.3088344,38.924457],[-90.4093302,38.9638886],[-90.4503448,38.967641],[-90.4695659,38.960963],[-90.5019379,38.9080328],[-90.5578578,38.8695024],[-90.583388,38.86903],[-90.6193599,38.8862059],[-90.6608041,38.9245796],[-90.6781808,38.9918487],[-90.7141916,39.0519976],[-90.6805381,39.0975145],[-90.7090874,39.1541553],[-90.7309993,39.2561806],[-90.7575597,39.2692194],[-90.7935293,39.3101847],[-90.9062824,39.3802191],[-90.9301496,39.3879558],[-90.940766,39.403984],[-91.03827,39.448436],[-91.059439,39.46886],[-91.0653786,39.4941158],[-91.100307,39.538695],[-91.153628,39.548248],[-91.168419,39.564928],[-91.181936,39.602677],[-91.229317,39.620853],[-91.27614,39.665759],[-91.370009,39.732524],[-91.363444,39.792804],[-91.377971,39.811273],[-91.432919,39.840554],[-91.446385,39.870394],[-91.443513,39.893583],[-91.420878,39.914865],[-91.41936,39.927717],[-91.465315,39.983995],[-91.4948508,40.0364609],[-91.4895788,40.0574429],[-91.51146,40.137394],[-91.506501,40.236304],[-91.490524,40.259498],[-91.489868,40.286048],[-91.46214,40.342414],[-91.42041,40.378014],[-91.4413989,40.3862698],[-91.4544048,40.3756007],[-91.4654908,40.3769547],[-91.4645834,40.3859298],[-91.4818816,40.3816475],[-91.4920962,40.396343],[-91.4806771,40.396815],[-91.4821921,40.4054175],[-91.4987256,40.4005387],[-91.5242266,40.4107222],[-91.5195677,40.4332926],[-91.533623,40.43832],[-91.5250374,40.4576188],[-91.5744328,40.4654563],[-91.5914183,40.4924711],[-91.6207547,40.5087597],[-91.6204197,40.5412264],[-91.6882403,40.557044],[-91.6863854,40.5811948],[-91.7292543,40.6136347],[-93.260612,40.580797],[-94.533878,40.570739],[-95.7660287,40.5853527],[-95.7741441,40.5734889]]]}}]}