{"type":"FeatureCollection","features":[{"type":"Feature","properties":{"id":"ms"},"geometry":{"type":"Polygon","coordinates":[[[-91.655009,31.2517783],[-91.644356,31.2343773],[-91.5905608,31.1948037],[-91.591502,31.1730813],[-91.624217,31.1336923],[-91.625994,31.1168593],[-91.567648,31.0701492],[-91.559907,31.0540822],[-91.578413,31.0239932],[-91.6374581,30.9992681],[-89.7494905,30.999056],[-89.7307471,31.0046321],[-89.7297797,30.9804797],[-89.7368059,30.9752475],[-89.7270091,30.9671685],[-89.7368059,30.9661412],[-89.7564743,30.9430345],[-89.7444561,30.9188623],[-89.764202,30.9118692],[-89.758719,30.8972822],[-89.7734844,30.8977147],[-89.7695283,30.881318],[-89.7792377,30.8753627],[-89.767789,30.8655402],[-89.7720863,30.8538656],[-89.78356,30.8558356],[-89.7806614,30.8453188],[-89.7924112,30.8502663],[-89.781444,30.8186906],[-89.7986749,30.8207953],[-89.8046385,30.8023578],[-89.815705,30.8035285],[-89.8032416,30.7913475],[-89.8121882,30.7872885],[-89.8177003,30.7960961],[-89.8194503,30.7832016],[-89.8297981,30.7818829],[-89.8287692,30.7685216],[-89.8352596,30.7707518],[-89.8255936,30.7579415],[-89.8333958,30.7534039],[-89.8223311,30.7543243],[-89.8286984,30.737893],[-89.8159133,30.7383932],[-89.83687,30.7346241],[-89.8275971,30.7319985],[-89.8364109,30.7271493],[-89.8255643,30.7273204],[-89.8308359,30.7154681],[-89.8425002,30.7205639],[-89.8467342,30.7051935],[-89.838065,30.7039991],[-89.8353204,30.6915641],[-89.847023,30.6695976],[-89.8377962,30.6717754],[-89.8522164,30.6618607],[-89.8404923,30.6606659],[-89.8404763,30.6519676],[-89.8330222,30.6572654],[-89.8205402,30.6461127],[-89.8231536,30.6392638],[-89.8137269,30.6378459],[-89.830745,30.6173642],[-89.8215315,30.6199511],[-89.8231298,30.6079653],[-89.8139204,30.6076842],[-89.8224717,30.6046461],[-89.8072388,30.5873781],[-89.815735,30.5857766],[-89.8078427,30.5678131],[-89.78692,30.5691486],[-89.8040885,30.5603251],[-89.7922687,30.5482028],[-89.8039186,30.5495446],[-89.7791444,30.5440543],[-89.767968,30.5133112],[-89.7573303,30.5183757],[-89.757348,30.4994148],[-89.7466803,30.5028548],[-89.7471926,30.4926637],[-89.7247929,30.492138],[-89.7057726,30.4650498],[-89.6834498,30.4516788],[-89.6773739,30.418162],[-89.6839475,30.4061739],[-89.6599863,30.3733065],[-89.6571542,30.3565228],[-89.629568,30.3390661],[-89.6338736,30.3213301],[-89.6260477,30.3142617],[-89.6405155,30.3067674],[-89.647396,30.2896524],[-89.6312108,30.2795299],[-89.6323184,30.2684393],[-89.6251591,30.264295],[-89.6317612,30.2570251],[-89.6141563,30.2445399],[-89.6156437,30.2231729],[-89.597761,30.213061],[-89.5747131,30.1818792],[-89.5347424,30.1950886],[-89.51477,30.1617249],[-89.494973,30.16075],[-89.416711,30.177639],[-89.260977,30.181998],[-89.183669,30.212155],[-89.096476,30.165829],[-88.8587052,30.1436769],[-88.8753902,30.1801443],[-88.8558746,30.1900147],[-88.7889215,30.1924256],[-88.7181817,30.1907067],[-88.595377,30.1703263],[-88.5548731,30.1739807],[-88.4593511,30.1474902],[-88.38667,30.1594632],[-88.4731014,31.8939025],[-88.243025,33.7956443],[-88.0977945,34.8920866],[-88.1548874,34.9229618],[-88.2000237,34.9955693],[-90.309297,34.9956588],[-90.296422,34.9763108],[-90.253969,34.9549528],[-90.244476,34.9375608],[-90.250095,34.9072848],[-90.3177667,34.8710299],[-90.303331,34.8588025],[-90.307384,34.8461598],[-90.323067,34.8463558],[-90.34038,34.8603218],[-90.414864,34.8318108],[-90.428754,34.8413648],[-90.42898,34.8671328],[-90.438313,34.8845458],[-90.459819,34.8919108],[-90.479872,34.8832288],[-90.483876,34.8612978],[-90.456935,34.8233478],[-90.47459,34.7931648],[-90.452479,34.7398627],[-90.488865,34.7236957],[-90.5183175,34.7327552],[-90.5205564,34.7533528],[-90.500994,34.7711517],[-90.514706,34.8017328],[-90.522892,34.8022298],[-90.544067,34.7911238],[-90.5438113,34.7492421],[-90.563544,34.7386357],[-90.568081,34.7247667],[-90.538974,34.6987477],[-90.471185,34.6990307],[-90.462552,34.6875407],[-90.466041,34.6742767],[-90.5081,34.6366467],[-90.532188,34.6274517],[-90.554129,34.6408357],[-90.552642,34.6596717],[-90.538061,34.6731967],[-90.549856,34.6954427],[-90.567334,34.6933357],[-90.588419,34.6709277],[-90.587224,34.6156967],[-90.540736,34.5480497],[-90.578493,34.5162606],[-90.588942,34.4910616],[-90.585477,34.4612116],[-90.56733,34.4403476],[-90.571145,34.4202836],[-90.613944,34.3906876],[-90.658542,34.3756696],[-90.666862,34.3485336],[-90.657488,34.3221956],[-90.669343,34.3129846],[-90.693129,34.3225346],[-90.6832221,34.3687815],[-90.765764,34.3620736],[-90.767732,34.3468366],[-90.744713,34.3248366],[-90.743082,34.3022215],[-90.765165,34.2804885],[-90.802928,34.2824295],[-90.828267,34.2736145],[-90.847808,34.2064945],[-90.89456,34.2243445],[-90.907082,34.2444565],[-90.929015,34.2445055],[-90.937152,34.2340745],[-90.93522,34.2190145],[-90.916048,34.1968805],[-90.887884,34.1819445],[-90.816572,34.1829875],[-90.808685,34.1758425],[-90.810884,34.1558675],[-90.825708,34.1419755],[-90.847168,34.1368485],[-90.91001,34.1654725],[-90.9543,34.1384625],[-90.958467,34.1250695],[-90.946323,34.1093385],[-90.918395,34.0930185],[-90.882628,34.0965795],[-90.870528,34.0804805],[-90.887837,34.0553674],[-90.89242,34.0268244],[-90.987948,34.0190024],[-90.9611403,33.9784859],[-90.967632,33.9632884],[-91.000108,33.9663924],[-91.01889,34.0031154],[-91.0465705,33.9923975],[-91.048367,33.9850424],[-91.075378,33.9835504],[-91.087921,33.9752994],[-91.084095,33.9561434],[-91.010318,33.9293164],[-91.073011,33.8574134],[-91.046849,33.8153293],[-91.000107,33.7995133],[-90.988466,33.7844943],[-91.000106,33.7691293],[-91.023285,33.7629553],[-91.053886,33.7786653],[-91.107318,33.7705833],[-91.132185,33.7833843],[-91.145112,33.7673043],[-91.146618,33.7324203],[-91.117733,33.7053063],[-91.059891,33.7147803],[-91.030402,33.6877303],[-91.034565,33.6729823],[-91.09404,33.6583153],[-91.13045,33.6744863],[-91.160866,33.7070603],[-91.212077,33.6982133],[-91.229015,33.6775073],[-91.219048,33.6614673],[-91.178311,33.6510733],[-91.139209,33.6256223],[-91.130445,33.6059983],[-91.134043,33.5944533],[-91.152148,33.5826852],[-91.17822,33.5825712],[-91.231418,33.5605572],[-91.226325,33.5411642],[-91.187367,33.5105162],[-91.1852037,33.5007004],[-91.208535,33.4685702],[-91.231661,33.4570642],[-91.235181,33.4389362],[-91.206807,33.4338102],[-91.177293,33.4436022],[-91.16936,33.4525932],[-91.175635,33.4717252],[-91.1708921,33.4924604],[-91.157319,33.4928872],[-91.125109,33.4728062],[-91.118495,33.4490802],[-91.131885,33.4300272],[-91.17628,33.4169432],[-91.199354,33.4182852],[-91.208702,33.4086832],[-91.204758,33.3987872],[-91.166304,33.3796732],[-91.1426627,33.3821567],[-91.1105388,33.4022341],[-91.086498,33.4515402],[-91.059828,33.4502212],[-91.062281,33.4212022],[-91.141793,33.3500402],[-91.141615,33.2995031],[-91.125539,33.2802191],[-91.128078,33.2684661],[-91.1001,33.2380891],[-91.07853,33.2832701],[-91.052369,33.2853791],[-91.043624,33.2746001],[-91.065629,33.2329461],[-91.0916037,33.2207075],[-91.0842347,33.1762813],[-91.0912299,33.1380363],[-91.1355078,33.1291598],[-91.1628395,33.1420969],[-91.1820388,33.1418903],[-91.2019086,33.1234633],[-91.1990333,33.106057],[-91.1499864,33.0819592],[-91.1202622,33.055346],[-91.129088,33.033518],[-91.162481,33.0192702],[-91.168973,32.992096],[-91.201842,32.961176],[-91.211597,32.919588],[-91.175405,32.899962],[-91.145076,32.905458],[-91.131304,32.926883],[-91.135517,32.979621],[-91.106581,32.988902],[-91.086802,32.97623],[-91.081913,32.944732],[-91.063875,32.922656],[-91.070602,32.888623],[-91.105631,32.85836],[-91.127886,32.8550229],[-91.145002,32.8428339],[-91.158336,32.8222679],[-91.164397,32.7857849],[-91.1351994,32.7340124],[-91.077176,32.7324979],[-91.0568663,32.725228],[-91.0531468,32.7143656],[-91.0719299,32.6845928],[-91.124746,32.6682569],[-91.149753,32.6440049],[-91.151318,32.6158829],[-91.141148,32.5971728],[-91.119854,32.5847588],[-91.049796,32.6071518],[-91.0373958,32.6377425],[-91.0256822,32.6465614],[-91.014286,32.6404459],[-91.002962,32.6225189],[-91.010228,32.6018908],[-91.080398,32.5564058],[-91.061685,32.5364118],[-90.994481,32.5062948],[-90.988278,32.4911538],[-91.004206,32.4821038],[-91.038106,32.4904038],[-91.093741,32.5490918],[-91.116708,32.5001028],[-91.116008,32.4831038],[-91.095308,32.4587048],[-91.052907,32.4384058],[-91.029606,32.4335058],[-90.998974,32.4501288],[-90.978547,32.4469958],[-90.966869,32.4354628],[-90.966255,32.4209908],[-90.99408,32.4038258],[-91.003506,32.3621088],[-90.986672,32.3517237],[-90.912363,32.3394177],[-90.9009892,32.3250969],[-90.916157,32.3035457],[-90.947834,32.2834497],[-90.964149,32.2968357],[-90.979475,32.2936657],[-90.982985,32.2702577],[-90.9691844,32.2520674],[-90.98029,32.2435647],[-90.983588,32.210493],[-90.995234,32.192762],[-91.0032246,32.1975458],[-91.0027996,32.2228631],[-91.039007,32.2423127],[-91.0612562,32.2185309],[-91.083708,32.2264137],[-91.1129838,32.2064435],[-91.133587,32.2133957],[-91.164171,32.1968517],[-91.174552,32.1549417],[-91.162822,32.1326577],[-91.1084009,32.125497],[-91.1038504,32.1409106],[-91.0923297,32.1446719],[-91.0527156,32.1237723],[-91.0483958,32.1491975],[-91.0583228,32.1807414],[-91.0248595,32.1622053],[-91.0028293,32.1617468],[-91.005006,32.1428157],[-91.0167899,32.1254104],[-91.0306762,32.1203706],[-91.0354697,32.0996023],[-91.0810256,32.0780259],[-91.0799909,32.0479644],[-91.103708,32.0502186],[-91.139309,32.0817176],[-91.16031,32.0703176],[-91.16131,32.0597186],[-91.15141,32.0492186],[-91.088108,32.0344186],[-91.0803853,32.0094036],[-91.1056446,31.9897298],[-91.1650917,31.9820058],[-91.1856197,31.9637935],[-91.19321,31.9356216],[-91.1840425,31.9343313],[-91.1809137,31.9172971],[-91.20101,31.9091226],[-91.235833,31.8754432],[-91.2675408,31.8623502],[-91.268112,31.8530245],[-91.2452792,31.8320706],[-91.251115,31.8164459],[-91.2669775,31.8087317],[-91.2825871,31.8150482],[-91.2939083,31.8599695],[-91.333814,31.8532245],[-91.345714,31.8428245],[-91.3654799,31.7606048],[-91.278607,31.7717142],[-91.2606247,31.7639179],[-91.2654851,31.7522148],[-91.2783586,31.744845],[-91.3692697,31.7466703],[-91.397915,31.7093275],[-91.401015,31.6203285],[-91.429616,31.6113285],[-91.474318,31.6253285],[-91.494478,31.6449765],[-91.512336,31.6346855],[-91.516567,31.6117815],[-91.488618,31.5874294],[-91.422716,31.5970284],[-91.403915,31.5897294],[-91.407915,31.5693294],[-91.437616,31.5461294],[-91.4784409,31.5303547],[-91.5140694,31.5316688],[-91.52292,31.5198044],[-91.5146994,31.5088008],[-91.513366,31.4443594],[-91.4707778,31.3993685],[-91.4679966,31.3744119],[-91.4787477,31.3598239],[-91.4969787,31.3521376],[-91.4927699,31.3635423],[-91.515978,31.3702494],[-91.532336,31.3902384],[-91.540647,31.4307214],[-91.565179,31.4234104],[-91.578334,31.3990304],[-91.568953,31.3775924],[-91.55568,31.3863764],[-91.546207,31.3824434],[-91.548967,31.3472183],[-91.50866,31.3150943],[-91.512085,31.2841403],[-91.518578,31.2752463],[-91.564192,31.2615963],[-91.641253,31.2668803],[-91.655009,31.2517783]]]}}]}