{"type":"FeatureCollection","features":[{"type":"Feature","properties":{"id":"nb"},"geometry":{"type":"Polygon","coordinates":[[[-69.0534663,47.2971796],[-69.0507453,47.2564795],[-69.0409003,47.2450109],[-68.9611869,47.2056858],[-68.941057,47.2060768],[-68.9000329,47.1777412],[-68.8114565,47.2151734],[-68.7644432,47.2220504],[-68.7170162,47.2405805],[-68.6871504,47.2444096],[-68.6598453,47.236124],[-68.6175116,47.2433726],[-68.5935435,47.2587701],[-68.5976749,47.2701547],[-68.5800475,47.2871149],[-68.5497976,47.2821407],[-68.516766,47.2960866],[-68.4750234,47.2971403],[-68.4487676,47.2820088],[-68.3778565,47.2873746],[-68.384714,47.3240813],[-68.3777219,47.3435518],[-68.3631321,47.354657],[-68.2847982,47.3602876],[-68.2649073,47.3522175],[-68.2344711,47.3553012],[-68.2145338,47.3396062],[-68.1545603,47.3251568],[-68.1522979,47.3097879],[-68.1358273,47.2957212],[-68.0822244,47.2710655],[-68.0739475,47.2593026],[-68.0198202,47.2386573],[-67.9896158,47.2098627],[-67.9572831,47.1996936],[-67.9286646,47.1562186],[-67.8907344,47.1264845],[-67.882917,47.1044034],[-67.7901984,47.0672248],[-67.7812562,45.943451],[-67.7506286,45.9176364],[-67.7653244,45.9097523],[-67.768053,45.8981117],[-67.8039094,45.8828971],[-67.7971144,45.8600245],[-67.755319,45.8233502],[-67.7806366,45.817722],[-67.8064545,45.7944122],[-67.8062621,45.7552541],[-67.7931635,45.7505164],[-67.7819873,45.7310905],[-67.809724,45.7294584],[-67.8031214,45.696055],[-67.8181093,45.6937492],[-67.8036458,45.6776648],[-67.7687184,45.6774875],[-67.7542953,45.6675793],[-67.74444,45.6729301],[-67.7272491,45.6626539],[-67.7179608,45.6676758],[-67.7345647,45.6889341],[-67.7095738,45.6813276],[-67.6752538,45.6307561],[-67.6455692,45.6133522],[-67.6391215,45.6251301],[-67.6083781,45.6061629],[-67.5192426,45.5876977],[-67.4990248,45.5866684],[-67.4879594,45.5958373],[-67.4932903,45.6013579],[-67.4500178,45.6024786],[-67.423194,45.5716065],[-67.4288714,45.5683499],[-67.4206642,45.5496908],[-67.4348645,45.528153],[-67.4162107,45.5013115],[-67.4501453,45.5102831],[-67.4515905,45.4990885],[-67.4635739,45.5083741],[-67.4712399,45.5008681],[-67.4637375,45.4970728],[-67.5037187,45.4867218],[-67.4821084,45.459413],[-67.4726794,45.423239],[-67.4612448,45.4222468],[-67.419237,45.3771226],[-67.4345281,45.3649831],[-67.4253519,45.3574339],[-67.4288481,45.3443598],[-67.4569081,45.3252762],[-67.4518373,45.3177027],[-67.4603058,45.3000395],[-67.4761082,45.2886554],[-67.4850791,45.2911745],[-67.489663,45.2821559],[-67.4764207,45.2754179],[-67.4641968,45.245137],[-67.436988,45.2227584],[-67.4292644,45.1934861],[-67.4005192,45.1776879],[-67.4050269,45.1600848],[-67.3408412,45.1250572],[-67.320819,45.1313497],[-67.3201058,45.1423071],[-67.2960203,45.1479355],[-67.3026869,45.1607225],[-67.2833616,45.1918685],[-67.247428,45.1808995],[-67.2272856,45.1634401],[-67.2027895,45.1713663],[-67.1586326,45.1618377],[-67.1125604,45.112593],[-67.0220089,44.953732],[-66.96871,44.9102064],[-66.9821229,44.8672758],[-66.9748525,44.8416237],[-66.9652927,44.8288782],[-66.9325503,44.8255236],[-66.8854174,44.7941927],[-66.9872222,44.6953611],[-67.0388885,44.6242505],[-67.1066667,44.6064722],[-67.1569444,44.5825833],[-67.2525278,44.4964444],[-67.3039167,44.3933889],[-67.3012314,44.3596866],[-67.2372534,44.324922],[-67.164833,44.3050345],[-67.074142,44.3005819],[-66.998068,44.3136735],[-66.9143286,44.2888796],[-66.8293289,44.2842542],[-66.763309,44.2936975],[-66.6976357,44.316101],[-66.680717,44.3074417],[-65.937983,44.9566588],[-65.0315832,45.2281504],[-65.0254664,45.2547347],[-65.0001685,45.272751],[-64.9337496,45.4494573],[-64.7692067,45.5599604],[-64.540133,45.6842717],[-64.4857506,45.7029581],[-64.45932,45.7465483],[-64.3667254,45.8262834],[-64.3520193,45.8530415],[-64.3233711,45.8549643],[-64.2793429,45.8321496],[-64.255022,45.8791928],[-64.220331,45.90172],[-64.1654353,45.9600092],[-64.1593473,45.9753964],[-64.0468657,45.9768797],[-64.0423877,46.0043268],[-64.0253749,46.0225315],[-63.5748248,46.1008149],[-63.7492995,46.1952362],[-63.8776267,46.2495769],[-64.2223227,46.333083],[-64.3816245,46.4126746],[-64.5326865,46.5582912],[-64.5519125,46.6771422],[-64.5464194,46.8727701],[-64.4557681,47.0564791],[-63.328871,47.6024791],[-63.625121,48.0000632],[-64.2737962,48.2206848],[-64.4468737,48.2100036],[-65.1116784,47.9211034],[-65.5361394,47.8286068],[-65.6064082,47.9336109],[-65.8581465,48.0222337],[-66.1608784,48.0489975],[-66.3034842,48.0328304],[-66.3482135,48.0783542],[-66.3920415,48.0892456],[-66.4876054,48.0817495],[-66.5038822,48.0759609],[-66.5300694,48.0481209],[-66.6713038,48.0181598],[-66.6990865,48.0053468],[-66.7267447,48.0093662],[-66.7984525,47.9912835],[-66.855432,48.0006281],[-66.9214104,47.9843466],[-66.9646839,47.9414031],[-66.9702922,47.9153344],[-66.9444092,47.9028112],[-66.9558831,47.8923938],[-66.9808427,47.8942961],[-67.0596908,47.935402],[-67.0727006,47.9216116],[-67.13277,47.914941],[-67.1401865,47.8934376],[-67.1666497,47.8965206],[-67.1753109,47.882734],[-67.2102856,47.8756545],[-67.2289555,47.8872571],[-67.2466497,47.8822555],[-67.2872971,47.8987133],[-67.2979648,47.8986924],[-67.2943444,47.8888936],[-67.3044214,47.8856894],[-67.3480366,47.895801],[-67.3383256,47.8882078],[-67.3366948,47.871853],[-67.3521831,47.8731317],[-67.3642304,47.8562987],[-67.3574824,47.846509],[-67.3741962,47.8439573],[-67.3898685,47.8502036],[-67.3793703,47.8558623],[-67.3933975,47.8596751],[-67.392869,47.8673326],[-67.4817058,47.9027811],[-67.5478238,47.9217851],[-67.5935501,47.9246268],[-67.6079589,47.9370253],[-67.6016879,47.9534935],[-67.6077617,47.9611338],[-67.5969734,47.9715514],[-67.6134038,47.9801662],[-67.5977438,47.9999447],[-68.1226045,47.999843],[-68.1227929,47.9163191],[-68.3823342,47.9161169],[-68.3834933,47.5531985],[-68.5692747,47.4271241],[-68.7996281,47.348942],[-69.0534663,47.2971796]]]}}]}