{"type":"FeatureCollection","features":[{"type":"Feature","properties":{"id":"nc"},"geometry":{"type":"Polygon","coordinates":[[[-84.3218293,34.988494],[-83.6199469,34.9866764],[-83.6200602,34.9920436],[-83.108566,35.0006769],[-82.783172,35.0859216],[-82.7762285,35.081165],[-82.7817314,35.0653052],[-82.7565112,35.0673604],[-82.7513598,35.0815335],[-82.7389166,35.0780952],[-82.7267333,35.0946738],[-82.7000708,35.100891],[-82.6976343,35.0959536],[-82.686765,35.108025],[-82.6945362,35.1161622],[-82.6817474,35.1279728],[-82.6748779,35.1272987],[-82.6735637,35.117262],[-82.6557088,35.1199412],[-82.6433481,35.1337829],[-82.6287569,35.1257772],[-82.6130951,35.1396539],[-82.5685963,35.1454666],[-82.5458869,35.1642225],[-82.5273821,35.1557951],[-82.5042,35.1658785],[-82.4954732,35.1620363],[-82.4781557,35.1759758],[-82.4549689,35.1769413],[-82.4573172,35.1639246],[-82.4398696,35.165743],[-82.4258892,35.1794016],[-82.4226228,35.1958874],[-82.392084,35.2153897],[-82.371234,35.1806494],[-82.3596436,35.1924892],[-82.3237532,35.1850878],[-82.2910804,35.2000858],[-81.034223,35.1492065],[-81.0463365,35.1467351],[-81.0520773,35.1334935],[-81.0380091,35.1244737],[-81.0328557,35.107385],[-81.0570822,35.0856874],[-81.0576744,35.061874],[-81.0416088,35.044658],[-80.9348164,35.1073997],[-80.781921,34.9358481],[-80.7974606,34.8198035],[-79.6764943,34.805065],[-79.3907286,34.5732023],[-78.5413536,33.8513675],[-78.4714055,33.8249828],[-78.367124,33.851597],[-78.270761,33.862778],[-78.124715,33.859707],[-78.066581,33.847985],[-78.052895,33.827432],[-78.01286,33.803863],[-77.99971,33.76713],[-77.953848,33.752878],[-77.917505,33.76382],[-77.896659,33.787547],[-77.894246,33.878655],[-77.863534,33.93467],[-77.830206,34.030283],[-77.785555,34.125171],[-77.753791,34.155023],[-77.74742,34.175594],[-77.691093,34.245744],[-77.516162,34.382443],[-77.418832,34.435923],[-77.295077,34.488968],[-77.160576,34.569026],[-76.999666,34.617009],[-76.904628,34.632339],[-76.749655,34.647665],[-76.6928,34.64295],[-76.614722,34.618278],[-76.612344,34.600128],[-76.572066,34.542544],[-76.547874,34.532839],[-76.514867,34.535142],[-76.483183,34.55636],[-76.439001,34.640288],[-76.315731,34.77603],[-76.142981,34.918833],[-76.02443,35.005364],[-75.985351,35.013977],[-75.88396,35.083968],[-75.749847,35.136212],[-75.595369,35.182827],[-75.532176,35.167149],[-75.487685,35.184994],[-75.468477,35.21519],[-75.426135,35.386923],[-75.40039,35.593512],[-75.411353,35.660061],[-75.437617,35.74696],[-75.666246,36.148924],[-75.711319,36.250163],[-75.749635,36.353606],[-75.790558,36.500156],[-75.797497,36.550916],[-80.122183,36.542646],[-81.6774572,36.588157],[-81.677036,36.570718],[-81.690236,36.568718],[-81.69003,36.552154],[-81.707963,36.536209],[-81.6971169,36.506092],[-81.6950811,36.4673346],[-81.7168934,36.4566355],[-81.720734,36.422537],[-81.7418835,36.4113262],[-81.7392971,36.395477],[-81.728666,36.3912931],[-81.7346002,36.3793789],[-81.722085,36.352089],[-81.7057759,36.3432178],[-81.707438,36.335171],[-81.7358128,36.3429405],[-81.7661018,36.3385173],[-81.800812,36.358073],[-81.841268,36.343321],[-81.9080942,36.3020179],[-82.0338533,36.1205285],[-82.0543022,36.1266461],[-82.0618482,36.1130933],[-82.0810982,36.1031283],[-82.1298497,36.1042497],[-82.1487784,36.149822],[-82.1774205,36.142322],[-82.213206,36.1590857],[-82.2453123,36.1312337],[-82.2545835,36.1359888],[-82.2668343,36.1269173],[-82.2894039,36.1357314],[-82.3359547,36.1145739],[-82.3527587,36.1164882],[-82.4098917,36.0828974],[-82.460587,36.007731],[-82.5579913,35.9538802],[-82.5804658,35.9652542],[-82.6107062,35.9672111],[-82.6044188,35.9874702],[-82.614932,36.0020501],[-82.5907938,36.0336423],[-82.6372314,36.0658266],[-82.750225,36.005988],[-82.7757623,36.0010572],[-82.7856945,35.9778479],[-82.7750898,35.9718351],[-82.8061728,35.9377644],[-82.8050871,35.9271435],[-82.8221668,35.9219152],[-82.8460432,35.9461758],[-82.8742958,35.9528363],[-82.8981852,35.9452374],[-82.9018214,35.9269635],[-82.9198349,35.928897],[-82.9010471,35.8927975],[-82.9068296,35.8839155],[-82.8962374,35.8791572],[-82.9208348,35.8681849],[-82.9163467,35.8416699],[-82.9458521,35.8243844],[-82.9617575,35.7909644],[-82.9921157,35.7739212],[-83.0743379,35.7901549],[-83.1206122,35.7664386],[-83.159587,35.7646596],[-83.1860833,35.7300128],[-83.2408301,35.7268624],[-83.2515098,35.7197599],[-83.2543256,35.6954516],[-83.2903069,35.6735034],[-83.2982463,35.6572613],[-83.3120793,35.6546185],[-83.3346579,35.6656644],[-83.3508173,35.6605508],[-83.3678005,35.6378467],[-83.3887295,35.6336295],[-83.3962461,35.6228274],[-83.4220427,35.6110552],[-83.4456859,35.6117581],[-83.4984096,35.5629387],[-83.5843756,35.5627067],[-83.6083396,35.5800209],[-83.6401347,35.5661694],[-83.7549884,35.5646218],[-83.7719026,35.5613945],[-83.8204695,35.5256596],[-83.8802756,35.5188204],[-83.9118828,35.4760706],[-83.9367236,35.4715589],[-83.9496528,35.4609456],[-83.9610797,35.4641441],[-83.972649,35.4473133],[-83.9919964,35.4405423],[-84.0012871,35.4233961],[-84.0234187,35.4116175],[-84.0085627,35.3910003],[-84.0073928,35.3716538],[-84.0388863,35.3482177],[-84.029268,35.3331049],[-84.0359088,35.3132179],[-84.0214975,35.3010928],[-84.0525461,35.2701926],[-84.0976467,35.2475655],[-84.1192916,35.252242],[-84.1269317,35.2408335],[-84.1479731,35.2468778],[-84.1835276,35.2399989],[-84.1994771,35.2438191],[-84.2113946,35.2656284],[-84.2240251,35.2690078],[-84.2902426,35.2253183],[-84.3218293,34.988494]]]}}]}