{"type":"FeatureCollection","features":[{"type":"Feature","properties":{"id":"nd"},"geometry":{"type":"Polygon","coordinates":[[[-104.048704,48.9998768],[-104.041662,47.862282],[-104.0456224,45.9452802],[-96.5613655,45.9352504],[-96.5778817,46.0271773],[-96.5591082,46.0585225],[-96.5543975,46.084065],[-96.5601572,46.116412],[-96.5802773,46.1510937],[-96.5766686,46.1744261],[-96.5891789,46.1814297],[-96.5837796,46.208201],[-96.5911142,46.2086904],[-96.5987292,46.2423165],[-96.5837154,46.2498071],[-96.6004022,46.2617504],[-96.5947551,46.2859649],[-96.6056937,46.2937228],[-96.5972978,46.2975866],[-96.6035861,46.3025297],[-96.5967768,46.3171123],[-96.6061385,46.3266042],[-96.5993787,46.329984],[-96.620245,46.340243],[-96.6166741,46.3473881],[-96.6294028,46.3543187],[-96.6451944,46.3506692],[-96.6431851,46.3619351],[-96.6671353,46.3755789],[-96.6677093,46.3912444],[-96.6750785,46.3909616],[-96.6805053,46.407108],[-96.6891135,46.4068336],[-96.6853549,46.4142115],[-96.7015499,46.4150632],[-96.6922477,46.4161114],[-96.6933127,46.4220851],[-96.7045808,46.4179951],[-96.6988555,46.4263826],[-96.7076549,46.4297866],[-96.7032408,46.4372648],[-96.721853,46.4398288],[-96.7122543,46.4413142],[-96.7218287,46.4488386],[-96.7131019,46.4501993],[-96.718259,46.4536099],[-96.711611,46.4597829],[-96.7230826,46.4667167],[-96.7146058,46.4722613],[-96.7388748,46.4787057],[-96.7333934,46.4969828],[-96.7424265,46.4999044],[-96.7334822,46.5034671],[-96.7404455,46.5111043],[-96.7342159,46.5121248],[-96.7452167,46.5201749],[-96.7367406,46.5241298],[-96.7453352,46.5249824],[-96.7461653,46.5348813],[-96.73826,46.5392944],[-96.7501163,46.5407585],[-96.7387147,46.5432278],[-96.7505442,46.5441313],[-96.7405687,46.5468377],[-96.7543973,46.5568177],[-96.7417428,46.5639617],[-96.7527744,46.5714127],[-96.7466152,46.5755462],[-96.7574999,46.5778301],[-96.747266,46.5820217],[-96.7609011,46.5818434],[-96.7507866,46.5851845],[-96.7626079,46.5893235],[-96.7559844,46.5953793],[-96.7715788,46.5962129],[-96.7682464,46.6063244],[-96.778832,46.6074595],[-96.7708433,46.6152704],[-96.7872595,46.6194389],[-96.7783319,46.6254282],[-96.7913181,46.6250061],[-96.7821738,46.6314034],[-96.7981961,46.6295729],[-96.7856846,46.6405842],[-96.8020946,46.6678096],[-96.7914363,46.6724351],[-96.7989176,46.6784765],[-96.787357,46.6770852],[-96.7947155,46.6832909],[-96.783863,46.6856702],[-96.7905763,46.6893931],[-96.7841382,46.7014161],[-96.7912362,46.703466],[-96.782071,46.7169584],[-96.7911881,46.7185152],[-96.7791023,46.7268468],[-96.7804062,46.7417563],[-96.7873961,46.7431909],[-96.7803822,46.7455786],[-96.7892539,46.7519809],[-96.7827381,46.7541058],[-96.7896769,46.7566773],[-96.7777953,46.7617275],[-96.7892409,46.7655518],[-96.7753969,46.7665621],[-96.7889417,46.7707595],[-96.7838506,46.7781537],[-96.7971114,46.7764729],[-96.7871358,46.7854958],[-96.8017696,46.7967021],[-96.7955802,46.8014562],[-96.803139,46.8052587],[-96.7956568,46.8073717],[-96.8026609,46.8117877],[-96.792169,46.8274225],[-96.7802938,46.8252174],[-96.793961,46.8332837],[-96.7844368,46.8334671],[-96.7868752,46.841078],[-96.7748363,46.8393273],[-96.7816568,46.8459777],[-96.7733678,46.8514884],[-96.7854781,46.8538413],[-96.7759701,46.854549],[-96.7839846,46.8620128],[-96.7759456,46.8742737],[-96.7812437,46.8796153],[-96.7689461,46.8785116],[-96.7763389,46.8969379],[-96.75449,46.9144556],[-96.7628853,46.9233789],[-96.7528482,46.9240149],[-96.7650607,46.9269107],[-96.756341,46.9286587],[-96.7624819,46.9347776],[-96.7769388,46.9256881],[-96.7912415,46.9275604],[-96.7914926,46.9455412],[-96.8040121,46.9469176],[-96.7953305,46.9658964],[-96.8227678,46.9702729],[-96.8210016,47.0033277],[-96.8393271,47.0069509],[-96.8287694,47.022022],[-96.8149285,47.023963],[-96.8271737,47.0316899],[-96.8124383,47.0386896],[-96.8225571,47.0369257],[-96.8176036,47.0470774],[-96.8274799,47.0464216],[-96.8176212,47.0521697],[-96.8302649,47.0606178],[-96.8197213,47.0616989],[-96.8196198,47.0753356],[-96.8292526,47.0742839],[-96.8158935,47.0791078],[-96.815853,47.088154],[-96.8272692,47.089233],[-96.8171849,47.0923599],[-96.8161915,47.1084812],[-96.8375005,47.1224176],[-96.8205216,47.1304195],[-96.8304923,47.1293258],[-96.8264102,47.1348723],[-96.8346359,47.1438856],[-96.8286478,47.1464189],[-96.8412467,47.1518559],[-96.8223592,47.1563414],[-96.8319896,47.1594309],[-96.8192968,47.1637919],[-96.8224843,47.1730789],[-96.8334841,47.1766437],[-96.8215554,47.1843135],[-96.8345613,47.1836784],[-96.8264222,47.1914811],[-96.8448475,47.1935796],[-96.8271738,47.201244],[-96.8371304,47.2072181],[-96.8303105,47.210283],[-96.833996,47.221934],[-96.8455874,47.2192614],[-96.8314545,47.2267111],[-96.841469,47.2332083],[-96.8286727,47.233322],[-96.8365354,47.2423865],[-96.8436616,47.2396126],[-96.8321549,47.2473688],[-96.8443957,47.2510839],[-96.8385463,47.2562608],[-96.8452501,47.2584706],[-96.8359714,47.2625225],[-96.8473654,47.2626164],[-96.8346055,47.2671562],[-96.8476896,47.271066],[-96.8400904,47.2755761],[-96.8437883,47.2931131],[-96.8306336,47.3057409],[-96.8468894,47.3162631],[-96.8287689,47.3280314],[-96.8457861,47.3280367],[-96.8306432,47.3387863],[-96.8471294,47.3477453],[-96.8373625,47.3555363],[-96.85054,47.3570911],[-96.8483618,47.3646202],[-96.8582063,47.3675299],[-96.8371118,47.3713215],[-96.8546218,47.3737803],[-96.8436877,47.3757514],[-96.8500457,47.3816081],[-96.8392441,47.3811653],[-96.8374654,47.389527],[-96.8489272,47.3935604],[-96.839133,47.3993792],[-96.8527144,47.4060937],[-96.8420726,47.4117377],[-96.8568183,47.4096693],[-96.8717628,47.4190062],[-96.8528161,47.4320296],[-96.8628588,47.436403],[-96.8558672,47.439221],[-96.8542682,47.4545057],[-96.8636191,47.4570099],[-96.8539081,47.4604026],[-96.8610033,47.472012],[-96.8519571,47.4790067],[-96.8685036,47.4783682],[-96.8521719,47.4859231],[-96.865097,47.4915523],[-96.8488941,47.4978965],[-96.8528544,47.5073021],[-96.8422669,47.5088134],[-96.8535173,47.5114721],[-96.8428394,47.5163252],[-96.8616331,47.5157452],[-96.8711659,47.5274702],[-96.8534744,47.5363902],[-96.8621198,47.5413377],[-96.845788,47.5380523],[-96.8602304,47.5458208],[-96.849896,47.5533081],[-96.8618478,47.5595676],[-96.8475629,47.5662512],[-96.8690332,47.5676516],[-96.8514705,47.5688395],[-96.8603933,47.5751725],[-96.8499089,47.5906375],[-96.858883,47.5957822],[-96.8510492,47.5985273],[-96.8570927,47.610698],[-96.8797276,47.6193072],[-96.874562,47.6282455],[-96.8882684,47.6388342],[-96.8823845,47.6425989],[-96.8898306,47.6693281],[-96.8852323,47.6739951],[-96.8963349,47.6741475],[-96.8994412,47.6899176],[-96.9095609,47.6892276],[-96.912294,47.7016934],[-96.920482,47.6995007],[-96.9118668,47.7068256],[-96.9200537,47.7171626],[-96.9311014,47.7159479],[-96.9184006,47.7238613],[-96.9327183,47.7371504],[-96.9292936,47.750546],[-96.9396579,47.7548445],[-96.9289291,47.7551295],[-96.938383,47.761149],[-96.9349445,47.7673781],[-96.9561079,47.7749885],[-96.9580418,47.7856351],[-96.9652919,47.7838705],[-96.9570685,47.7909907],[-96.9662681,47.7993426],[-96.9916418,47.8084567],[-96.9787967,47.8097987],[-96.9744194,47.8240563],[-96.9868291,47.8252815],[-96.9859207,47.8368066],[-96.9984163,47.84212],[-96.9938458,47.8457995],[-97.0028726,47.8692562],[-97.0231602,47.8739802],[-97.0178991,47.8785427],[-97.0254122,47.8845893],[-97.018782,47.890542],[-97.0253237,47.907648],[-97.0152198,47.906748],[-97.02378,47.915722],[-97.01773,47.919672],[-97.0553963,47.9475593],[-97.053009,47.9587467],[-97.0617735,47.964674],[-97.053089,47.990252],[-97.0640776,47.9982269],[-97.0627462,48.0144601],[-97.072239,48.019107],[-97.0720137,48.046987],[-97.1049518,48.0730845],[-97.099798,48.085884],[-97.1100643,48.0920616],[-97.1027296,48.0973252],[-97.1240964,48.1076859],[-97.1209103,48.1153357],[-97.1335184,48.1368766],[-97.1227829,48.1397101],[-97.14641,48.141906],[-97.1211294,48.1591526],[-97.14195,48.160202],[-97.1478093,48.1714845],[-97.1359325,48.1773929],[-97.1497504,48.1830556],[-97.1359495,48.1965457],[-97.141021,48.2042067],[-97.1288979,48.2088198],[-97.1394204,48.2163464],[-97.1177292,48.2104383],[-97.1377587,48.2215459],[-97.1518406,48.2187779],[-97.1206556,48.2253835],[-97.144057,48.2323469],[-97.133814,48.2392972],[-97.1466022,48.2445772],[-97.1250969,48.250064],[-97.1305749,48.2590393],[-97.1231759,48.2619225],[-97.1449982,48.2688498],[-97.1254094,48.270098],[-97.1165991,48.2796728],[-97.1239128,48.2910595],[-97.1361007,48.2868762],[-97.136723,48.2919303],[-97.12711,48.2987969],[-97.1122183,48.2962417],[-97.125801,48.3027508],[-97.1243634,48.3112429],[-97.1375813,48.3094447],[-97.1329894,48.318963],[-97.1157159,48.3233576],[-97.141787,48.3258259],[-97.1256508,48.3401338],[-97.1405854,48.3448974],[-97.1365299,48.3524128],[-97.1558632,48.3648457],[-97.1380319,48.3709754],[-97.1409502,48.3789716],[-97.1336331,48.382449],[-97.1511426,48.3822922],[-97.1632661,48.3930935],[-97.1311655,48.4065563],[-97.1391692,48.4179364],[-97.1524729,48.4127523],[-97.1524729,48.4187197],[-97.1224322,48.4173383],[-97.1458425,48.431293],[-97.1264019,48.4315492],[-97.1263375,48.4428241],[-97.1504344,48.4409736],[-97.128612,48.4587498],[-97.147645,48.4720387],[-97.1280326,48.4743291],[-97.162558,48.4785254],[-97.1400275,48.4846699],[-97.1429886,48.4921647],[-97.1316804,48.4886806],[-97.1494259,48.5009806],[-97.150134,48.5121263],[-97.1270241,48.5203845],[-97.1534385,48.5208819],[-97.1539106,48.5290676],[-97.1413364,48.5349645],[-97.1662702,48.5498244],[-97.1394267,48.555591],[-97.1754326,48.562351],[-97.1492757,48.5699479],[-97.1604123,48.5812771],[-97.143654,48.582358],[-97.142066,48.5925896],[-97.1537818,48.5949313],[-97.134191,48.6071205],[-97.1506705,48.6115044],[-97.1294274,48.6137317],[-97.1350064,48.6223989],[-97.1188702,48.618952],[-97.1308007,48.632199],[-97.1097078,48.6320997],[-97.1158018,48.6446343],[-97.0987429,48.6604825],[-97.1090641,48.6645075],[-97.1003522,48.6689148],[-97.1011247,48.682432],[-97.0902671,48.6845429],[-97.1105446,48.692348],[-97.1207585,48.7032816],[-97.1098794,48.7076714],[-97.1373882,48.7265289],[-97.1283116,48.7324451],[-97.1422162,48.7361672],[-97.1369161,48.7486477],[-97.1526017,48.7521988],[-97.1453275,48.7640105],[-97.1590819,48.7751407],[-97.1475377,48.7815602],[-97.174258,48.7943413],[-97.1622632,48.7999811],[-97.1811674,48.7978185],[-97.1585724,48.8109054],[-97.1900938,48.8147489],[-97.1781633,48.8219969],[-97.1848152,48.8324362],[-97.1736786,48.8394275],[-97.1827982,48.8466438],[-97.1731422,48.8503715],[-97.1791074,48.862753],[-97.1905444,48.8646869],[-97.1777771,48.8754137],[-97.1992347,48.8806069],[-97.2015393,48.8918783],[-97.1904242,48.8961387],[-97.2107466,48.9047464],[-97.211161,48.916649],[-97.2198641,48.9220603],[-97.2146714,48.9319008],[-97.2338331,48.9472639],[-97.2275889,48.9621996],[-97.238882,48.966573],[-97.238387,48.982631],[-97.2268164,48.9928461],[-97.2341893,48.9961005],[-97.2288219,49.0004614],[-104.048704,48.9998768]]]}}]}