{"type":"FeatureCollection","features":[{"type":"Feature","properties":{"id":"ne"},"geometry":{"type":"Polygon","coordinates":[[[-104.0531795,43.0012719],[-104.0531883,41.0016826],[-102.051577,41.00236],[-102.0517919,40.0032291],[-95.3080545,40.0000001],[-95.3154215,40.0120524],[-95.3500335,40.0298735],[-95.3895793,40.0266447],[-95.4153285,40.0405112],[-95.4207112,40.0610456],[-95.3932815,40.1186863],[-95.40118,40.1278524],[-95.4267187,40.1337852],[-95.436348,40.15872],[-95.4791981,40.1861553],[-95.482319,40.200667],[-95.4696827,40.2251968],[-95.4774355,40.2425826],[-95.550455,40.2603406],[-95.5565128,40.2692355],[-95.5519466,40.2887906],[-95.5637843,40.2979955],[-95.6106956,40.3137387],[-95.6452357,40.3058353],[-95.6566281,40.3108916],[-95.6539378,40.3224831],[-95.625204,40.334288],[-95.623728,40.346567],[-95.641027,40.366399],[-95.643934,40.386849],[-95.6605103,40.41238],[-95.6570705,40.4397553],[-95.694301,40.4717892],[-95.7003889,40.5050976],[-95.661687,40.517309],[-95.6523452,40.5380835],[-95.6557351,40.5465676],[-95.6785692,40.5625496],[-95.6940441,40.5569425],[-95.6950873,40.5330531],[-95.7086914,40.5213294],[-95.7174142,40.5278791],[-95.74302,40.5239018],[-95.7651572,40.5297943],[-95.763833,40.553873],[-95.7739294,40.5759398],[-95.753148,40.59284],[-95.749685,40.606842],[-95.768926,40.621264],[-95.7722125,40.6414583],[-95.786568,40.657253],[-95.842801,40.677496],[-95.852615,40.702262],[-95.885349,40.721093],[-95.883643,40.747831],[-95.834156,40.783016],[-95.845342,40.811324],[-95.837186,40.835347],[-95.847785,40.864328],[-95.815933,40.879846],[-95.809474,40.891228],[-95.839743,40.93278],[-95.8298907,40.9777757],[-95.867286,41.001599],[-95.859654,41.035695],[-95.882415,41.060411],[-95.862587,41.088399],[-95.881289,41.159898],[-95.86964,41.16883],[-95.846188,41.166698],[-95.842188,41.177421],[-95.863797,41.188245],[-95.916119,41.185279],[-95.9278,41.1997268],[-95.910629,41.234579],[-95.922304,41.26302],[-95.9149057,41.2716986],[-95.9295636,41.2820036],[-95.9280384,41.2984719],[-95.9044612,41.2994913],[-95.913202,41.2794643],[-95.902812,41.274378],[-95.876051,41.285739],[-95.871871,41.301813],[-95.885554,41.318097],[-95.925835,41.32158],[-95.956038,41.343063],[-95.954271,41.353508],[-95.92879,41.370096],[-95.93689,41.396387],[-95.929721,41.411331],[-95.933169,41.42943],[-95.920281,41.451566],[-95.936801,41.46519],[-95.962329,41.46281],[-96.011757,41.476212],[-96.019224,41.489296],[-95.992833,41.512002],[-96.001161,41.541146],[-96.027289,41.541081],[-96.040701,41.507076],[-96.05369,41.508859],[-96.09409,41.539265],[-96.093613,41.558271],[-96.081152,41.577289],[-96.117558,41.609999],[-96.095046,41.647365],[-96.099837,41.66103],[-96.120983,41.677861],[-96.121401,41.688522],[-96.111968,41.697773],[-96.082429,41.698159],[-96.073063,41.705004],[-96.106425,41.73789],[-96.079915,41.757895],[-96.077543,41.777824],[-96.064879,41.79623],[-96.107592,41.820685],[-96.110246,41.84885],[-96.142045,41.868865],[-96.161756,41.90182],[-96.136743,41.920826],[-96.144583,41.941544],[-96.129505,41.971673],[-96.156538,41.980137],[-96.1856418,41.9778085],[-96.1910177,41.9855692],[-96.183568,41.999987],[-96.194556,42.008662],[-96.215225,42.006701],[-96.225463,41.994734],[-96.240713,41.999351],[-96.238859,42.012315],[-96.221901,42.029558],[-96.238392,42.041088],[-96.263886,42.039858],[-96.275548,42.051976],[-96.279079,42.074026],[-96.267636,42.096177],[-96.2689,42.11359],[-96.310085,42.132523],[-96.347752,42.166806],[-96.348066,42.194747],[-96.35987,42.210545],[-96.323723,42.229887],[-96.328905,42.254734],[-96.365792,42.285875],[-96.375307,42.318339],[-96.407998,42.337408],[-96.417786,42.351449],[-96.408436,42.376092],[-96.4150186,42.4057454],[-96.3805093,42.4451233],[-96.3864247,42.4758816],[-96.3998552,42.4861517],[-96.4367736,42.4901086],[-96.4928208,42.4803673],[-96.5446626,42.5187475],[-96.5656911,42.5177669],[-96.593114,42.5041639],[-96.6174041,42.5078338],[-96.631492,42.524318],[-96.6386472,42.5526784],[-96.6840517,42.5766054],[-96.7110024,42.6071252],[-96.6956816,42.636904],[-96.6966258,42.652435],[-96.7042218,42.6565697],[-96.7931424,42.6662898],[-96.8034421,42.6769548],[-96.8064214,42.7019758],[-96.8348132,42.7040511],[-96.8656264,42.7294332],[-96.9079409,42.7326801],[-96.9473801,42.7170745],[-96.9569932,42.7258709],[-96.9604264,42.7482188],[-96.9774638,42.753387],[-97.065592,42.772189],[-97.130257,42.771541],[-97.150763,42.795566],[-97.210126,42.809296],[-97.220682,42.846782],[-97.25033,42.855612],[-97.289859,42.855499],[-97.3030021,42.8651451],[-97.3526294,42.8741909],[-97.3773063,42.8651411],[-97.41448,42.867034],[-97.444905,42.845932],[-97.519489,42.8600494],[-97.6266704,42.8465616],[-97.6268465,42.8642034],[-97.6603416,42.8348866],[-97.6759394,42.8313112],[-97.7213381,42.86241],[-97.7317021,42.862001],[-97.7556918,42.8407012],[-97.7770851,42.836626],[-97.8285835,42.8688425],[-97.8455136,42.8677731],[-97.8753612,42.8586508],[-97.8823993,42.829781],[-97.9199503,42.7894035],[-97.9627736,42.7697791],[-98.013046,42.762299],[-98.056625,42.770781],[-98.146933,42.839823],[-98.189765,42.841628],[-98.25181,42.872824],[-98.325864,42.8865],[-98.34623,42.902747],[-98.42074,42.931924],[-98.444145,42.929242],[-98.467356,42.947556],[-98.4985499,42.9985598],[-104.0531795,43.0012719]]]}}]}