{"type":"FeatureCollection","features":[{"type":"Feature","properties":{"id":"nh"},"geometry":{"type":"Polygon","coordinates":[[[-72.5572359,42.8538984],[-72.5471456,42.8400114],[-72.5417205,42.8074556],[-72.5089595,42.7800558],[-72.5153925,42.7656129],[-72.4904214,42.7723469],[-72.4584471,42.72696],[-71.2948705,42.6972433],[-71.2454264,42.7425463],[-71.2238257,42.7464861],[-71.1817862,42.7373414],[-71.18614,42.7909349],[-71.1666472,42.8088811],[-71.1328052,42.8214761],[-71.0644128,42.8062744],[-71.0449202,42.8486666],[-71.0311972,42.8592974],[-70.9670178,42.8688002],[-70.9146307,42.8866472],[-70.8856028,42.8828344],[-70.8477182,42.8608672],[-70.820239,42.8717876],[-70.7329801,42.8754003],[-70.7252234,42.9166135],[-70.6954649,42.9527646],[-70.6782538,42.931305],[-70.6474164,42.9171625],[-70.5983512,42.912139],[-70.5613593,42.9222206],[-70.6111518,42.9789898],[-70.630714,42.9852862],[-70.7011973,43.0452405],[-70.7018909,43.0722444],[-70.7567806,43.0803147],[-70.7659359,43.0925063],[-70.8270798,43.1273952],[-70.8336106,43.1461022],[-70.8235697,43.1742391],[-70.8282548,43.1877887],[-70.8192824,43.1929919],[-70.8098214,43.2258819],[-70.8178174,43.2381344],[-70.838131,43.2425525],[-70.8417436,43.2534008],[-70.882774,43.2728786],[-70.8833613,43.2833367],[-70.8964196,43.2851721],[-70.896773,43.2926345],[-70.9060086,43.2917679],[-70.8961779,43.2985817],[-70.9123542,43.3076965],[-70.9111093,43.319504],[-70.9303051,43.3291955],[-70.9307077,43.3364204],[-70.9561812,43.3341054],[-70.9728518,43.3487426],[-70.9884271,43.3895544],[-70.9822967,43.3982812],[-70.9869809,43.4137673],[-70.9609793,43.4383886],[-70.9666253,43.4512514],[-70.9611164,43.4691879],[-70.9761342,43.4784732],[-70.9675892,43.4809402],[-70.9546616,43.5093029],[-70.963802,43.5393701],[-70.9534716,43.5406441],[-70.9506394,43.551317],[-70.9727416,43.570138],[-71.0344058,44.7099589],[-71.0841694,45.3054741],[-71.1052842,45.2948778],[-71.1063672,45.2800075],[-71.1241194,45.2551411],[-71.1475683,45.2394375],[-71.1623372,45.2503475],[-71.1801067,45.2399381],[-71.1964358,45.2540533],[-71.2306507,45.2494258],[-71.2456206,45.2688],[-71.2594075,45.2720386],[-71.2649536,45.2937939],[-71.2805197,45.2945872],[-71.2842303,45.3023608],[-71.3364156,45.2727439],[-71.3602833,45.2703356],[-71.35654,45.2539044],[-71.3841436,45.2335083],[-71.4021647,45.2425972],[-71.4210481,45.2322025],[-71.4428239,45.2382931],[-71.4031294,45.2153011],[-71.3973478,45.2035219],[-71.4376217,45.1418869],[-71.4283997,45.1236853],[-71.4487872,45.1125669],[-71.4678872,45.0836514],[-71.4980422,45.0701875],[-71.4972044,45.0558022],[-71.5064503,45.0484822],[-71.4909572,45.0431686],[-71.5010194,45.0134458],[-71.4654662,45.0128706],[-71.4884131,45.0008418],[-71.5046084,45.0085701],[-71.5246311,45.0023117],[-71.5415654,44.9846182],[-71.5179387,44.96772],[-71.5243708,44.9644006],[-71.5164429,44.9642262],[-71.5154334,44.9418355],[-71.5227812,44.939901],[-71.5006484,44.9113526],[-71.4934231,44.9113978],[-71.4949998,44.9046938],[-71.5142374,44.8946611],[-71.511847,44.883948],[-71.5499658,44.8621336],[-71.5563261,44.847903],[-71.5512372,44.8374537],[-71.5772381,44.8152387],[-71.5686996,44.8066288],[-71.5732725,44.7909015],[-71.6328114,44.7510263],[-71.6265465,44.7283018],[-71.6174208,44.7285674],[-71.6191928,44.722069],[-71.5942463,44.6962041],[-71.5971693,44.6781042],[-71.5818215,44.6734969],[-71.5882805,44.6603767],[-71.5751308,44.6556684],[-71.5775681,44.6504904],[-71.5632597,44.6524906],[-71.5582488,44.6414271],[-71.5637984,44.6366607],[-71.5469921,44.629669],[-71.5570989,44.6294308],[-71.5463691,44.6230505],[-71.5553448,44.6253776],[-71.5537585,44.6060585],[-71.562656,44.601377],[-71.535065,44.588342],[-71.546187,44.5779598],[-71.5532093,44.5838217],[-71.5479384,44.5709654],[-71.5598699,44.5639526],[-71.5898762,44.5658591],[-71.5973178,44.5592957],[-71.5718443,44.5375904],[-71.5941972,44.5210755],[-71.5768334,44.5024035],[-71.5880418,44.506864],[-71.5858023,44.4990394],[-71.5937521,44.5012845],[-71.5996581,44.4860578],[-71.6176655,44.4859298],[-71.6296384,44.4740195],[-71.6347244,44.478347],[-71.6244427,44.4823845],[-71.6314646,44.4843519],[-71.6451407,44.4755577],[-71.6395537,44.4642411],[-71.6542248,44.4596451],[-71.6622014,44.4397768],[-71.6785228,44.4357225],[-71.6770739,44.4273751],[-71.7040473,44.4135865],[-71.7360283,44.4102536],[-71.7431493,44.4013907],[-71.762593,44.4070633],[-71.7954264,44.3984339],[-71.8036346,44.3916506],[-71.800388,44.3841804],[-71.8144846,44.3818036],[-71.8141118,44.3548357],[-71.8712839,44.3366937],[-71.9064014,44.3482327],[-71.9353895,44.3357768],[-71.9823657,44.3371694],[-72.0040079,44.3240561],[-72.0327952,44.3204841],[-72.0330527,44.3019594],[-72.0642096,44.2795749],[-72.0682059,44.269781],[-72.0582001,44.2700165],[-72.0596535,44.2565948],[-72.0478791,44.2389219],[-72.0661793,44.1900625],[-72.0386411,44.1566448],[-72.0420365,44.1370757],[-72.0332664,44.1319142],[-72.0555077,44.1108551],[-72.0484125,44.0968295],[-72.031265,44.1002542],[-72.0333508,44.0904661],[-72.0452789,44.0872766],[-72.0316452,44.0787719],[-72.0526941,44.0767488],[-72.0484837,44.069523],[-72.06827,44.0573731],[-72.0620162,44.0496071],[-72.0788535,44.0427913],[-72.0749027,44.0323903],[-72.0826661,44.0219067],[-72.0955201,44.0219022],[-72.0904884,44.0099744],[-72.1037209,44.0146482],[-72.1039422,44.0027046],[-72.1168884,43.9943772],[-72.1141122,43.9675473],[-72.0912195,43.9655091],[-72.1184554,43.9464128],[-72.1199574,43.9201112],[-72.1724286,43.8848741],[-72.168234,43.8690873],[-72.1848998,43.8640979],[-72.1825609,43.8340159],[-72.1889042,43.8215174],[-72.1834896,43.8086764],[-72.2055217,43.7849657],[-72.2054716,43.770982],[-72.2354018,43.7458458],[-72.2709889,43.7339364],[-72.2996683,43.7063744],[-72.3030858,43.6688578],[-72.3348601,43.6187479],[-72.3283244,43.6012948],[-72.3803469,43.5736252],[-72.3807243,43.5403805],[-72.3991188,43.5121352],[-72.380921,43.4931257],[-72.3821253,43.478615],[-72.3929763,43.4664066],[-72.4037965,43.3920572],[-72.4161719,43.3767801],[-72.4134081,43.3629297],[-72.3900159,43.3562398],[-72.4105403,43.3312738],[-72.395446,43.3129288],[-72.4162025,43.2702351],[-72.438907,43.2518757],[-72.4390628,43.201006],[-72.4504268,43.1928999],[-72.4439777,43.1795294],[-72.4525087,43.1734023],[-72.4573918,43.147468],[-72.4401261,43.136187],[-72.432705,43.1184196],[-72.4435169,43.1022429],[-72.4356826,43.0811687],[-72.4680151,43.0520094],[-72.4608239,43.0418403],[-72.462855,43.0257584],[-72.4434692,43.0071587],[-72.4630522,42.9968545],[-72.4620137,42.9825383],[-72.4733599,42.972294],[-72.5322719,42.9547865],[-72.5245695,42.9153794],[-72.5318719,42.8965092],[-72.5525435,42.8851811],[-72.5572359,42.8538984]]]}}]}