{"type":"FeatureCollection","features":[{"type":"Feature","properties":{"id":"nj"},"geometry":{"type":"Polygon","coordinates":[[[-75.5589658,39.4957644],[-75.5604145,39.4556394],[-75.3461575,39.2705462],[-75.1684258,39.055551],[-75.0166569,38.7911303],[-74.9053827,38.8799139],[-74.8283168,38.8938306],[-74.780664,38.9376863],[-74.7394898,38.9584953],[-74.7121254,39.0108642],[-74.68101,39.0507315],[-74.6457083,39.0800819],[-74.6399047,39.1194639],[-74.5650804,39.2121747],[-74.4791278,39.2751689],[-74.3654565,39.3260338],[-74.2812673,39.4011054],[-74.2424705,39.4685806],[-74.1785453,39.5374157],[-74.0310441,39.7431359],[-73.9983579,39.9755512],[-73.9113523,40.2944787],[-73.9063573,40.3690529],[-73.9241601,40.470931],[-73.90214,40.492121],[-73.977874,40.519095],[-74.225332,40.476578],[-74.253037,40.48666],[-74.258129,40.508717],[-74.246021,40.520958],[-74.247485,40.549377],[-74.214576,40.560533],[-74.199589,40.597846],[-74.2024,40.631592],[-74.19143,40.642025],[-74.055766,40.651475],[-74.02639,40.700102],[-74.014028,40.757551],[-73.963577,40.826642],[-73.929795,40.888724],[-73.893628,40.997165],[-74.330738,41.185489],[-74.6955425,41.3576501],[-74.7246824,41.346426],[-74.7548574,41.3460499],[-74.7666068,41.3283762],[-74.7939798,41.3216749],[-74.792254,41.3109683],[-74.8295765,41.2879856],[-74.846932,41.253318],[-74.8613502,41.2432126],[-74.8677718,41.2279536],[-74.8595786,41.2185382],[-74.8846206,41.1781516],[-74.9235803,41.1381627],[-74.982212,41.108245],[-74.9916965,41.0890517],[-74.968768,41.0959989],[-74.9699303,41.0859989],[-75.0124598,41.067227],[-75.0273987,41.0394356],[-75.1314171,40.9905536],[-75.1349591,40.9722517],[-75.1203575,40.9685382],[-75.1177352,40.9530445],[-75.0785553,40.9128585],[-75.0754473,40.8942054],[-75.0507821,40.8659841],[-75.0652428,40.8476211],[-75.0965109,40.8461432],[-75.0834595,40.8261032],[-75.1083096,40.7914205],[-75.1343174,40.7736998],[-75.1711556,40.7777278],[-75.1782599,40.7626427],[-75.1965431,40.7511927],[-75.1822087,40.7303214],[-75.2039994,40.6908231],[-75.1769349,40.6749477],[-75.197856,40.6546909],[-75.1886092,40.6232798],[-75.201876,40.6164782],[-75.1895284,40.5912835],[-75.1953089,40.5781463],[-75.1840234,40.5679474],[-75.1620053,40.5640672],[-75.1401834,40.575471],[-75.1173973,40.5734813],[-75.0679051,40.541244],[-75.0620097,40.4883458],[-75.0710433,40.4561481],[-75.0579979,40.4178382],[-75.0281389,40.4040363],[-74.9947165,40.410389],[-74.9668047,40.3983356],[-74.9404207,40.3382787],[-74.8709522,40.2978926],[-74.8400461,40.2484361],[-74.7722017,40.2161731],[-74.7551774,40.1863875],[-74.7231402,40.163054],[-74.7219656,40.1499284],[-74.7399711,40.1354461],[-74.7837502,40.1214403],[-74.8225703,40.1270693],[-74.8373371,40.101091],[-74.8606614,40.0839415],[-74.9279733,40.0706184],[-74.9689407,40.0527594],[-75.013776,40.020166],[-75.04709,40.009941],[-75.071264,39.980493],[-75.1297697,39.9594562],[-75.1361415,39.9334288],[-75.1283739,39.9096944],[-75.1431616,39.8848859],[-75.187889,39.881095],[-75.2469736,39.8539808],[-75.3414798,39.8461385],[-75.4140163,39.8016236],[-75.4052809,39.7962274],[-75.4425909,39.7803779],[-75.4634481,39.7616752],[-75.4771846,39.7157873],[-75.4868843,39.7157729],[-75.507348,39.6971834],[-75.5168244,39.6656106],[-75.559068,39.6296429],[-75.5536607,39.6019024],[-75.5151737,39.5808453],[-75.5115578,39.5679638],[-75.5336636,39.5412354],[-75.5270575,39.5340784],[-75.5279216,39.4980825],[-75.5589658,39.4957644]],[[-74.0462749,40.6893396],[-74.0438883,40.6901864],[-74.0436327,40.688777],[-74.0462749,40.6893396]],[[-74.0399309,40.6985897],[-74.0389358,40.6996549],[-74.0383723,40.6986686],[-74.0399309,40.6985897]]]}}]}