{"type":"FeatureCollection","features":[{"type":"Feature","properties":{"id":"nl-island"},"geometry":{"type":"MultiPolygon","coordinates":[[[[-57.15,52.00007576763177],[-57.1074889,52.0000758],[-57.1074889,51.3771358],[-57.15,51.32559821263773],[-57.15,47.20365601119241],[-57.0898213,47.1876135],[-56.9742688,47.1749277],[-56.8889422,47.1847998],[-56.8092287,47.2122187],[-56.7534382,47.2473152],[-56.6190662,47.3645601],[-56.5419805,47.3854414],[-56.4958183,47.3637554],[-56.255,47.3052778],[-56.105,47.1005556],[-56.1297222,46.9311111],[-56.1008154,46.8593247],[-55.9825,46.8027778],[-55.9244444,46.6988889],[-55.9033333,46.6461111],[-55.9079863,46.643418],[-55.7253444,46.6385934],[-55.5802568,46.6576863],[-55.3799547,46.6704815],[-54.2961396,46.6242851],[-54.2241732,46.5940703],[-53.6584837,46.4200789],[-53.5519509,46.4102459],[-53.1415421,46.4250414],[-53.0714325,46.4344744],[-52.9705369,46.4625728],[-52.8585787,46.522538],[-52.6944597,46.6893545],[-52.6230868,46.8149084],[-52.603863,46.8997922],[-52.5653299,46.9742712],[-52.5603344,47.0362889],[-52.5308686,47.116335],[-52.4720615,47.237784],[-52.3891562,47.3546722],[-52.3521111,47.4253027],[-52.3269056,47.494289],[-52.3265916,47.5508261],[-52.3726625,47.6965838],[-52.4286806,47.8176215],[-52.4548936,47.8573148],[-52.4908855,47.8908546],[-52.4910229,48.1494888],[-52.5092804,48.2154001],[-52.6972131,48.5713712],[-52.6978589,48.6314414],[-52.7249145,48.6931594],[-52.768184,48.7578998],[-52.8245406,48.8102921],[-53.091013,49.2696347],[-53.1949548,49.3856381],[-53.340417,49.4617166],[-53.4983494,49.6999747],[-53.7424429,49.9161437],[-53.8117452,49.9575543],[-53.9340422,50.0073432],[-54.0032331,50.0247576],[-55.2062413,50.1845464],[-55.3395047,50.2638212],[-55.14794,50.7398695],[-55.138799,50.7870091],[-55.143795,50.8270827],[-55.1578723,50.8607606],[-55.2197321,50.9275526],[-55.205784,50.9881772],[-55.2233723,51.0524165],[-55.2685643,51.106159],[-55.3354681,51.1479142],[-55.2087211,51.2845773],[-55.0414081,51.5268706],[-55.0302299,51.5654282],[-55.0305956,51.6002678],[-55.0827104,51.7855171],[-55.0324836,51.8384701],[-54.9820707,51.9159802],[-54.9606085,51.9584799],[-54.9520074,52.0061086],[-54.9718494,52.0784365],[-55.0203094,52.136308],[-55.1060549,52.185384],[-55.2050993,52.2113489],[-55.2305285,52.3029034],[-55.3121371,52.4977904],[-55.4219363,52.7134304],[-55.4527764,52.8822419],[-55.4190803,52.9403835],[-55.3611927,53.1702113],[-55.2744141,53.4065958],[-55.2763882,53.4672492],[-55.3070295,53.5227273],[-55.6629904,53.8481504],[-56.2814309,54.1363864],[-56.4772676,54.3188568],[-56.5236829,54.5092127],[-56.564336,54.5604955],[-56.6288622,54.6042983],[-56.5868241,54.6419689],[-56.5606687,54.6832296],[-56.5506103,54.726999],[-56.5573474,54.7707971],[-56.598369,54.832872],[-56.6675494,54.881493],[-56.772326,54.9182968],[-56.8912683,54.9316861],[-57.0104996,54.9206855],[-57.1142324,54.8874938],[-57.15,54.89940730505634],[-57.15,52.00007576763177]]],[[[-53.4940477,49.7211845],[-53.4757704,49.6818235],[-53.4459989,49.6452363],[-53.4080799,49.6147466],[-53.3088737,49.5708455],[-53.1868798,49.55418],[-53.0643446,49.5693983],[-52.9636979,49.6118869],[-52.8955388,49.6761293],[-52.8771451,49.713464],[-52.8702661,49.7547944],[-52.8774168,49.798951],[-52.8954061,49.8363769],[-52.9632178,49.90091],[-53.0642622,49.943684],[-53.1870383,49.9588084],[-53.3058497,49.9443678],[-53.4068956,49.9015937],[-53.4752303,49.8366201],[-53.4932197,49.7991942],[-53.4995881,49.7582403],[-53.4940477,49.7211845]]]]}}]}