{"type":"FeatureCollection","features":[{"type":"Feature","properties":{"id":"nl-lab"},"geometry":{"type":"Polygon","coordinates":[[[-67.8160064,54.0147628],[-67.7831287,54.0086668],[-67.7873244,54.0000368],[-67.7765923,54.0000275],[-67.7762276,53.9923088],[-67.7545091,54.0000051],[-67.7336079,53.9797393],[-67.6812677,53.9719098],[-67.6845467,53.9662703],[-67.6619515,53.9522857],[-67.679567,53.9407309],[-67.669259,53.9302841],[-67.5963059,53.9216948],[-67.6091646,53.9019686],[-67.5945797,53.893061],[-67.6157311,53.8906959],[-67.6052721,53.8773148],[-67.6091189,53.8692474],[-67.5927668,53.8621633],[-67.5805049,53.8682341],[-67.5794926,53.8609378],[-67.5642588,53.8586034],[-67.569071,53.8411434],[-67.49779,53.8366907],[-67.4996083,53.8268564],[-67.536033,53.8012091],[-67.6022266,53.7954654],[-67.6041951,53.7901616],[-67.5572825,53.7802893],[-67.5674761,53.7708501],[-67.6033062,53.7626986],[-67.5,53.7572674],[-67.5,53.7460359],[-67.5175269,53.7352103],[-67.5159682,53.7287439],[-67.5063191,53.7190615],[-67.4651093,53.7088826],[-67.4337421,53.7064994],[-67.440621,53.7241934],[-67.417791,53.7251379],[-67.4255625,53.7042164],[-67.3968497,53.6828793],[-67.3963309,53.6772984],[-67.4142114,53.6748557],[-67.3894215,53.6422587],[-67.3947309,53.6146543],[-67.3736939,53.6083027],[-67.3769358,53.5972098],[-67.3135498,53.5841521],[-67.3237072,53.5590011],[-67.3186608,53.5529653],[-67.2862965,53.5435228],[-67.2574059,53.5573886],[-67.2187691,53.5303403],[-67.18908,53.5327526],[-67.1891324,53.5507559],[-67.1800153,53.5530344],[-67.1298867,53.5302087],[-67.0948059,53.5271005],[-67.0620248,53.5370818],[-67.0359281,53.5287583],[-67.0066532,53.5000076],[-66.9856293,53.496146],[-66.9962964,53.4846175],[-66.9958222,53.46424],[-66.937916,53.4731373],[-66.9249522,53.4544961],[-66.9350064,53.4415353],[-66.9244479,53.4186609],[-66.8944793,53.4199391],[-66.8900909,53.4130615],[-66.9067078,53.3952942],[-66.9228724,53.3999349],[-66.9463197,53.3909317],[-66.9661033,53.3646218],[-66.9846917,53.3727461],[-67.0057272,53.3679656],[-67.0136759,53.3618874],[-66.9969518,53.3526209],[-67.0270506,53.3346461],[-67.0188142,53.3200805],[-66.9868922,53.325156],[-66.9493635,53.3051511],[-66.9761925,53.2455862],[-66.9780617,53.2132633],[-66.9596173,53.1816928],[-66.9940009,53.1744679],[-67.0135298,53.160025],[-67.0141228,53.1521396],[-66.9951823,53.1384506],[-66.9586954,53.1371103],[-66.9908732,53.1174611],[-66.9844299,53.0879093],[-66.9895314,53.0843568],[-67.0684907,53.0788746],[-67.0689739,53.1008299],[-67.046786,53.1184643],[-67.0489226,53.1395492],[-67.0752554,53.1393129],[-67.1162019,53.1051119],[-67.125088,53.1249603],[-67.1410822,53.128902],[-67.1344465,53.1378606],[-67.154228,53.1472255],[-67.2176947,53.1496638],[-67.2629683,53.1812906],[-67.3026698,53.158925],[-67.2880761,53.1402836],[-67.351938,53.1141754],[-67.3838223,53.0881706],[-67.3875398,53.07788],[-67.3744596,53.0476557],[-67.3610646,53.0294306],[-67.3494399,53.0307081],[-67.3573078,53.0142745],[-67.3454077,52.9809622],[-67.3152543,52.9870489],[-67.308302,52.9778788],[-67.2876565,52.9915318],[-67.2771923,52.9837405],[-67.2335062,52.9828997],[-67.2748713,52.9600503],[-67.2949932,52.9578701],[-67.3053197,52.9664479],[-67.3342929,52.9551803],[-67.3475502,52.9307274],[-67.3329086,52.9072196],[-67.3418573,52.896214],[-67.3231888,52.8761689],[-67.3019449,52.8869693],[-67.2536722,52.8739924],[-67.2433234,52.8522548],[-67.2304651,52.8484392],[-67.2312882,52.8405827],[-67.188846,52.8346275],[-67.1730078,52.8180319],[-67.1588734,52.8231797],[-67.1494948,52.8544428],[-67.1314536,52.8504962],[-67.1248991,52.8608133],[-67.0631508,52.8754568],[-67.0512274,52.8662117],[-67.0570456,52.8592647],[-67.0469965,52.8446629],[-67.0641233,52.8212258],[-67.0552392,52.8115157],[-67.0539015,52.7888997],[-67.0693664,52.7797724],[-67.058248,52.7710592],[-67.0422015,52.7713305],[-67.034662,52.7519295],[-67.0175181,52.7549031],[-67.0247566,52.7473375],[-67.0188398,52.744199],[-66.9877661,52.7639273],[-66.9768623,52.7541262],[-66.952529,52.7595936],[-66.9432532,52.7340016],[-66.9246865,52.7273177],[-66.902627,52.6946519],[-66.898817,52.6766639],[-66.8733473,52.6824315],[-66.8647812,52.6716954],[-66.8492781,52.6750593],[-66.8534169,52.6895699],[-66.8951915,52.7306974],[-66.8543606,52.7197168],[-66.8565307,52.7526105],[-66.8703451,52.7589639],[-66.8572265,52.7687822],[-66.8367661,52.7482278],[-66.8242597,52.7192747],[-66.8148264,52.7110514],[-66.802279,52.7160048],[-66.7831712,52.6708763],[-66.7622622,52.6671212],[-66.7593345,52.6788281],[-66.7718409,52.6949894],[-66.7497111,52.7027587],[-66.7581924,52.7226293],[-66.7518765,52.7458578],[-66.7870544,52.7968545],[-66.7754469,52.8018745],[-66.7597913,52.782763],[-66.7166878,52.7608506],[-66.6949881,52.764681],[-66.6756155,52.7925853],[-66.6690046,52.7827941],[-66.6462989,52.782496],[-66.6683574,52.8240945],[-66.6412433,52.8509412],[-66.6551712,52.8660251],[-66.6468852,52.8775467],[-66.6604766,52.8863411],[-66.6492266,52.9005609],[-66.6312949,52.8989619],[-66.6498267,52.9264518],[-66.633979,52.9316271],[-66.6320944,52.9544128],[-66.6074018,52.9530071],[-66.6002287,52.9421919],[-66.5752213,52.936895],[-66.5622639,52.9422624],[-66.5369858,52.9346694],[-66.5301012,52.9603805],[-66.5147308,52.9677307],[-66.5118325,52.9532847],[-66.4994402,52.9493445],[-66.4883202,52.9568729],[-66.4934385,52.96572],[-66.4853348,52.9698078],[-66.495071,52.9787925],[-66.4885844,52.9885629],[-66.4667462,52.9940989],[-66.4765565,53.004028],[-66.4708561,53.006908],[-66.4759692,53.0375747],[-66.4585516,53.0332917],[-66.460088,53.0528368],[-66.4446175,53.0418577],[-66.4366294,53.0473447],[-66.4019579,53.0208263],[-66.3774523,53.014639],[-66.3647682,53.0213319],[-66.350013,53.0082681],[-66.3398123,52.9840457],[-66.3221062,52.9706383],[-66.3194573,52.9340242],[-66.2735247,52.8961205],[-66.2778077,52.8825861],[-66.2575248,52.8674719],[-66.2730476,52.8699964],[-66.2932266,52.8603144],[-66.2822893,52.842206],[-66.2896753,52.8352123],[-66.3333729,52.8636837],[-66.3655956,52.8596636],[-66.3875597,52.8775461],[-66.4093676,52.872133],[-66.4171246,52.8513476],[-66.3797438,52.8211389],[-66.3754608,52.8087467],[-66.3853731,52.7956682],[-66.345855,52.7948116],[-66.3502767,52.7814495],[-66.322351,52.7471405],[-66.3246863,52.7356],[-66.3021353,52.7239998],[-66.3319779,52.7084657],[-66.3365139,52.679799],[-66.3161022,52.6793982],[-66.3220413,52.6714603],[-66.2958039,52.6464566],[-66.3007151,52.6352002],[-66.2727165,52.6347587],[-66.2894577,52.6241767],[-66.2782075,52.621664],[-66.2862596,52.6043034],[-66.303287,52.601625],[-66.3855108,52.6822553],[-66.410429,52.6697325],[-66.4224599,52.6425654],[-66.4404108,52.6349956],[-66.4270856,52.6185231],[-66.422691,52.595552],[-66.3901944,52.5782626],[-66.371292,52.5474247],[-66.3774595,52.5398868],[-66.3716346,52.5292647],[-66.4022435,52.5309319],[-66.3642107,52.5068217],[-66.354197,52.4676963],[-66.3656982,52.4693453],[-66.3795725,52.4848354],[-66.3938493,52.4844357],[-66.3850352,52.4588519],[-66.356595,52.4317787],[-66.3629361,52.4220581],[-66.3718973,52.4238426],[-66.3732404,52.4150071],[-66.343495,52.3975289],[-66.3428875,52.3660131],[-66.3620977,52.3503483],[-66.390541,52.3796066],[-66.3961028,52.3692383],[-66.4111527,52.3733054],[-66.4225505,52.388264],[-66.4313115,52.3789591],[-66.4457026,52.3790732],[-66.4347012,52.3662408],[-66.4381999,52.3540739],[-66.4744496,52.3573621],[-66.4928729,52.3402404],[-66.4833932,52.3301324],[-66.4872193,52.3170549],[-66.4505351,52.2957288],[-66.4634238,52.2923183],[-66.4645169,52.2845253],[-66.4449913,52.2828187],[-66.4331064,52.2699845],[-66.4347771,52.261441],[-66.4521298,52.2650483],[-66.4705457,52.2543405],[-66.4544081,52.2472779],[-66.4287851,52.2163581],[-66.4051676,52.2280361],[-66.4045854,52.217917],[-66.377174,52.2043827],[-66.357848,52.1755508],[-66.3619489,52.1666656],[-66.3830987,52.1641215],[-66.3694719,52.1451123],[-66.3292559,52.1493888],[-66.3354452,52.1428958],[-66.324293,52.1319138],[-66.2701286,52.1481627],[-66.2733122,52.1802947],[-66.2956251,52.2113497],[-66.2902571,52.2174602],[-66.3027352,52.240308],[-66.3014612,52.2606437],[-66.3156578,52.2851155],[-66.311876,52.2914143],[-66.2841464,52.2887801],[-66.2912715,52.311037],[-66.2620853,52.3104615],[-66.2484538,52.3045001],[-66.2432579,52.2727398],[-66.2100651,52.2559353],[-66.1952218,52.2251386],[-66.1735751,52.2132939],[-66.1652594,52.2342918],[-66.1569437,52.2347095],[-66.0982368,52.1959556],[-66.0693098,52.1476182],[-66.0727868,52.1248975],[-66.0907815,52.1056314],[-66.0928284,52.089631],[-66.0689191,52.1022269],[-66.049547,52.087388],[-66.0207147,52.0827295],[-66.0103754,52.0696997],[-65.9982181,52.0708835],[-65.9882178,52.0564754],[-65.9745121,52.055733],[-65.9630576,52.07534],[-65.9773738,52.0881053],[-65.9687443,52.0974299],[-65.9734066,52.1122514],[-65.9549315,52.1009545],[-65.9258569,52.1026178],[-65.8980484,52.077384],[-65.888398,52.087799],[-65.8955135,52.0989657],[-65.8730578,52.1209119],[-65.8179151,52.115416],[-65.8031894,52.1275699],[-65.8042073,52.1123281],[-65.7787373,52.1032905],[-65.7675874,52.1156649],[-65.7571527,52.1087084],[-65.7505819,52.1132084],[-65.7329525,52.084217],[-65.7207481,52.0973581],[-65.6853084,52.1040581],[-65.6649701,52.1207998],[-65.6615195,52.1007328],[-65.6388909,52.0824473],[-65.6491021,52.0774589],[-65.6481972,52.0638595],[-65.6403075,52.0594197],[-65.6759333,52.0415909],[-65.6629937,52.029439],[-65.6784022,52.0070811],[-65.6444211,51.9919303],[-65.6336807,51.9982602],[-65.6362171,52.0152734],[-65.6243399,52.0287241],[-65.621409,52.0482605],[-65.5777849,52.0359213],[-65.5389302,52.0451742],[-65.5270529,52.081695],[-65.5028983,52.0967756],[-65.5044994,52.1116805],[-65.4864828,52.1099812],[-65.4944771,52.0633383],[-65.4779529,52.0596401],[-65.4893303,52.0516724],[-65.4757105,52.0339269],[-65.4461566,52.0092976],[-65.4252937,52.013363],[-65.4052915,51.9668896],[-65.3848743,51.964273],[-65.3649445,51.9829508],[-65.3528195,51.979951],[-65.3567219,51.963731],[-65.3418256,51.9390338],[-65.361124,51.9158165],[-65.3900948,51.9124938],[-65.3968234,51.9003277],[-65.3910964,51.8800811],[-65.3755664,51.86501],[-65.3586074,51.867359],[-65.3484123,51.8463849],[-65.3497278,51.8223074],[-65.3127131,51.834441],[-65.3090525,51.8502091],[-65.3216377,51.8641266],[-65.3204066,51.8736183],[-65.2994762,51.8794987],[-65.272779,51.8740969],[-65.2501114,51.8557322],[-65.2605979,51.8405123],[-65.2587263,51.8269403],[-65.2412243,51.8333176],[-65.241582,51.8237761],[-65.2045361,51.8131241],[-65.1967546,51.823457],[-65.1734628,51.822802],[-65.1634318,51.7891791],[-65.1827864,51.7693512],[-65.0892255,51.7482448],[-65.0511814,51.7711336],[-65.0306831,51.7626553],[-65.0064409,51.7656867],[-64.9999207,51.758525],[-65.0156331,51.7557268],[-64.9885195,51.7468968],[-64.9909404,51.7400672],[-64.9695496,51.720911],[-64.9497575,51.7179647],[-64.9284428,51.7174311],[-64.9223291,51.7352998],[-64.9110376,51.7368408],[-64.9311137,51.7467867],[-64.9170603,51.758774],[-64.942098,51.7604957],[-64.9265006,51.7792688],[-64.8856594,51.7807843],[-64.8602085,51.7624103],[-64.7978207,51.7811985],[-64.8041411,51.7711674],[-64.7714035,51.755434],[-64.737235,51.7644796],[-64.7235496,51.7554174],[-64.7017589,51.7566272],[-64.697029,51.7522539],[-64.7101828,51.7461791],[-64.7012037,51.7362336],[-64.7071132,51.7304951],[-64.6811057,51.7200897],[-64.6870332,51.7089924],[-64.674595,51.7117562],[-64.672853,51.701749],[-64.633839,51.7068425],[-64.6399026,51.6946922],[-64.6340408,51.679613],[-64.6155273,51.6741853],[-64.6082649,51.651242],[-64.6243894,51.6469283],[-64.6164002,51.6415136],[-64.6210011,51.6321327],[-64.6066822,51.628678],[-64.6005403,51.6353225],[-64.5516993,51.5766912],[-64.5461689,51.5890286],[-64.5215618,51.6031249],[-64.451788,51.6295201],[-64.4341297,51.6547707],[-64.438002,51.663985],[-64.4272969,51.6822462],[-64.3874456,51.6619947],[-64.3677079,51.6718761],[-64.3400242,51.6654166],[-64.3255368,51.6844327],[-64.3272666,51.7022909],[-64.3023913,51.7018509],[-64.3093846,51.7125742],[-64.2786427,51.7385697],[-64.2766819,51.7496887],[-64.2938637,51.7454375],[-64.3071211,51.7564548],[-64.3060046,51.7824001],[-64.3124249,51.7898479],[-64.2977199,51.7973919],[-64.3057965,51.8008951],[-64.3001374,51.8077132],[-64.3442314,51.8261562],[-64.3593839,51.8470507],[-64.3456301,51.8675182],[-64.3557061,51.8845147],[-64.3445923,51.8947138],[-64.3513476,51.8990916],[-64.3467059,51.9121685],[-64.3629226,51.9279987],[-64.3483498,51.9337208],[-64.3546542,51.9439659],[-64.3472983,51.946807],[-64.346105,51.9642019],[-64.3690545,51.9832748],[-64.3490108,51.9868165],[-64.3587657,52.0000694],[-64.3214445,52.0064927],[-64.3144557,51.9931691],[-64.2926939,51.9801223],[-64.2725521,51.9757633],[-64.2583142,51.986613],[-64.2355057,51.9752353],[-64.2340005,51.9834872],[-64.2510496,51.9988039],[-64.2698869,52.0032017],[-64.2759194,52.018186],[-64.3014645,52.0363994],[-64.2862332,52.0583121],[-64.2938226,52.0801462],[-64.2643603,52.0743472],[-64.2526963,52.0833337],[-64.2558201,52.1272971],[-64.2359215,52.1261338],[-64.2552773,52.1419508],[-64.2496398,52.1486072],[-64.173846,52.1170295],[-64.1656052,52.1216481],[-64.1746445,52.1342523],[-64.1627145,52.1423161],[-64.1647179,52.1481103],[-64.2103286,52.177433],[-64.2136056,52.1846665],[-64.199987,52.1885768],[-64.214388,52.203013],[-64.214234,52.2176206],[-64.2210444,52.2276009],[-64.2331653,52.2212162],[-64.2254269,52.2587263],[-64.2390689,52.258071],[-64.2541916,52.2760337],[-64.2366315,52.2799741],[-64.2409825,52.2884968],[-64.2332917,52.2954042],[-64.219797,52.2829962],[-64.2084109,52.2854708],[-64.2074603,52.2924947],[-64.2298205,52.3050895],[-64.2234123,52.3154545],[-64.1973632,52.3051069],[-64.1688021,52.3076426],[-64.1629459,52.3155517],[-64.1705194,52.3208433],[-64.1689416,52.331184],[-64.1870833,52.3364126],[-64.1602017,52.3360182],[-64.1682618,52.3664913],[-64.1448001,52.3629565],[-64.1336131,52.3698901],[-64.1328943,52.382864],[-64.1076653,52.3924391],[-64.1198622,52.4033153],[-64.1082868,52.41425],[-64.1373685,52.4296883],[-64.1301159,52.4386541],[-64.1471672,52.4627117],[-64.1482188,52.4909642],[-64.1575273,52.5072968],[-64.1506173,52.5178045],[-64.1716327,52.5303681],[-64.1653934,52.5380351],[-64.209095,52.5637757],[-64.2070962,52.5717707],[-64.2209731,52.5795374],[-64.1961339,52.5794966],[-64.2073376,52.5863724],[-64.1992752,52.5967036],[-64.1728885,52.5852556],[-64.1584389,52.6078026],[-64.1706201,52.6137012],[-64.1710039,52.6248353],[-64.1602189,52.628535],[-64.1528543,52.6451139],[-64.1750875,52.6742576],[-64.1237106,52.687416],[-64.1283177,52.7030525],[-64.1507253,52.7168041],[-64.1413365,52.7235753],[-64.1482982,52.7292601],[-64.0735256,52.7372892],[-64.0652833,52.7262629],[-64.0373611,52.7232611],[-64.0359999,52.7407825],[-64.0082094,52.740204],[-63.9892674,52.7249609],[-63.9587206,52.7353057],[-63.9432884,52.7299937],[-63.9208737,52.7370122],[-63.9247957,52.7572418],[-63.8916905,52.7515093],[-63.8920917,52.7635822],[-63.873413,52.7760744],[-63.8550238,52.776068],[-63.8200139,52.7606686],[-63.7619876,52.7764395],[-63.7371888,52.7692929],[-63.7214662,52.774788],[-63.7375881,52.7863892],[-63.7196083,52.7864098],[-63.7221267,52.8012931],[-63.6978511,52.8040181],[-63.7012158,52.8153301],[-63.6882729,52.8145663],[-63.684681,52.8070111],[-63.6628,52.8097154],[-63.6417032,52.8276331],[-63.642467,52.8374591],[-63.6758324,52.8470706],[-63.6723713,52.855015],[-63.6339349,52.8397867],[-63.6131147,52.8395805],[-63.6078324,52.8535466],[-63.626849,52.8599112],[-63.6184668,52.864513],[-63.6249935,52.8765827],[-63.6106219,52.8856187],[-63.6060471,52.8759098],[-63.6158191,52.8729079],[-63.6042544,52.8694738],[-63.6107144,52.8586389],[-63.5789728,52.8390561],[-63.5998347,52.8243374],[-63.5893718,52.8094488],[-63.601833,52.8021355],[-63.5789072,52.7948275],[-63.5919017,52.7875172],[-63.5978972,52.7923527],[-63.5978149,52.7859945],[-63.614033,52.7912912],[-63.6173464,52.7713459],[-63.5827338,52.7649962],[-63.5281715,52.7257748],[-63.4588391,52.718253],[-63.4335619,52.69614],[-63.3904976,52.6793887],[-63.3781099,52.6605524],[-63.412388,52.6598338],[-63.4316576,52.6449494],[-63.5959276,52.6486424],[-63.7161356,52.6309075],[-63.750763,52.6355679],[-63.8507562,52.6258515],[-63.8892183,52.6101429],[-63.9003957,52.6143977],[-63.9231134,52.5975151],[-63.9492722,52.6062169],[-63.9496121,52.5959523],[-64.031956,52.5706518],[-64.045045,52.5602245],[-64.0456696,52.5436993],[-64.0589116,52.5378477],[-64.0562724,52.5301649],[-64.0769596,52.5101984],[-64.0739649,52.5014535],[-64.088147,52.5057081],[-64.0963558,52.4734166],[-64.0896642,52.446723],[-64.0605407,52.4347709],[-64.0262962,52.4069938],[-64.0235158,52.3980547],[-64.0363,52.3923349],[-64.0132491,52.3629288],[-64.0024638,52.3613118],[-64.0004011,52.3618772],[-64.0084271,52.3652779],[-64.0116357,52.3685824],[-63.935093,52.3419782],[-63.9179397,52.3441217],[-63.8972053,52.328195],[-63.8606585,52.3191039],[-63.8442182,52.3252188],[-63.8252694,52.3192283],[-63.8335922,52.3347373],[-63.7681351,52.3279333],[-63.7442058,52.315588],[-63.7450238,52.3095935],[-63.7642357,52.3078285],[-63.7966121,52.3160615],[-63.807638,52.3100846],[-63.8229138,52.3209777],[-63.8132834,52.3109601],[-63.8359375,52.3137786],[-63.8073604,52.3035463],[-63.7742674,52.2856016],[-63.7690258,52.2788811],[-63.8004969,52.2819336],[-63.7993417,52.2755801],[-63.7781275,52.2738708],[-63.7484574,52.2580535],[-63.7478802,52.2504202],[-63.7615509,52.2508207],[-63.7526664,52.2441032],[-63.7558155,52.2372849],[-63.7119157,52.1978781],[-63.7174835,52.1857824],[-63.6988453,52.1653502],[-63.7071302,52.1607221],[-63.7020175,52.1458389],[-63.6886702,52.1352598],[-63.6951125,52.1044962],[-63.7070662,52.0958628],[-63.7088787,52.084143],[-63.6902921,52.077468],[-63.6906385,52.0904412],[-63.6757141,52.0822382],[-63.6423254,52.0407904],[-63.6523442,52.0456453],[-63.6604513,52.0399261],[-63.6816399,52.0554842],[-63.7014024,52.0447002],[-63.7869463,52.0869452],[-63.7891286,52.0770405],[-63.7917241,52.083311],[-63.8270812,52.0855429],[-63.8364727,52.0806684],[-63.8385892,52.058076],[-63.8256093,52.0290304],[-63.8132912,52.034504],[-63.8117047,52.0219901],[-63.7955958,52.0103682],[-63.8056199,52.0000707],[-57.1074889,52.0000758],[-57.1074889,51.3771358],[-57.3040495,51.138839],[-57.7361373,50.9986069],[-58.5015291,50.2709191],[-60.4768198,48.7813802],[-60.4037537,47.7610742],[-59.2887119,47.3733812],[-59.2160487,47.3597603],[-58.9581054,47.3668156],[-58.2426637,47.437989],[-57.7484686,47.3631965],[-57.0898213,47.1876135],[-56.9742688,47.1749277],[-56.8889422,47.1847998],[-56.8092287,47.2122187],[-56.7534382,47.2473152],[-56.6190662,47.3645601],[-56.5419805,47.3854414],[-56.4958183,47.3637554],[-56.449999999999996,47.35262940077121],[-56.449999999999996,54.293450275691534],[-56.4772676,54.3188568],[-56.5236829,54.5092127],[-56.564336,54.5604955],[-56.6288622,54.6042983],[-56.5868241,54.6419689],[-56.5606687,54.6832296],[-56.5506103,54.726999],[-56.5573474,54.7707971],[-56.598369,54.832872],[-56.6675494,54.881493],[-56.772326,54.9182968],[-56.8912683,54.9316861],[-57.0104996,54.9206855],[-57.1142324,54.8874938],[-58.0167146,55.1880934],[-58.569339,55.3816074],[-59.1202514,55.4842958],[-59.2128864,55.5462646],[-59.609572,55.9736583],[-60.122944,56.3268874],[-60.161504,56.4296227],[-60.2864808,56.57539],[-60.4610239,56.8914885],[-60.5260452,56.943361],[-60.6995348,57.0285958],[-60.9354249,57.2514882],[-60.9379772,57.5793243],[-60.951822,57.6274393],[-60.981741,57.667962],[-61.3659943,58.0437379],[-61.8019658,58.3435286],[-62.2376888,58.6031588],[-62.3355,58.6813906],[-62.6120491,58.9551592],[-63.0374454,59.4190383],[-63.0977246,59.6571545],[-63.1299059,59.7086223],[-63.3980089,59.9284445],[-63.4318882,59.9861873],[-63.6115091,60.1840216],[-63.8633698,60.3606406],[-63.9642647,60.4421959],[-64.0194382,60.4739972],[-64.3505412,60.3813107],[-64.4914076,60.3726056],[-64.5339846,60.3410616],[-64.515571,60.3055966],[-64.5297431,60.2966779],[-64.5812247,60.3083752],[-64.6552154,60.294806],[-64.7074122,60.3032971],[-64.7234259,60.2914783],[-64.8537778,60.2694115],[-64.8622585,60.2584685],[-64.8527657,60.2526647],[-64.8578337,60.2500599],[-64.849596,60.2392973],[-64.8530201,60.2257408],[-64.8331938,60.2245489],[-64.7498796,60.1881556],[-64.7455625,60.168628],[-64.73323,60.1643662],[-64.6824938,60.1811588],[-64.6615669,60.1701604],[-64.6024711,60.1670146],[-64.5941865,60.1494989],[-64.5937159,60.1170313],[-64.6330729,60.105415],[-64.6720321,60.1135485],[-64.6811913,60.1075463],[-64.7672961,60.1083532],[-64.7079868,60.0846091],[-64.7063326,60.074313],[-64.7178569,60.0640743],[-64.742714,60.0561311],[-64.8198062,60.0504821],[-64.8958755,60.0662093],[-64.9236433,60.0614651],[-64.8876715,60.0419751],[-64.8402284,59.9703191],[-64.8068306,59.970814],[-64.7827765,59.9804014],[-64.7470998,59.9744888],[-64.7416305,59.9651633],[-64.7474206,59.9547297],[-64.7321913,59.9505245],[-64.6931206,59.9588764],[-64.6622305,59.952554],[-64.6694185,59.9301286],[-64.6340589,59.936001],[-64.6267982,59.9302946],[-64.640977,59.9074481],[-64.6587313,59.9015929],[-64.6837761,59.8771984],[-64.7415216,59.8892989],[-64.7561663,59.8860316],[-64.7665541,59.8696754],[-64.7369445,59.8555684],[-64.7780856,59.8528479],[-64.796954,59.8408167],[-64.7949611,59.8341216],[-64.8167318,59.8350494],[-64.8252245,59.825608],[-64.7921155,59.8121812],[-64.7884738,59.8032735],[-64.8139892,59.7951522],[-64.8139577,59.7830335],[-64.7899867,59.7603041],[-64.7972355,59.738471],[-64.8102029,59.7296931],[-64.7494319,59.7172394],[-64.824921,59.6759976],[-64.8895081,59.6621555],[-64.8982595,59.6417833],[-64.8825397,59.610682],[-64.8598084,59.5915373],[-64.8687066,59.5864242],[-64.9270598,59.5931789],[-64.9394392,59.567046],[-64.8922058,59.5624687],[-64.8691913,59.5469231],[-64.8396296,59.553342],[-64.8031315,59.5343103],[-64.8041995,59.5250159],[-64.7641451,59.514868],[-64.7630926,59.4966408],[-64.7369247,59.4806857],[-64.7285526,59.4666354],[-64.6798349,59.4469051],[-64.6428142,59.4592476],[-64.6267672,59.4819704],[-64.5896726,59.4661827],[-64.5614624,59.4879149],[-64.5053012,59.5012964],[-64.5093515,59.5136398],[-64.5030926,59.5213734],[-64.4629001,59.5233961],[-64.4337662,59.5419736],[-64.3858059,59.5237607],[-64.3240693,59.5127741],[-64.3278521,59.4974628],[-64.3496559,59.5029523],[-64.3869632,59.4737969],[-64.407199,59.4778061],[-64.4260763,59.4649369],[-64.4580247,59.4591748],[-64.5115984,59.4229799],[-64.4607255,59.4121771],[-64.5165003,59.4039054],[-64.5282681,59.3956282],[-64.5240513,59.3850845],[-64.538339,59.3707819],[-64.4933027,59.3495761],[-64.527792,59.3199784],[-64.5426233,59.3186743],[-64.5435363,59.3104351],[-64.4886035,59.2571101],[-64.5113506,59.2389304],[-64.5218475,59.1967411],[-64.4727147,59.1803912],[-64.491272,59.136427],[-64.4839856,59.118166],[-64.4980488,59.106416],[-64.4903091,59.0990751],[-64.4504578,59.1028893],[-64.4169614,59.0876038],[-64.3760279,59.0926076],[-64.3635141,59.0874289],[-64.3608407,59.0672953],[-64.315176,59.0656298],[-64.2617912,59.0129566],[-64.2943826,59.0004987],[-64.3877053,59.0061838],[-64.4603011,58.9815143],[-64.4812921,58.9883307],[-64.4710255,58.9998638],[-64.4977808,59.0194327],[-64.5067846,59.0197258],[-64.5227608,59.0025602],[-64.5957882,59.0350449],[-64.6702752,59.0386144],[-64.6792731,59.0469668],[-64.6832569,59.0746954],[-64.7792388,59.0749574],[-64.840793,59.0324846],[-64.8294409,59.0203037],[-64.8650159,59.015405],[-64.8700884,58.9982612],[-64.8622185,58.9861629],[-64.8403501,58.9803243],[-64.8420984,58.966986],[-64.8329136,58.9564077],[-64.8794405,58.9518825],[-64.8891115,58.9383822],[-64.8392697,58.936999],[-64.8320574,58.9217483],[-64.8207135,58.9168927],[-64.7657328,58.9238028],[-64.750292,58.9341157],[-64.7562316,58.9402782],[-64.7306699,58.950784],[-64.6516502,58.943752],[-64.6324277,58.9333457],[-64.6147682,58.9075156],[-64.5796286,58.9047136],[-64.5501825,58.8874554],[-64.5089105,58.8875814],[-64.455801,58.9082167],[-64.426398,58.9045268],[-64.4206027,58.8902785],[-64.4059135,58.890821],[-64.4002942,58.9027182],[-64.3787024,58.9038191],[-64.3502617,58.8918775],[-64.3325402,58.9045628],[-64.2876126,58.8967531],[-64.2874177,58.8834584],[-64.2336567,58.8641133],[-64.2265732,58.8458439],[-64.2375285,58.8050421],[-64.2297046,58.7836485],[-64.2001257,58.7794617],[-64.178785,58.7890396],[-64.158267,58.7581192],[-64.1377929,58.7461669],[-64.087148,58.7559975],[-64.0697088,58.7690862],[-64.0718737,58.783247],[-64.0463011,58.7895735],[-64.0385861,58.8020768],[-64.0453376,58.8103504],[-63.9954028,58.8137091],[-63.9754723,58.8302532],[-63.9571616,58.8269056],[-63.8978713,58.8373653],[-63.862186,58.8319772],[-63.8352834,58.8490303],[-63.812138,58.8470628],[-63.7776833,58.8840588],[-63.7254631,58.8771747],[-63.7099968,58.8870532],[-63.6799383,58.8785627],[-63.6803243,58.8664593],[-63.661121,58.8547122],[-63.6359551,58.8486997],[-63.5953411,58.8571758],[-63.5507851,58.8365501],[-63.5502798,58.8223658],[-63.5345135,58.8162428],[-63.4921574,58.7685452],[-63.4675041,58.7620471],[-63.5067939,58.7425746],[-63.5617082,58.727718],[-63.6192835,58.7238606],[-63.6298452,58.714643],[-63.6606843,58.7252247],[-63.669554,58.7170667],[-63.6949196,58.7196332],[-63.7183553,58.7063852],[-63.7543739,58.7167371],[-63.7942766,58.7032874],[-63.8110207,58.7122021],[-63.8356154,58.7101187],[-63.8550967,58.6964431],[-63.9099652,58.7102535],[-63.9502538,58.6852473],[-64.0472222,58.7026285],[-64.0788698,58.6539494],[-64.1079267,58.6396507],[-64.1158519,58.6023506],[-64.0927854,58.5878932],[-64.1110504,58.5816608],[-64.1049435,58.56323],[-64.0746959,58.547379],[-64.0671845,58.5344923],[-64.0469398,58.5350708],[-64.0340817,58.5234504],[-64.0087748,58.531259],[-63.973579,58.5296361],[-63.9518617,58.5412677],[-63.9466928,58.5588052],[-63.9073661,58.5734921],[-63.8871291,58.5716545],[-63.8581941,58.5637976],[-63.8625555,58.5526949],[-63.8497144,58.5465799],[-63.8586919,58.5045144],[-63.8078501,58.4897461],[-63.8222674,58.4737495],[-63.8430965,58.4678262],[-63.847154,58.4500109],[-63.8811133,58.4294397],[-63.9242394,58.4448712],[-63.9641037,58.4388317],[-63.9865786,58.4443579],[-63.998477,58.4255369],[-64.013201,58.4239953],[-64.0285652,58.3894489],[-64.0225389,58.3710192],[-64.0305298,58.3659838],[-64.0616682,58.3609261],[-64.0979964,58.3768365],[-64.1192487,58.3647382],[-64.1585071,58.3710338],[-64.1867687,58.3367246],[-64.1782053,58.3305825],[-64.1845691,58.3170516],[-64.1981913,58.3119206],[-64.1969095,58.2935781],[-64.2169854,58.2874517],[-64.2085437,58.2756379],[-64.217777,58.2477322],[-64.2475038,58.2274214],[-64.3735628,58.2083806],[-64.4217325,58.1866737],[-64.4308915,58.1562159],[-64.4250692,58.1301943],[-64.4353949,58.0983753],[-64.4268832,58.0882227],[-64.4330914,58.0699081],[-64.4122832,58.0611592],[-64.3539107,58.0692993],[-64.3205078,58.061488],[-64.2992661,58.0445194],[-64.2777333,58.0469521],[-64.2692577,58.0614124],[-64.2509603,58.0387185],[-64.2185076,58.0369833],[-64.238668,58.0250323],[-64.2274386,57.9895435],[-64.2046618,57.9736297],[-64.1987869,57.9376122],[-64.1847026,57.9260396],[-64.1625254,57.9229418],[-64.1565965,57.8902088],[-64.1166754,57.8111394],[-64.0720013,57.7700203],[-64.0259519,57.7644036],[-64.0232843,57.7784604],[-64.0339687,57.7914374],[-64.0208795,57.8095174],[-64.0118775,57.8024819],[-63.9972489,57.8120787],[-63.9385963,57.788551],[-63.9123556,57.8011225],[-63.9038453,57.7982491],[-63.9081877,57.7768656],[-63.9011415,57.7629369],[-63.9071784,57.7513759],[-63.8834217,57.7126073],[-63.8474764,57.7190229],[-63.8207115,57.7056321],[-63.8042251,57.6845079],[-63.7898731,57.6875128],[-63.7536305,57.7207444],[-63.7448142,57.6886373],[-63.7485511,57.6742796],[-63.7352909,57.6628019],[-63.7027774,57.6637663],[-63.692612,57.6526969],[-63.6851318,57.6969149],[-63.6724348,57.6925809],[-63.6594172,57.701818],[-63.6680557,57.7239423],[-63.6525057,57.7329082],[-63.6325659,57.7289454],[-63.6231961,57.7394823],[-63.5967704,57.7412477],[-63.5969599,57.7076952],[-63.6094861,57.6920586],[-63.5944994,57.6856527],[-63.5987273,57.6638405],[-63.6229662,57.6419692],[-63.6449231,57.6342815],[-63.6499515,57.6200639],[-63.6702778,57.6211855],[-63.684602,57.6034356],[-63.6995057,57.6153463],[-63.7306136,57.6011293],[-63.7326204,57.588732],[-63.7455751,57.5794887],[-63.7582755,57.5915662],[-63.7719159,57.5924498],[-63.7511686,57.5357436],[-63.753394,57.5152949],[-63.7675031,57.5148315],[-63.7752214,57.4935728],[-63.7582758,57.4544209],[-63.7612609,57.4393317],[-63.7314572,57.4265619],[-63.7164396,57.4382101],[-63.7103055,57.42263],[-63.7234409,57.398336],[-63.7013012,57.3683336],[-63.7854988,57.3531974],[-63.8017259,57.3322871],[-63.8243351,57.3391641],[-63.8558208,57.3343012],[-63.8833735,57.277621],[-63.8669754,57.226125],[-63.8840749,57.1962559],[-63.8723856,57.192532],[-63.8459868,57.2041896],[-63.844717,57.225959],[-63.8091364,57.2621597],[-63.7597696,57.251726],[-63.7414669,57.2407656],[-63.7371374,57.2215956],[-63.770985,57.1960183],[-63.7797483,57.1617966],[-63.7648855,57.1399256],[-63.7987187,57.1064479],[-63.8118098,57.0788788],[-63.8900834,57.0860831],[-63.898572,57.0551379],[-63.8896931,57.0458693],[-63.8919348,57.0127735],[-63.857774,56.9992124],[-63.8869999,56.9809645],[-63.9078697,56.9841174],[-63.9141295,56.9776306],[-63.9080998,56.9275211],[-63.918094,56.9041576],[-63.9080196,56.8978875],[-63.8999277,56.9057374],[-63.8786194,56.9039301],[-63.8638906,56.8968229],[-63.867396,56.8833761],[-63.8591562,56.86874],[-63.8994988,56.877301],[-64.0034787,56.8617437],[-64.012978,56.8498464],[-64.0019787,56.7975887],[-64.0127595,56.7786769],[-64.0789073,56.7670032],[-64.0853892,56.7609522],[-64.0740082,56.755462],[-64.076282,56.7464957],[-64.0994431,56.7436221],[-64.1453144,56.6997548],[-64.0908363,56.653833],[-64.024858,56.653008],[-64.0399485,56.6407345],[-64.0336506,56.6332339],[-64.0533297,56.6155345],[-64.0504614,56.6063481],[-64.0040162,56.5912367],[-64.0015709,56.5792159],[-63.931063,56.5337576],[-63.9443295,56.493102],[-63.9306324,56.466207],[-63.883717,56.4690643],[-63.8742302,56.4419604],[-63.8864711,56.4330219],[-63.9018416,56.4407041],[-63.9657551,56.4106753],[-63.993016,56.4082113],[-64.0205736,56.4179366],[-64.1193603,56.4288276],[-64.1527402,56.4411121],[-64.1779849,56.4252436],[-64.1581063,56.4197511],[-64.1436946,56.4053926],[-64.1153559,56.4021063],[-64.1104028,56.385964],[-64.1278439,56.3699282],[-64.0993521,56.3519126],[-64.1074897,56.3430125],[-64.0981924,56.3336318],[-64.1486292,56.3034068],[-64.1303816,56.3023493],[-64.0904958,56.2798978],[-64.0873772,56.2568893],[-64.0221505,56.2678133],[-63.9671099,56.2563967],[-63.9348928,56.2711193],[-63.9129113,56.2635342],[-63.9114924,56.2308333],[-63.8953848,56.2225718],[-63.8743903,56.2247827],[-63.8629333,56.2125891],[-64.0047035,56.1733258],[-64.0359633,56.154881],[-64.0085505,56.1381764],[-64.0141849,56.1275379],[-64.0021333,56.1027303],[-64.0357598,56.0821719],[-64.0346669,56.0701446],[-64.0180538,56.0672635],[-63.9615013,56.0924498],[-63.9481454,56.0911484],[-63.9056632,56.1236948],[-63.8801004,56.1360793],[-63.8561788,56.1371362],[-63.8382669,56.1224988],[-63.8875806,56.0928614],[-63.8825503,56.0871297],[-63.8396281,56.1006251],[-63.8353749,56.0877448],[-63.8110506,56.0846349],[-63.8378738,56.0450449],[-63.7741995,56.0535767],[-63.7148422,56.0716849],[-63.7143641,56.0660414],[-63.6830339,56.0595676],[-63.6904249,56.0438735],[-63.6367213,56.0235227],[-63.6032763,56.0311727],[-63.577584,56.0250557],[-63.4957718,56.040013],[-63.4435451,56.0295164],[-63.4671617,56.0119014],[-63.4863798,56.0155796],[-63.4912432,56.0098838],[-63.4701945,55.9983467],[-63.4719913,55.9877767],[-63.4873604,55.9874786],[-63.5050366,56.0014239],[-63.5630099,56.0058859],[-63.5844867,55.989904],[-63.6057884,55.9878096],[-63.5982757,55.9821761],[-63.6271403,55.9736867],[-63.6245373,55.967473],[-63.6546523,55.9721907],[-63.6864705,55.9617207],[-63.6814094,55.9537532],[-63.688092,55.9481769],[-63.7123959,55.9535407],[-63.7036406,55.9460637],[-63.7239768,55.9305154],[-63.7925828,55.9314617],[-63.8544417,55.9100124],[-63.8251099,55.904447],[-63.8450987,55.8790734],[-63.752902,55.8465007],[-63.7666282,55.8394973],[-63.7499686,55.8251391],[-63.7728124,55.8220358],[-63.7803773,55.8130267],[-63.7701582,55.8081014],[-63.7770228,55.8014788],[-63.7612827,55.7969184],[-63.7683988,55.7899962],[-63.7171435,55.7803652],[-63.6753846,55.7919968],[-63.6665305,55.7877898],[-63.6794756,55.7739724],[-63.6742006,55.7593251],[-63.6821376,55.7529938],[-63.7054138,55.7555445],[-63.7009974,55.7429686],[-63.7258374,55.7382171],[-63.6982068,55.7315624],[-63.7251387,55.7266379],[-63.7094104,55.7213286],[-63.7234328,55.7162595],[-63.7196019,55.7053124],[-63.7279107,55.6954088],[-63.7100433,55.6887889],[-63.7049331,55.6786],[-63.7511924,55.6715083],[-63.7520227,55.6588724],[-63.7651537,55.658711],[-63.7646158,55.6515879],[-63.7159824,55.6576737],[-63.6684975,55.6522881],[-63.6436901,55.6415794],[-63.6486774,55.6340969],[-63.6802248,55.6352205],[-63.6877464,55.6254789],[-63.6826875,55.6090522],[-63.6626462,55.5988875],[-63.681476,55.5756512],[-63.6649332,55.5675262],[-63.6654728,55.5459876],[-63.6706669,55.5374636],[-63.6840319,55.5377539],[-63.6914827,55.5087113],[-63.7164408,55.5044064],[-63.7259559,55.4930074],[-63.7561215,55.4816522],[-63.7754714,55.481709],[-63.7926828,55.4672386],[-63.7493506,55.4548615],[-63.7367067,55.4382393],[-63.6653971,55.4230506],[-63.6309317,55.4302717],[-63.5783912,55.4204573],[-63.5343764,55.4274538],[-63.5106572,55.4202745],[-63.4785667,55.4292056],[-63.4709718,55.4197796],[-63.4501211,55.420724],[-63.4490786,55.4119759],[-63.4325407,55.4085708],[-63.4349101,55.4003842],[-63.3517957,55.4183597],[-63.3369563,55.4098788],[-63.3197869,55.4118063],[-63.3336604,55.3839313],[-63.3248487,55.3660469],[-63.4422496,55.3440597],[-63.4820103,55.349758],[-63.5744069,55.3396017],[-63.5982866,55.3256877],[-63.5326812,55.3254969],[-63.5225555,55.3098695],[-63.5695098,55.2976522],[-63.5878848,55.3026483],[-63.6157628,55.2962568],[-63.6440783,55.2877756],[-63.6401187,55.2786193],[-63.6794751,55.2668869],[-63.6526984,55.2519118],[-63.6012343,55.2511545],[-63.6225031,55.2426082],[-63.6240963,55.2360611],[-63.6090939,55.2301444],[-63.5633125,55.2434038],[-63.5474105,55.225469],[-63.5084185,55.2321049],[-63.4626356,55.2552647],[-63.4025624,55.2577639],[-63.4028344,55.2490065],[-63.4226635,55.2430347],[-63.4125262,55.233633],[-63.4258141,55.2262378],[-63.4318712,55.2113427],[-63.4458665,55.2107638],[-63.4526114,55.2019446],[-63.5029562,55.2024843],[-63.5629184,55.1876164],[-63.5559564,55.1728535],[-63.5313858,55.1745954],[-63.5239238,55.1681447],[-63.5734097,55.1557531],[-63.5651309,55.1402643],[-63.6022965,55.1287333],[-63.5860753,55.1158564],[-63.5854081,55.1035508],[-63.5916021,55.0953242],[-63.6051531,55.09829],[-63.6113669,55.0908038],[-63.6028631,55.076361],[-63.6160552,55.0689457],[-63.573431,55.0539881],[-63.5754999,55.0422479],[-63.556392,55.0344439],[-63.5959839,55.0214075],[-63.6061298,55.0083917],[-63.5575977,54.9998738],[-63.5575345,54.9899379],[-63.576303,54.9881044],[-63.5731611,54.9787953],[-63.6110058,54.9770443],[-63.6125394,54.9690189],[-63.5975246,54.9593981],[-63.5990604,54.9513732],[-63.6113432,54.9488638],[-63.5778733,54.9299555],[-63.6122984,54.9199369],[-63.5914437,54.8965921],[-63.6195865,54.8995406],[-63.6307236,54.909201],[-63.6634529,54.9104551],[-63.6612828,54.8999525],[-63.6848621,54.9045686],[-63.693805,54.9099486],[-63.6964187,54.9253392],[-63.715995,54.9255482],[-63.7917108,54.9558945],[-63.8205183,54.9479581],[-63.8298169,54.9420523],[-63.8240991,54.9342675],[-63.7995727,54.9261335],[-63.8377335,54.9145128],[-63.8289655,54.9011341],[-63.8462105,54.8948259],[-63.8380232,54.883072],[-63.852251,54.8851067],[-63.8526581,54.8760561],[-63.8421701,54.8710063],[-63.8490321,54.8626113],[-63.8278626,54.8473236],[-63.8171615,54.8169219],[-63.8690052,54.8070391],[-63.871818,54.8004776],[-63.9036644,54.801078],[-63.8908399,54.7888019],[-63.9100696,54.7885355],[-63.9240093,54.7784074],[-63.8897412,54.7683588],[-63.8958107,54.7601217],[-63.8606504,54.7527453],[-63.8029597,54.7256421],[-63.8038947,54.7167365],[-63.7689473,54.6998438],[-63.7597105,54.6855842],[-63.7680587,54.6831073],[-63.7630996,54.6736848],[-63.7238489,54.6597986],[-63.7126254,54.6249508],[-63.7325879,54.6231189],[-63.8133772,54.6507858],[-63.8196481,54.640679],[-63.8343513,54.6411396],[-63.8345833,54.6298673],[-63.8700734,54.623352],[-63.8978634,54.6007038],[-63.9744225,54.6201202],[-64.0040003,54.6021258],[-64.0351022,54.6070308],[-64.0542772,54.6009083],[-64.0861067,54.6229551],[-64.1073289,54.6131866],[-64.1130252,54.6334742],[-64.1027652,54.6555877],[-64.1418498,54.6669574],[-64.1453432,54.6761411],[-64.1806889,54.6935876],[-64.1759697,54.7012018],[-64.1877601,54.7108387],[-64.1776349,54.7213606],[-64.1965098,54.729832],[-64.2342815,54.717533],[-64.2389438,54.7291206],[-64.288195,54.7310273],[-64.3007481,54.7414922],[-64.2946817,54.753359],[-64.3841082,54.780163],[-64.3974746,54.790493],[-64.4927843,54.7910616],[-64.4714931,54.7702817],[-64.4854758,54.7709628],[-64.474805,54.7521517],[-64.5141886,54.7512978],[-64.5341871,54.7617927],[-64.5548163,54.7448689],[-64.5306912,54.7335254],[-64.5568825,54.7136623],[-64.5976319,54.7287195],[-64.6228994,54.721874],[-64.6799684,54.7357126],[-64.6993635,54.7235909],[-64.7309538,54.7256212],[-64.7348946,54.7359697],[-64.7696721,54.7300956],[-64.8010293,54.7557768],[-64.7851645,54.753944],[-64.7820842,54.7632598],[-64.7523278,54.7673218],[-64.7762452,54.7881455],[-64.748739,54.8108451],[-64.7611143,54.8295281],[-64.7865355,54.8430793],[-64.7928063,54.8319374],[-64.8007068,54.8325722],[-64.8158677,54.8490479],[-64.8301053,54.8363367],[-64.839298,54.8459512],[-64.8614903,54.8410408],[-64.8665962,54.8448156],[-64.8584015,54.8488431],[-64.861692,54.8549362],[-64.8484309,54.8762732],[-64.9025705,54.9016404],[-64.9150389,54.9200058],[-64.9719006,54.9373956],[-65.0177214,54.932624],[-65.0481511,54.9554914],[-65.0706017,54.9535796],[-65.0763526,54.9681382],[-65.0858147,54.9695628],[-65.1264493,54.961478],[-65.1228547,54.9414027],[-65.1345173,54.9281937],[-65.1803042,54.9308491],[-65.1736425,54.9142493],[-65.2016585,54.8805371],[-65.2063371,54.8676656],[-65.1994599,54.862253],[-65.2096231,54.8479578],[-65.2827332,54.8443553],[-65.2910771,54.8401189],[-65.2879965,54.8254025],[-65.2963128,54.8175832],[-65.3357907,54.8519678],[-65.3430912,54.8290411],[-65.3558397,54.8187614],[-65.384574,54.8299447],[-65.4075489,54.8198333],[-65.4113764,54.841837],[-65.4563357,54.8492423],[-65.4872946,54.8343768],[-65.4866552,54.8200687],[-65.4737365,54.8071841],[-65.4346198,54.7841835],[-65.4291144,54.7481139],[-65.4481621,54.7439815],[-65.4555303,54.7285832],[-65.487353,54.7285141],[-65.5039637,54.73628],[-65.5573875,54.7302745],[-65.5620705,54.7397431],[-65.621279,54.7385064],[-65.6320649,54.7544581],[-65.6469845,54.7531868],[-65.6485338,54.7352136],[-65.6931728,54.708164],[-65.7204701,54.7315972],[-65.7135928,54.7409566],[-65.7570246,54.7867915],[-65.8304494,54.8307277],[-65.8506459,54.8508013],[-65.8363866,54.8746527],[-65.8366473,54.8819761],[-65.8572339,54.8929677],[-65.8386204,54.9079567],[-65.8498454,54.9272109],[-65.8880077,54.9253399],[-65.9304738,54.9409303],[-65.9651306,54.9298181],[-65.9966155,54.9309853],[-66.031222,54.9424817],[-66.0489955,54.9374166],[-66.0364311,54.9233322],[-66.0408256,54.9190843],[-66.1525612,54.9855149],[-66.1615837,54.9877341],[-66.1679833,54.9730093],[-66.2101254,54.9791387],[-66.235532,54.991807],[-66.246416,54.975469],[-66.2505454,54.9953849],[-66.2679743,55.0148342],[-66.3035972,55.0355032],[-66.333146,55.0670352],[-66.419657,55.1311649],[-66.4447074,55.1409475],[-66.4723994,55.1676317],[-66.495338,55.2051069],[-66.5164166,55.1953221],[-66.545595,55.2353799],[-66.5656889,55.2383993],[-66.6180349,55.2781513],[-66.6217995,55.2687139],[-66.6444267,55.267101],[-66.6586375,55.2551448],[-66.7006336,55.2899506],[-66.700288,55.3120401],[-66.7345688,55.3212028],[-66.7784623,55.3523882],[-66.8187415,55.355314],[-66.7998887,55.3232754],[-66.8276816,55.3249487],[-66.8237258,55.3069698],[-66.7863572,55.2731406],[-66.7072309,55.2271231],[-66.6703633,55.177485],[-66.7197173,55.209542],[-66.7570444,55.2134279],[-66.7381033,55.1910642],[-66.760627,55.1878119],[-66.7404616,55.1450492],[-66.7668162,55.147979],[-66.7736762,55.1404823],[-66.762118,55.1366541],[-66.7393704,55.1031074],[-66.6922952,55.062484],[-66.7536266,55.0906019],[-66.7470422,55.067676],[-66.732872,55.0585711],[-66.7350377,55.0440527],[-66.6978804,55.0279271],[-66.6716836,55.0255476],[-66.6256122,54.9838727],[-66.6501198,54.974623],[-66.7088055,55.0046444],[-66.7369077,55.000014],[-66.7474415,55.0093625],[-66.7493683,55.0000007],[-66.7659904,55.0000169],[-66.7402285,54.9851154],[-66.7349272,54.9780595],[-66.7422237,54.9694802],[-66.7132262,54.9554954],[-66.6814082,54.9236678],[-66.6896536,54.8979651],[-66.6589719,54.8765179],[-66.6517229,54.8499703],[-66.6293175,54.8456324],[-66.6200631,54.8284989],[-66.5898842,54.8129713],[-66.6212102,54.8006121],[-66.61418,54.7860634],[-66.636358,54.794707],[-66.6485228,54.7851337],[-66.6446475,54.7725491],[-66.6596644,54.7669726],[-66.7248378,54.8050293],[-66.7521634,54.8137414],[-66.7208089,54.7945115],[-66.7253395,54.790292],[-66.7181858,54.7845303],[-66.7292291,54.7834764],[-66.7173119,54.7610536],[-66.6787261,54.7475044],[-66.6589558,54.7307525],[-66.6724898,54.7081867],[-66.6963122,54.7259542],[-66.700698,54.7392378],[-66.7164702,54.7350404],[-66.753436,54.7582386],[-66.7539299,54.74715],[-66.7718676,54.7606885],[-66.7715663,54.7700206],[-66.7910225,54.7699575],[-66.8733986,54.8129081],[-66.8924058,54.8028805],[-66.9336913,54.8003692],[-66.9452598,54.8162014],[-67.0350984,54.8637988],[-67.0565105,54.8949377],[-67.1392552,54.9509436],[-67.1877855,54.9804253],[-67.2092282,54.9841735],[-67.2192506,55.0000653],[-67.2496095,55.0181411],[-67.2727921,55.0242116],[-67.2627425,55.0344298],[-67.2632964,55.0455177],[-67.2362838,55.0440308],[-67.2339788,55.0512279],[-67.2728118,55.0764273],[-67.3228379,55.0890653],[-67.4096325,55.0886332],[-67.4380175,55.0778297],[-67.4432167,55.0648689],[-67.4637039,55.0628569],[-67.4706345,55.0490116],[-67.439649,55.0324909],[-67.4458718,55.0085038],[-67.427566,55.0058613],[-67.4019405,54.9889549],[-67.4143658,54.9760704],[-67.3989306,54.9653939],[-67.3997557,54.957859],[-67.3577269,54.9396844],[-67.3351432,54.9034898],[-67.3156995,54.8953955],[-67.3106529,54.8803635],[-67.2827233,54.8676929],[-67.2591765,54.8338119],[-67.221372,54.8249129],[-67.2221404,54.8009277],[-67.1801812,54.7758779],[-67.1774641,54.763956],[-67.1249032,54.742163],[-67.0629008,54.6929331],[-67.0827923,54.6805787],[-67.0715285,54.6737063],[-67.1290035,54.6577194],[-67.1234568,54.645121],[-67.1425864,54.6361317],[-67.138551,54.6245387],[-67.1757787,54.6095382],[-67.229516,54.6151911],[-67.2348929,54.6122775],[-67.2328333,54.5844174],[-67.280327,54.5917923],[-67.2685027,54.5651731],[-67.3027043,54.555879],[-67.2622713,54.5511427],[-67.266315,54.5382576],[-67.2268325,54.5195604],[-67.2445875,54.5147582],[-67.2449447,54.5000339],[-67.2688711,54.4950855],[-67.2725744,54.4866292],[-67.286609,54.4902768],[-67.2897506,54.5087219],[-67.3183474,54.5129127],[-67.3343065,54.505101],[-67.3296224,54.5181516],[-67.357796,54.5174038],[-67.4230961,54.5578714],[-67.4290253,54.5692344],[-67.4917488,54.5849095],[-67.5268824,54.5709511],[-67.5169113,54.5621902],[-67.5182845,54.5522263],[-67.4854848,54.5397209],[-67.4741223,54.5274113],[-67.473113,54.5201019],[-67.5,54.506941],[-67.4949545,54.4885838],[-67.5004055,54.4815066],[-67.5816579,54.4941085],[-67.5926396,54.4690031],[-67.6094744,54.4657662],[-67.6278775,54.4735869],[-67.6474304,54.5093872],[-67.6665615,54.4793029],[-67.6623963,54.4689531],[-67.6736084,54.4622551],[-67.665057,54.4586576],[-67.6678117,54.453842],[-67.6966809,54.4438741],[-67.7066534,54.4445902],[-67.7054669,54.4562528],[-67.7274967,54.4573993],[-67.7343181,54.4443386],[-67.7669648,54.4368141],[-67.7689679,54.4195534],[-67.7246984,54.3868558],[-67.7319582,54.3641619],[-67.7480367,54.3502609],[-67.6799563,54.3119235],[-67.6687397,54.2775314],[-67.6756959,54.2645401],[-67.6848968,54.2634022],[-67.6808276,54.2469908],[-67.6517623,54.2215227],[-67.6230984,54.2084263],[-67.6358956,54.2021241],[-67.6156181,54.1957555],[-67.6533548,54.1885748],[-67.6534544,54.1699895],[-67.6444092,54.1608065],[-67.6963413,54.1624075],[-67.7295928,54.1512751],[-67.7650366,54.1570002],[-67.8102524,54.1281329],[-67.7981649,54.1185806],[-67.8054611,54.1061832],[-67.7995085,54.099665],[-67.7677054,54.0999213],[-67.7580867,54.0915795],[-67.7883584,54.0855212],[-67.7788153,54.0714303],[-67.7940822,54.0544921],[-67.79103,54.0412801],[-67.8216853,54.0257023],[-67.8160064,54.0147628]]]}}]}