{"type":"FeatureCollection","features":[{"type":"Feature","properties":{"id":"nm"},"geometry":{"type":"Polygon","coordinates":[[[-109.045182,36.9989819],[-109.050048,31.332366],[-108.2084835,31.3333734],[-108.2085021,31.7836928],[-106.5281875,31.7838826],[-106.546801,31.8073573],[-106.5767551,31.8103092],[-106.5909252,31.8238908],[-106.6025213,31.8244265],[-106.601711,31.8443327],[-106.6146764,31.84646],[-106.63575,31.8662938],[-106.6294184,31.8834938],[-106.6457631,31.8984288],[-106.6129088,31.9203781],[-106.6298362,31.9266273],[-106.6143983,31.9520588],[-106.6252372,31.9545566],[-106.61947,31.9721145],[-106.639738,31.9813236],[-106.6186248,32.0007143],[-103.064631,32.0003914],[-103.064625,32.999899],[-103.043617,34.003633],[-103.0416536,36.5004529],[-103.0024228,36.5003737],[-103.0024413,37.0000868],[-105.0318396,36.9927115],[-109.045182,36.9989819]]]}}]}