{"type":"FeatureCollection","features":[{"type":"Feature","properties":{"id":"ns"},"geometry":{"type":"MultiPolygon","coordinates":[[[[-66.680717,44.3074417],[-66.6635632,44.2986609],[-66.6742027,44.2215261],[-66.6607586,44.1628447],[-66.6430809,44.1257341],[-66.6009379,44.0782925],[-66.4747877,43.9853023],[-66.4476997,43.8365312],[-66.4194979,43.5946064],[-66.2966526,43.334447],[-66.2616059,43.2862484],[-66.2216864,43.2538674],[-66.1636925,43.2228284],[-66.0641353,43.1952758],[-65.5718983,43.1911934],[-65.5108637,43.2045464],[-65.2297235,43.2979539],[-64.8639458,43.5173213],[-64.6121266,43.6546548],[-64.5520269,43.70585],[-64.4433904,43.8572503],[-64.1404042,44.0252725],[-63.9950794,44.1468761],[-63.7199183,44.2341423],[-63.5539931,44.2307246],[-63.4654373,44.2447904],[-63.3568751,44.2949483],[-63.1484808,44.4328018],[-62.9703833,44.4586129],[-62.8447962,44.4576838],[-62.7640556,44.4708713],[-62.2331468,44.6375197],[-61.9108255,44.7281324],[-61.2617211,44.977289],[-61.0261727,45.0079309],[-60.8428651,45.0677666],[-60.7917059,45.0939059],[-60.7511012,45.1256987],[-60.4938071,45.4028122],[-60.2965951,45.4635455],[-59.9401667,45.6044566],[-59.8875774,45.637945],[-59.8032808,45.7139686],[-59.6385002,45.767364],[-59.5040823,45.8454553],[-59.4598695,45.8820638],[-59.4003932,45.9543534],[-59.3753143,46.0216015],[-59.384745,46.0907729],[-59.4069073,46.129982],[-59.5390999,46.300651],[-59.5844686,46.334022],[-59.6393805,46.3592108],[-59.9123732,46.4293729],[-60.0456749,46.6455097],[-60.0109185,46.8481477],[-60.0192272,46.8963635],[-60.0488066,46.9597461],[-59.2887119,47.3733812],[-60.4037537,47.7610742],[-60.7626788,47.4233275],[-60.9918489,47.3294321],[-61.3504814,47.0097234],[-61.3993669,46.8399985],[-61.5813583,46.4376179],[-61.7818549,46.2156982],[-62.21448,45.9431236],[-62.5330836,45.8609372],[-62.7775294,45.8494597],[-63.1428248,45.9221107],[-63.4064966,46.0118372],[-63.5748248,46.1008149],[-64.0253749,46.0225315],[-64.0423877,46.0043268],[-64.0468657,45.9768797],[-64.1496498,45.9799167],[-64.220331,45.90172],[-64.255022,45.8791928],[-64.2793429,45.8321496],[-64.3233711,45.8549643],[-64.3520193,45.8530415],[-64.3667254,45.8262834],[-64.45932,45.7465483],[-64.4857506,45.7029581],[-64.540133,45.6842717],[-64.7692067,45.5599604],[-64.9337496,45.4494573],[-65.0001685,45.272751],[-65.0254664,45.2547347],[-65.0315832,45.2281504],[-65.937983,44.9566588],[-66.680717,44.3074417]]],[[[-60.4420607,43.9834608],[-60.438643,43.9451121],[-60.4020813,43.8733218],[-60.3528219,43.8292653],[-60.2649924,43.7810764],[-60.1765204,43.7506446],[-60.072052,43.7303797],[-59.86733,43.7273684],[-59.7394076,43.748407],[-59.6456642,43.7812222],[-59.5984675,43.8060174],[-59.4393472,43.9117765],[-59.4064753,43.9422796],[-59.3713892,44.0009786],[-59.3634562,44.0580015],[-59.3740492,44.1062351],[-59.3913094,44.1383598],[-59.4473645,44.1938837],[-59.4845044,44.2156261],[-59.5562247,44.2406776],[-59.6470762,44.2500903],[-59.7321078,44.2390248],[-59.7744732,44.2254616],[-59.931257,44.1368052],[-59.9953185,44.1356787],[-60.0725675,44.1655986],[-60.1187634,44.1742415],[-60.2178869,44.1734116],[-60.2674123,44.1629825],[-60.3133778,44.1461208],[-60.3884275,44.095652],[-60.432761,44.0289609],[-60.4420607,43.9834608]]]]}}]}