{"type":"FeatureCollection","features":[{"type":"Feature","properties":{"id":"nt"},"geometry":{"type":"Polygon","coordinates":[[[-136.588001,69.4031067],[-136.4483514,68.8936086],[-136.4483476,67.7088845],[-136.4305005,67.6958218],[-136.4450602,67.6611792],[-136.4237575,67.6448411],[-136.3682577,67.6441958],[-136.3426518,67.633464],[-136.2790881,67.6365332],[-136.2783516,67.6303443],[-136.2276123,67.6183594],[-136.2369407,67.6139377],[-136.2349114,67.5990205],[-136.2000581,67.5800251],[-136.2092467,67.5645892],[-136.2036201,67.5460516],[-136.2231812,67.5327309],[-136.2123287,67.5297219],[-136.2103506,67.5181996],[-136.1702546,67.5079576],[-136.1731025,67.4960142],[-136.199709,67.4901449],[-136.202192,67.4831782],[-136.1878046,67.476879],[-136.1791517,67.4573625],[-136.1983563,67.443235],[-136.2014218,67.4274496],[-136.2159657,67.4209082],[-136.2214647,67.4022331],[-136.184056,67.3963262],[-136.1325842,67.3701455],[-136.1673133,67.3604553],[-136.1512814,67.3436328],[-136.1351544,67.3397775],[-136.1264616,67.3203888],[-136.0915851,67.3160181],[-136.0839426,67.307565],[-136.0899752,67.3068066],[-136.0856901,67.2950563],[-136.0956554,67.2845372],[-136.1454796,67.2779411],[-136.1169675,67.2637967],[-136.1269964,67.2533109],[-136.1259635,67.2348416],[-136.1589682,67.2177177],[-136.1851018,67.1919218],[-136.2381514,67.1816695],[-136.2265141,67.1570242],[-136.1896299,67.1491744],[-136.2064939,67.1226983],[-136.2307157,67.1148696],[-136.2250823,67.0949911],[-136.2020101,67.081072],[-136.2144732,67.0644695],[-136.1784548,67.0376811],[-136.1680978,67.0060289],[-136.1596633,67],[-133.8200842,67],[-134.0621838,66.983321],[-134.0880805,66.9730515],[-134.1033188,66.9532848],[-134.0679931,66.942751],[-134.0724764,66.9293965],[-134.0504627,66.9241975],[-134.0567466,66.9192694],[-134.0461836,66.9104815],[-133.8992607,66.8986609],[-133.8855016,66.881348],[-133.89052,66.8714739],[-133.8715708,66.8640057],[-133.8745964,66.8565133],[-133.8054969,66.835237],[-133.8161088,66.821805],[-133.7954288,66.8165662],[-133.8125859,66.7990301],[-133.7980368,66.785166],[-133.7661119,66.7847673],[-133.7692134,66.7760931],[-133.7936087,66.7661294],[-133.7821154,66.7606444],[-133.7927074,66.7555803],[-133.7724323,66.7512339],[-133.8316577,66.740473],[-133.8429624,66.7310011],[-133.8298306,66.7260728],[-133.8669401,66.7112171],[-133.9698478,66.7214963],[-134.012178,66.7122393],[-134.0122305,66.7039543],[-133.9925746,66.6920723],[-133.8794323,66.6808062],[-133.8750104,66.660498],[-133.8138413,66.6495288],[-133.7986513,66.6414865],[-133.7889342,66.6244006],[-133.7498047,66.6261219],[-133.7182309,66.6171419],[-133.6931048,66.5959886],[-133.6289593,66.5837411],[-133.5767426,66.5577574],[-133.6891422,66.528298],[-133.7283075,66.5094332],[-133.7084513,66.4918235],[-133.7156734,66.489245],[-133.7159834,66.4693598],[-133.765828,66.4588776],[-133.7507411,66.450521],[-133.7496421,66.4385204],[-133.7955034,66.4059564],[-133.7735067,66.3651618],[-133.8233176,66.3535498],[-133.8211071,66.3353055],[-133.8403602,66.3341715],[-133.8389977,66.3236052],[-133.847763,66.3180447],[-133.802543,66.2919429],[-133.7086429,66.3005184],[-133.6457111,66.2935135],[-133.6030311,66.2737943],[-133.6008459,66.2604406],[-133.5722044,66.2441044],[-133.5943705,66.2192448],[-133.5880316,66.2060101],[-133.5504034,66.1985693],[-133.5614536,66.1806181],[-133.5519047,66.1696265],[-133.5643465,66.1608633],[-133.5604582,66.1535498],[-133.5814363,66.1441601],[-133.5797962,66.1386444],[-133.6602362,66.1184368],[-133.6568656,66.1060605],[-133.7035497,66.0861802],[-133.6876108,66.0734474],[-133.7071539,66.0541542],[-133.6867309,66.0493291],[-133.6738954,66.0579008],[-133.6210303,66.0592948],[-133.6058155,66.0544247],[-133.6073738,66.0439759],[-133.5630563,66.0287272],[-133.5851174,66.0133176],[-133.613883,66.0162307],[-133.6467019,66.0078677],[-133.6245423,66.0006319],[-133.6329984,65.991846],[-133.6270073,65.9847845],[-133.6370218,65.9828411],[-133.632732,65.9775581],[-133.6445969,65.9686808],[-133.6318212,65.9568306],[-133.5697831,65.9531254],[-133.5132715,65.9612714],[-133.4496755,65.9370512],[-133.4298848,65.9373528],[-133.3480152,65.9521455],[-133.348442,65.9624031],[-133.3757718,65.9832312],[-133.3611595,65.9905786],[-133.245181,65.9774539],[-133.2358634,65.9832795],[-133.2604856,66.0009723],[-133.1545959,66.0148302],[-133.1346828,66.0310439],[-133.1043048,66.0341054],[-133.0589358,66.0224124],[-132.9830707,66.0423152],[-132.9438346,66.0253359],[-132.9420931,66.0179708],[-132.9178926,66.0189891],[-132.9235163,66.0108174],[-132.9107224,66.0048579],[-132.9394347,65.9967441],[-132.9200276,65.9814661],[-132.9413702,65.9592516],[-132.99687,65.9302628],[-132.9695826,65.9219882],[-132.9721112,65.9111075],[-132.9612553,65.9057624],[-132.8835796,65.9008291],[-132.8585575,65.9165533],[-132.8420333,65.9149576],[-132.822649,65.925343],[-132.8296519,65.9342161],[-132.8127353,65.9364715],[-132.8154808,65.9496201],[-132.766081,65.9855371],[-132.6539417,66.022087],[-132.5929018,66.0302356],[-132.5555409,66.0266172],[-132.5414785,66.0113266],[-132.5429907,65.9991294],[-132.5297949,65.9938111],[-132.5490169,65.9874754],[-132.5466286,65.9774413],[-132.5041773,65.9694149],[-132.4461506,65.9774757],[-132.4285242,65.9936111],[-132.3294064,65.9850187],[-132.3508547,65.9791184],[-132.3546222,65.9681661],[-132.3210785,65.9597114],[-132.3353772,65.9519759],[-132.3954251,65.9473606],[-132.4213761,65.9380808],[-132.401099,65.9338189],[-132.4187244,65.9295823],[-132.4197081,65.9231826],[-132.5297757,65.8979564],[-132.5425516,65.8795517],[-132.5649473,65.871843],[-132.5512086,65.8521167],[-132.5639647,65.8415609],[-132.5589628,65.8335634],[-132.4756345,65.8172108],[-132.4161544,65.7891273],[-132.3803709,65.7829924],[-132.3669302,65.7768719],[-132.3648192,65.7657654],[-132.3453418,65.7590851],[-132.3244668,65.7336263],[-132.2906371,65.7322529],[-132.275594,65.7043893],[-132.3025102,65.6913281],[-132.277857,65.690001],[-132.2498547,65.6742703],[-132.2236763,65.6700108],[-132.2258208,65.6587723],[-132.214195,65.641904],[-132.165499,65.6174657],[-132.1733795,65.5978131],[-132.2133347,65.5871564],[-132.2308803,65.5607647],[-132.2626348,65.5562315],[-132.259046,65.5444269],[-132.2682605,65.5282425],[-132.2882946,65.5143437],[-132.2873566,65.5059183],[-132.3198979,65.489348],[-132.3122948,65.4742817],[-132.344745,65.4407222],[-132.3629198,65.4382029],[-132.3723554,65.4237816],[-132.3960982,65.4237031],[-132.4220295,65.3983888],[-132.4555041,65.3954189],[-132.5210071,65.3727077],[-132.5313917,65.3496657],[-132.5576767,65.328547],[-132.5508103,65.3049992],[-132.5617194,65.2861837],[-132.647805,65.2836882],[-132.6698055,65.2758519],[-132.6738446,65.2613981],[-132.7021526,65.2561549],[-132.6896777,65.2442621],[-132.6941626,65.2376923],[-132.7222067,65.2332899],[-132.7692862,65.2400462],[-132.7881218,65.2306384],[-132.7540319,65.2276239],[-132.7142398,65.2086031],[-132.7122541,65.2029217],[-132.7604857,65.2010182],[-132.7944486,65.1883695],[-132.7361355,65.1619125],[-132.695761,65.1582815],[-132.6868374,65.1743303],[-132.6129163,65.1815086],[-132.58938,65.1945856],[-132.5472013,65.191932],[-132.5433059,65.1811711],[-132.5169759,65.173937],[-132.5176141,65.1629405],[-132.5301942,65.1550545],[-132.5315507,65.1421305],[-132.568842,65.126014],[-132.563329,65.1117035],[-132.5510003,65.1088675],[-132.5519495,65.1002731],[-132.5288293,65.0876249],[-132.4043589,65.0832018],[-132.3821147,65.0917797],[-132.3573312,65.090608],[-132.3528923,65.0785562],[-132.338202,65.0733348],[-132.3521747,65.062826],[-132.3371034,65.0557703],[-132.3476752,65.0482722],[-132.3393376,65.0451161],[-132.3425182,65.0370333],[-132.3890619,65.0277345],[-132.437531,65.0041833],[-132.4337147,64.9900393],[-132.5054702,64.9735057],[-132.5193241,64.9634566],[-132.5097274,64.9351048],[-132.480031,64.9281187],[-132.4849646,64.9191877],[-132.4537692,64.9059171],[-132.4787706,64.9040845],[-132.4882716,64.895922],[-132.47906,64.8918113],[-132.4867337,64.8816922],[-132.5261837,64.8839918],[-132.5552329,64.8749191],[-132.5663478,64.855107],[-132.6035033,64.8518814],[-132.6335583,64.8339447],[-132.632429,64.8283514],[-132.5963499,64.8146776],[-132.5706737,64.7788903],[-132.5565908,64.7754628],[-132.5155803,64.7980761],[-132.429971,64.782028],[-132.4125686,64.7980805],[-132.3943135,64.7896622],[-132.3473338,64.7870519],[-132.2906962,64.759144],[-132.2269869,64.7467457],[-132.2082391,64.7379571],[-132.2121597,64.7298413],[-132.159794,64.7096514],[-132.0965847,64.7041593],[-132.0770582,64.7093205],[-132.038756,64.6989093],[-131.9999309,64.6616762],[-131.988529,64.6444931],[-131.9925985,64.638874],[-131.9751304,64.6282836],[-131.9818354,64.6191449],[-131.9759926,64.6141572],[-131.9617442,64.6121581],[-131.9432661,64.5948491],[-131.9077615,64.5875199],[-131.9099319,64.5737413],[-131.8377341,64.5590108],[-131.8710624,64.5472027],[-131.8460089,64.5369258],[-131.8445441,64.5290873],[-131.8195705,64.526878],[-131.8079708,64.5450869],[-131.7966495,64.5473721],[-131.6892451,64.531475],[-131.716673,64.51642],[-131.6909737,64.5002707],[-131.6907822,64.4893954],[-131.7517429,64.4775367],[-131.7657684,64.4558966],[-131.7834402,64.4601564],[-131.8046791,64.4542388],[-131.8393804,64.4284228],[-131.8414078,64.4072526],[-131.8710687,64.3888085],[-131.851287,64.3806628],[-131.7969381,64.3750505],[-131.7491539,64.3811267],[-131.7316062,64.3729775],[-131.6796121,64.3886052],[-131.6361122,64.3747882],[-131.6009573,64.3880274],[-131.592307,64.3797669],[-131.5624833,64.3909268],[-131.5302777,64.3813529],[-131.5344348,64.3977666],[-131.4463254,64.3986154],[-131.4600845,64.4139096],[-131.4275471,64.4136969],[-131.4264054,64.4189997],[-131.4571364,64.4493663],[-131.3926637,64.4633095],[-131.353997,64.4529129],[-131.338953,64.4610224],[-131.2805938,64.4508066],[-131.2465026,64.4367517],[-131.2503425,64.4273739],[-131.1503204,64.4167256],[-131.1201917,64.3807245],[-131.0832491,64.3722046],[-131.1093503,64.3619744],[-131.1074736,64.3535672],[-131.0330723,64.3240866],[-131.0774329,64.3025964],[-131.0498182,64.2913512],[-131.0805274,64.2743726],[-131.0242333,64.2734837],[-130.9464532,64.2382097],[-130.9478354,64.2224367],[-130.9377131,64.2151205],[-130.9588524,64.2070464],[-130.9470327,64.1938243],[-130.916869,64.195054],[-130.8533257,64.1812875],[-130.9119841,64.1709612],[-130.8910765,64.1556769],[-130.9200854,64.144687],[-130.9737241,64.1414614],[-130.9834781,64.1311892],[-130.9523507,64.1218336],[-130.9734898,64.114183],[-130.9676604,64.104755],[-130.928247,64.107199],[-130.8925662,64.0931918],[-130.8968041,64.0452939],[-130.8823846,64.0376624],[-130.8280505,64.0464351],[-130.7499783,64.041247],[-130.7767804,64.0080448],[-130.7751105,63.9983031],[-130.7958634,63.9908036],[-130.7734192,63.972067],[-130.7296898,63.9670788],[-130.6963106,63.9528682],[-130.6428952,63.9510507],[-130.6382802,63.9360047],[-130.5951224,63.9238027],[-130.5391191,63.9296684],[-130.5268026,63.9181881],[-130.4850949,63.9121006],[-130.4789366,63.9062799],[-130.4866282,63.8992941],[-130.4212661,63.8766715],[-130.4363989,63.8717065],[-130.4447506,63.8585544],[-130.3923653,63.8583277],[-130.3690567,63.8413122],[-130.3805294,63.8378551],[-130.355707,63.8237916],[-130.2657365,63.8455431],[-130.2645533,63.852707],[-130.275031,63.8576952],[-130.2570326,63.8768494],[-130.2322815,63.8771655],[-130.2064155,63.8613623],[-130.1660842,63.8703497],[-130.1338623,63.8553613],[-130.1600392,63.8440109],[-130.1456124,63.8283607],[-130.1634964,63.8133681],[-130.1193435,63.7947521],[-130.1304968,63.7857168],[-130.1320821,63.7708636],[-130.1529066,63.7611175],[-130.1452396,63.7528224],[-130.2312412,63.7550938],[-130.2223491,63.7489718],[-130.2319203,63.7387614],[-130.2207785,63.7322097],[-130.251193,63.7210076],[-130.2917929,63.718024],[-130.3259482,63.7340498],[-130.360304,63.7049215],[-130.2896818,63.6555176],[-130.2218617,63.6669387],[-130.143735,63.6943458],[-130.134417,63.6797177],[-130.145788,63.6635839],[-130.0950278,63.6324214],[-130.1016823,63.6152139],[-130.0495152,63.6103672],[-130.0226539,63.6204831],[-129.9566401,63.6109482],[-129.9446394,63.6053956],[-129.964372,63.5987036],[-129.9656679,63.5890464],[-129.984777,63.5753863],[-129.9144703,63.5615762],[-129.9057744,63.5378065],[-129.9155786,63.5301063],[-129.8913031,63.522922],[-129.8813796,63.5058495],[-129.8571918,63.4963344],[-129.8405055,63.4756914],[-129.8460244,63.4729933],[-129.8127065,63.4598132],[-129.8346046,63.4508286],[-129.8796268,63.4673517],[-129.9150124,63.467646],[-129.9070752,63.4614272],[-129.9144198,63.4468],[-129.9083543,63.4428221],[-129.9363076,63.4368528],[-129.9434536,63.42595],[-129.9209596,63.4164301],[-129.9267513,63.4064254],[-129.8970829,63.381111],[-129.9033935,63.3706686],[-129.9459051,63.3634462],[-129.9323696,63.3520242],[-129.9393617,63.3402607],[-130.0166037,63.3191096],[-130.0333388,63.3347058],[-130.0789925,63.3373837],[-130.0943424,63.3168781],[-130.1586838,63.3056794],[-130.1579194,63.2952443],[-130.1677126,63.2865866],[-130.1442783,63.2837009],[-130.1466802,63.2743115],[-130.1640747,63.2594619],[-130.1922562,63.2509581],[-130.1631216,63.2459436],[-130.0826522,63.2550024],[-130.0388796,63.2469227],[-130.0210028,63.2348045],[-130.0311776,63.2199838],[-129.9796171,63.1884617],[-129.9328693,63.2019796],[-129.9230638,63.1901328],[-129.9055385,63.1859866],[-129.9190468,63.1617596],[-129.8899215,63.1473102],[-129.888985,63.1381249],[-129.8670004,63.1264398],[-129.8530216,63.1348405],[-129.8292969,63.1286039],[-129.8382339,63.1158374],[-129.8539646,63.1111524],[-129.8396878,63.1065524],[-129.8621075,63.0925862],[-129.8457807,63.0832869],[-129.8379105,63.0924844],[-129.8226992,63.0931121],[-129.7920971,63.0865052],[-129.7871384,63.070978],[-129.7633253,63.0752909],[-129.7095177,63.0636375],[-129.663248,63.0813191],[-129.6288968,63.0796222],[-129.6250119,63.0639458],[-129.602501,63.0433502],[-129.6538473,63.0195974],[-129.6579069,63.0027314],[-129.6803667,62.9891213],[-129.6632497,62.972454],[-129.6960925,62.9599141],[-129.7022008,62.9528289],[-129.6938807,62.9464254],[-129.7406766,62.9224064],[-129.7284184,62.9126192],[-129.7283655,62.9012247],[-129.7102373,62.8913674],[-129.7657955,62.8957442],[-129.7853331,62.8731251],[-129.7737032,62.8633563],[-129.7778692,62.8567181],[-129.753596,62.8481209],[-129.7419278,62.8327801],[-129.6938881,62.82689],[-129.7024571,62.8087117],[-129.6709842,62.8000015],[-129.6784034,62.7942393],[-129.6649885,62.7864135],[-129.6660324,62.7783886],[-129.6328956,62.7638391],[-129.6460666,62.7549693],[-129.6297982,62.7510982],[-129.6404594,62.7361051],[-129.6247914,62.7300047],[-129.62933,62.72196],[-129.621296,62.7088549],[-129.5984309,62.6934348],[-129.5595836,62.6935861],[-129.5581135,62.6816046],[-129.5167626,62.669282],[-129.5367393,62.6590282],[-129.5290339,62.6403023],[-129.5096769,62.6438746],[-129.4841144,62.6331537],[-129.4959582,62.6144961],[-129.5198584,62.5981764],[-129.5540843,62.5903661],[-129.5583387,62.5740337],[-129.4851809,62.5888446],[-129.4263962,62.5846916],[-129.356156,62.5342143],[-129.3150968,62.5334377],[-129.2904005,62.5205792],[-129.2331811,62.5097986],[-129.2275605,62.4942884],[-129.1814812,62.4879246],[-129.1939233,62.4818985],[-129.1937081,62.4746385],[-129.1781758,62.4637667],[-129.2350522,62.4484669],[-129.2685225,62.4511038],[-129.2698776,62.4428791],[-129.2887533,62.4351892],[-129.2683861,62.427313],[-129.3139014,62.3962235],[-129.216628,62.3694175],[-129.2576945,62.370281],[-129.2584584,62.3558056],[-129.2842724,62.33682],[-129.2804472,62.3215233],[-129.316514,62.3171732],[-129.2969443,62.3114581],[-129.3027703,62.2873981],[-129.2977234,62.2750891],[-129.304358,62.2694466],[-129.2512009,62.239608],[-129.2568689,62.2293107],[-129.2004789,62.2121511],[-129.2143925,62.1855199],[-129.2782774,62.16481],[-129.2810727,62.1508101],[-129.2299985,62.1474709],[-129.2094138,62.1387739],[-129.2171006,62.1294805],[-129.1845599,62.1143081],[-129.1373521,62.106751],[-129.0852938,62.1104238],[-129.079176,62.1249379],[-129.0418433,62.1136304],[-129.0085494,62.1201264],[-128.9998328,62.1287396],[-128.9517861,62.0977401],[-128.9398479,62.0980944],[-128.9259312,62.1089447],[-128.907522,62.1070082],[-128.9088081,62.1199665],[-128.893622,62.1214951],[-128.8257432,62.0883211],[-128.8501858,62.0726768],[-128.856075,62.0589041],[-128.8372024,62.0539371],[-128.8193421,62.0721732],[-128.8040389,62.0722376],[-128.787238,62.0652784],[-128.7742382,62.0482786],[-128.7625287,62.0651888],[-128.773317,62.0833933],[-128.7595439,62.0901473],[-128.7624587,62.0997348],[-128.7131938,62.1016342],[-128.7195256,62.1096542],[-128.7099085,62.121811],[-128.6827434,62.1330214],[-128.6548171,62.1274161],[-128.6329456,62.1110136],[-128.6012296,62.1247856],[-128.6134154,62.1345552],[-128.5976254,62.1410586],[-128.5196365,62.1029153],[-128.4932869,62.0622019],[-128.4603866,62.0627955],[-128.4365753,62.0507928],[-128.4281171,62.0319113],[-128.3753793,62.0241379],[-128.3882048,62.003351],[-128.377257,61.9941322],[-128.3824885,61.9911933],[-128.3298346,61.9726167],[-128.3198026,61.9514896],[-128.2964572,61.9521894],[-128.256095,61.9367928],[-128.2544411,61.9296022],[-128.2648983,61.9256725],[-128.2566146,61.9143259],[-128.2412652,61.9103371],[-128.2415911,61.8972233],[-128.2214773,61.8872541],[-128.2317712,61.8798025],[-128.2051506,61.871123],[-128.2012744,61.860485],[-128.2156168,61.8546425],[-128.1807986,61.8410813],[-128.15883,61.8612868],[-128.1390981,61.864594],[-128.1318281,61.8553645],[-128.1146811,61.853756],[-128.0733377,61.8658635],[-128.0480715,61.8496797],[-128.0191647,61.8442292],[-128.0275952,61.8278603],[-127.9940685,61.8096144],[-128.0538599,61.7937764],[-128.0347447,61.7752663],[-128.0427731,61.7611604],[-128.0722043,61.7506433],[-128.0460584,61.7378864],[-128.0109052,61.7333102],[-128.0124188,61.725533],[-127.9480598,61.6931921],[-127.9239051,61.6845339],[-127.8933468,61.6857135],[-127.8864239,61.670947],[-127.8480382,61.6538765],[-127.854772,61.6356807],[-127.8235021,61.6277526],[-127.7980627,61.6081251],[-127.7650202,61.59615],[-127.6977159,61.5957005],[-127.688503,61.5907327],[-127.6943938,61.5779095],[-127.6711451,61.563697],[-127.6785615,61.5549027],[-127.6551937,61.5398465],[-127.583501,61.5314717],[-127.5844124,61.525003],[-127.5193428,61.4959797],[-127.458099,61.5077594],[-127.3773795,61.5035323],[-127.2776005,61.5119033],[-127.2350604,61.4977511],[-127.2386418,61.4911705],[-127.2235966,61.4844112],[-127.230031,61.4781553],[-127.2220316,61.4698887],[-127.1397738,61.4629],[-127.1346199,61.4540068],[-127.1412695,61.4482518],[-127.1319327,61.442341],[-127.1380336,61.4355504],[-127.1353994,61.4190542],[-127.1180201,61.4050038],[-127.1222255,61.3932308],[-127.135873,61.3866431],[-127.1106639,61.3699606],[-127.071077,61.3730956],[-127.0719382,61.3572668],[-127.0514902,61.3460553],[-127.0778066,61.3296955],[-127.060034,61.3235697],[-127.0610389,61.305435],[-127.0447027,61.2947252],[-127.0486308,61.2787114],[-127.0409361,61.2702757],[-127.0401938,61.2308501],[-127.0010992,61.2309976],[-126.9866824,61.2231103],[-126.9967607,61.2200087],[-126.9944717,61.2085875],[-127.0263821,61.1916295],[-127.0055311,61.1753925],[-127.039794,61.1679586],[-127.0394644,61.1587982],[-127.0592543,61.1506913],[-127.1118271,61.1418082],[-127.1243745,61.1154909],[-127.0990843,61.108106],[-127.1053938,61.1010911],[-127.082405,61.0899634],[-127.1048566,61.0782105],[-127.0856644,61.0675001],[-127.0886875,61.0600666],[-127.0762367,61.0571463],[-127.0845785,61.0496719],[-127.080069,61.0374302],[-127.0871905,61.0277156],[-127.0475615,61.0365912],[-127.0283983,61.0330347],[-127.0123553,61.0659202],[-126.9247967,61.0530267],[-126.937666,61.0471078],[-126.9303968,61.0440014],[-126.9343358,61.0346857],[-126.9506693,61.0274715],[-126.9404795,61.0042263],[-126.9243765,60.9953622],[-126.9320274,60.9883488],[-126.9144762,60.9751412],[-126.9171309,60.9639783],[-126.8984145,60.9513701],[-126.8971038,60.9343976],[-126.9202623,60.9085593],[-126.905826,60.9051382],[-126.9062581,60.8899038],[-126.8975558,60.8825741],[-126.9290004,60.8612646],[-126.890427,60.8414808],[-126.8743602,60.8457228],[-126.8688918,60.8394076],[-126.8737961,60.8276883],[-126.847064,60.8149804],[-126.8728834,60.7848864],[-126.8700785,60.7724834],[-126.8481291,60.7607267],[-126.8031355,60.7754503],[-126.764136,60.7696147],[-126.7358686,60.7814728],[-126.6278623,60.767728],[-126.5850023,60.7940272],[-126.5358948,60.8050096],[-126.5279525,60.8132443],[-126.4826724,60.7926096],[-126.4249887,60.784073],[-126.4265289,60.7767859],[-126.4017374,60.7805795],[-126.375071,60.7679197],[-126.3479303,60.7734451],[-126.3420988,60.7842893],[-126.3250029,60.7884906],[-126.3188273,60.7787058],[-126.3020543,60.7757194],[-126.2621767,60.7802343],[-126.2412973,60.7887678],[-126.2196744,60.8129728],[-126.2685922,60.8534593],[-126.1878035,60.85058],[-126.1256863,60.8659714],[-126.0962508,60.8596562],[-126.0958437,60.8531518],[-126.1109704,60.8507333],[-126.1245188,60.8332399],[-126.1081515,60.8131189],[-126.0084207,60.8063962],[-126.0139443,60.7992013],[-126.0053555,60.7960405],[-125.9747596,60.8331441],[-125.976755,60.8488002],[-125.9411981,60.8590618],[-125.8836642,60.9012042],[-125.8418165,60.9105576],[-125.8379748,60.8938659],[-125.8250777,60.8869459],[-125.8004461,60.8490467],[-125.7642025,60.8466754],[-125.728422,60.8298126],[-125.7322093,60.8037239],[-125.6707215,60.7955917],[-125.6067032,60.8107875],[-125.5733931,60.8318706],[-125.5453969,60.8094889],[-125.4759652,60.7992941],[-125.4399634,60.7786199],[-125.3259188,60.7768008],[-125.2818375,60.784833],[-125.2685254,60.7989896],[-125.2730245,60.8106124],[-125.2314248,60.8117726],[-125.1838771,60.8476767],[-125.0860838,60.8438818],[-125.0499805,60.8157515],[-125.0420636,60.8246242],[-125.0261741,60.8234104],[-125.0003556,60.8354831],[-124.9794232,60.8544653],[-124.9243445,60.8484817],[-124.8639677,60.8557267],[-124.8642162,60.8913402],[-124.8833315,60.9208671],[-124.83442,60.9398131],[-124.8358775,60.9577765],[-124.8246097,60.9692089],[-124.7996204,60.9711254],[-124.7774524,60.9527317],[-124.7469532,60.9477695],[-124.7253659,60.9523896],[-124.6654897,60.9448096],[-124.6330924,60.9642032],[-124.5793637,60.9523392],[-124.5746104,60.9400477],[-124.5854907,60.9300019],[-124.5607936,60.9072483],[-124.5521589,60.8868832],[-124.5399554,60.8835842],[-124.5478309,60.8730368],[-124.5372194,60.8685878],[-124.5528803,60.8553827],[-124.5331467,60.8386777],[-124.5429056,60.8188553],[-124.5186862,60.8013557],[-124.4995984,60.8008473],[-124.4829607,60.7778418],[-124.5085129,60.757119],[-124.5430471,60.7489721],[-124.5463404,60.7371973],[-124.5782843,60.730858],[-124.5996861,60.7154414],[-124.6013307,60.7050947],[-124.6359389,60.7024586],[-124.6383162,60.6936379],[-124.6189774,60.6850589],[-124.6206111,60.6751968],[-124.5927377,60.6722939],[-124.6093847,60.65228],[-124.5883117,60.6350069],[-124.4997802,60.5944958],[-124.4525339,60.5370427],[-124.4179304,60.534285],[-124.4133957,60.5259503],[-124.4202741,60.5163675],[-124.4116378,60.5047448],[-124.4211343,60.5004369],[-124.4167543,60.4877992],[-124.4251838,60.4786934],[-124.4241059,60.465877],[-124.3777933,60.4670954],[-124.3601194,60.4578748],[-124.3294786,60.4657809],[-124.2793235,60.4639053],[-124.2041784,60.4535152],[-124.2091949,60.4402023],[-124.2039832,60.4344531],[-124.216418,60.4262405],[-124.2063543,60.416607],[-124.2170772,60.4031161],[-124.2125089,60.3971279],[-124.2267141,60.3883278],[-124.2189805,60.3808244],[-124.2327843,60.3710799],[-124.2112499,60.3635865],[-124.2170181,60.3560357],[-124.195958,60.3190997],[-124.1601912,60.2879605],[-124.1585623,60.2724306],[-124.1452808,60.2570691],[-124.111698,60.2368627],[-124.1097612,60.2131857],[-124.1210204,60.1986559],[-124.0864841,60.1921501],[-124.0680802,60.1603629],[-124.0552772,60.1612378],[-124.0563691,60.1535917],[-124.0048684,60.1460138],[-124.006811,60.1242994],[-123.9921239,60.0748283],[-123.8102524,60.0009623],[-102.0075681,59.9994439],[-102.0006191,64.2336722],[-103.5826465,64.3965271],[-105,64.5264798],[-107.2374929,64.7017515],[-109.3344286,64.8336372],[-110.0219717,65.183061],[-110.6678591,65.5003267],[-112.5012946,65.5003203],[-113.5131772,65.8625195],[-114.5415162,66.213771],[-115.4939499,66.5246733],[-116.4971433,66.8378442],[-117.4986186,67.1365054],[-118.5373692,67.4322038],[-119.7123158,67.7502963],[-120.6828104,68.0002875],[-120.680556,69.5563022],[-118.4,69.6143729],[-116.8088293,69.6384667],[-116.7879566,69.6334393],[-116.7706404,69.6416207],[-116.7543833,69.6338015],[-116.7268194,69.6406065],[-116.6325788,69.6321212],[-117.1465907,69.8893186],[-117.1169164,70.0004251],[-112.8852879,70.000467],[-112.8852822,69.8338425],[-112.6519274,69.833844],[-112.6519251,69.8525829],[-112.6369881,69.8506484],[-112.6444745,69.8564027],[-112.6294191,69.8645489],[-112.6371104,69.8718128],[-112.6369954,69.862834],[-112.6513195,69.8685032],[-112.640603,69.8782436],[-112.6280358,69.8817199],[-112.6258493,69.8726976],[-112.6393891,69.8770904],[-112.6285315,69.8683924],[-112.6084426,69.8794453],[-112.6232743,69.8657853],[-112.6160454,69.8616229],[-112.5887295,69.8788248],[-112.6033646,69.8673932],[-112.5943709,69.8643671],[-112.6151786,69.8543673],[-112.6067734,69.8499655],[-112.5973919,69.8556807],[-112.5801659,69.8479918],[-112.5854341,69.8515412],[-112.5776523,69.8551176],[-112.5779375,69.8495399],[-112.5544259,69.8482],[-112.5609613,69.8506751],[-112.5552207,69.8567094],[-112.543602,69.8494998],[-112.5160289,69.8510964],[-112.5118148,69.8657497],[-112.5006008,69.8636432],[-112.4924916,69.8700961],[-112.4965877,69.8735811],[-112.4830485,69.8769502],[-112.4764185,69.8755295],[-112.4807102,69.8681478],[-112.5042361,69.8540776],[-112.4541752,69.8685592],[-112.4480493,69.8660413],[-112.4630066,69.8587139],[-112.4580172,69.8643792],[-112.4708158,69.8634445],[-112.4797225,69.8518651],[-112.4514842,69.8567722],[-112.4351476,69.8482039],[-112.4104751,69.8540244],[-112.4284345,69.8627604],[-112.4146549,69.8677265],[-112.3684001,69.8680084],[-112.3682285,69.8764187],[-112.3383376,69.8796646],[-112.3733032,69.8822168],[-112.3796439,69.8842426],[-112.3595791,69.887281],[-112.3905659,69.8930816],[-112.3487658,69.9016619],[-112.3275876,69.8939667],[-112.3190877,69.8959528],[-112.3644734,69.9059792],[-112.3986554,69.8973522],[-112.4279452,69.9008919],[-112.4182737,69.8982658],[-112.4340322,69.8940873],[-112.440101,69.901789],[-112.4592304,69.8968359],[-112.4493523,69.8942096],[-112.4516344,69.8906472],[-112.4887057,69.8871823],[-112.4830913,69.8924915],[-112.5019185,69.8983975],[-112.5019148,70.0004697],[-110.0016874,70.0004973],[-110.0027326,79.1299817],[-112.787693,78.7868039],[-113.172118,78.7274058],[-113.717997,78.6262994],[-114.723232,78.5106289],[-114.894687,78.4836872],[-115.019896,78.4535261],[-115.873008,78.1929494],[-116.259103,78.0061494],[-116.594373,77.9185842],[-116.75586,77.8509292],[-116.875615,77.7897644],[-117.326515,77.7253356],[-117.680615,77.7001639],[-118.552467,77.5952128],[-119.188198,77.5548],[-119.769668,77.4758597],[-120,77.4182574],[-121.899929,76.8638644],[-122.717843,76.6094433],[-123.420146,76.5262894],[-123.555805,76.5014686],[-123.677416,76.4670133],[-123.762576,76.4270506],[-123.807244,76.3836308],[-123.820687,76.2228989],[-123.906691,76.0752861],[-123.911653,76.0446075],[-123.893359,76.0098097],[-123.819725,75.9472806],[-123.713486,75.9001614],[-123.600088,75.8643967],[-124.51715,75.1865822],[-125.374592,74.4892764],[-125.513742,74.4636689],[-125.634477,74.4275106],[-125.747976,74.3755917],[-125.80052,74.3239747],[-125.806999,74.2972064],[-125.800132,74.270445],[-125.780109,74.2441756],[-125.740699,74.2147794],[-125.301362,74.0190828],[-125.266783,73.9379056],[-125.413611,73.7598836],[-125.429663,73.7295853],[-125.425629,73.6902456],[-125.394047,73.6501386],[-125.339629,73.61144],[-125.258183,73.5767511],[-125.020265,73.5220739],[-125.067788,73.4907336],[-125.09623,73.4564164],[-125.182873,73.3993833],[-125.203646,73.3722444],[-125.210956,73.3413269],[-125.228491,73.3153381],[-125.369417,73.2622014],[-125.500765,73.18461],[-125.722997,72.9761131],[-125.809235,72.9409503],[-125.868961,72.8994192],[-125.893403,72.8619294],[-125.891825,72.8202989],[-125.848974,72.7698817],[-125.765627,72.7251392],[-125.786198,72.6860022],[-125.805935,72.66792],[-125.957943,72.6194944],[-126.030163,72.5760303],[-126.062303,72.5355278],[-126.068725,72.4767089],[-126.086961,72.4494225],[-126.09241,72.4247608],[-126.12144,72.4011364],[-126.213546,72.3665931],[-126.278554,72.3260467],[-126.317522,72.2825939],[-126.330344,72.2452933],[-126.38778,72.2143947],[-126.425511,72.1816539],[-126.441871,72.1543244],[-126.44573,72.1276703],[-126.555294,72.082405],[-126.602531,72.0482703],[-127.542898,71.5101925],[-128.151671,71.1423886],[-128.740393,70.7711064],[-130.030227,70.4517817],[-130.495668,70.407545],[-130.755254,70.4054489],[-131.009757,70.3664378],[-131.190716,70.3151572],[-131.806223,70.1092914],[-132.570606,69.9393117],[-132.775259,69.9197017],[-133.452016,69.7870119],[-133.965203,69.9474919],[-134.106827,69.9698322],[-134.354701,69.9868653],[-134.564258,69.9760342],[-135.131838,69.8824575],[-135.744358,69.8173983],[-135.841881,69.7958169],[-135.946656,69.7609178],[-136.039275,69.7139511],[-136.287181,69.6128331],[-136.588001,69.4031067]]]}}]}