{"type":"FeatureCollection","features":[{"type":"Feature","properties":{"id":"nv"},"geometry":{"type":"Polygon","coordinates":[[[-120.0065184,39.0032856],[-118.5475236,37.9824066],[-117.2269331,37.0167006],[-115.9339329,36.0320751],[-114.6329611,35.0018894],[-114.6351412,35.0333469],[-114.6028132,35.0689416],[-114.6459789,35.1034059],[-114.6270496,35.1193328],[-114.5793016,35.1285521],[-114.5697351,35.1855217],[-114.5959556,35.2921377],[-114.6000195,35.3419448],[-114.6788121,35.4979236],[-114.6635343,35.5346011],[-114.6631966,35.5646358],[-114.6751499,35.57915],[-114.6531499,35.6064921],[-114.6891972,35.6511321],[-114.6812014,35.6840966],[-114.7028362,35.7074266],[-114.6950937,35.7576361],[-114.698897,35.7892686],[-114.7114417,35.806757],[-114.6955918,35.8304907],[-114.705164,35.8509088],[-114.6622085,35.8723489],[-114.6971814,35.8982443],[-114.7080792,35.9117557],[-114.7079979,35.9286621],[-114.730521,35.9432173],[-114.7292376,35.9600146],[-114.7435517,35.9839719],[-114.743174,36.0083325],[-114.722125,36.0292445],[-114.7444539,36.0412812],[-114.735019,36.0546903],[-114.7565764,36.0806923],[-114.7542437,36.0890025],[-114.738948,36.1034971],[-114.6653376,36.1169749],[-114.6299888,36.1426571],[-114.616694,36.130101],[-114.572031,36.15161],[-114.511721,36.150956],[-114.5021721,36.1287957],[-114.463637,36.139695],[-114.446605,36.12597],[-114.405475,36.147371],[-114.3733094,36.1417876],[-114.3326021,36.11032],[-114.3091542,36.0809374],[-114.3126762,36.0611833],[-114.280202,36.046362],[-114.2416687,36.013886],[-114.1769373,36.0275135],[-114.1515771,36.0247922],[-114.13735,36.0404854],[-114.1343073,36.0648135],[-114.1187246,36.0876122],[-114.1203026,36.1119455],[-114.0896441,36.1405227],[-114.0906036,36.15076],[-114.0765848,36.1613053],[-114.0677938,36.1822985],[-114.046606,36.195271],[-114.0528506,37.5697756],[-114.0413718,41.9937386],[-117.0262469,42.000255],[-119.9995297,41.9949298],[-119.9956059,40.3816281],[-120.0065184,39.0032856]]]}}]}