{"type":"FeatureCollection","features":[{"type":"Feature","properties":{"id":"ny"},"geometry":{"type":"MultiPolygon","coordinates":[[[[-79.7618404,42.5161334],[-79.761785,41.9988366],[-75.3595475,41.9995045],[-75.3410821,41.9929275],[-75.3421372,41.9727653],[-75.3129371,41.9501555],[-75.2938881,41.9545328],[-75.2788983,41.9387695],[-75.2672033,41.905401],[-75.2713693,41.8873133],[-75.2596684,41.8824466],[-75.2589222,41.8626689],[-75.2417523,41.8671957],[-75.223546,41.857511],[-75.2044975,41.8698342],[-75.1851947,41.8599234],[-75.172473,41.8722106],[-75.1626433,41.8503504],[-75.116595,41.845448],[-75.113019,41.822618],[-75.089878,41.811699],[-75.072247,41.81413],[-75.0757472,41.7994819],[-75.0929691,41.7963829],[-75.1046555,41.7742395],[-75.0746625,41.7713574],[-75.0531228,41.7506249],[-75.0500399,41.7128894],[-75.0689897,41.7088251],[-75.052655,41.6878886],[-75.0593884,41.671715],[-75.0495324,41.6608667],[-75.0441256,41.6182293],[-75.0594807,41.6176478],[-75.0597725,41.6105402],[-75.074613,41.605711],[-75.018524,41.551802],[-75.024757,41.535099],[-75.00385,41.524052],[-75.003151,41.508101],[-74.984372,41.506611],[-74.982513,41.480319],[-74.95826,41.476396],[-74.941798,41.483542],[-74.912991,41.475901],[-74.906887,41.461131],[-74.8904783,41.4556937],[-74.892625,41.438617],[-74.858578,41.444427],[-74.8316145,41.4304081],[-74.8081613,41.4427827],[-74.7896272,41.4215148],[-74.738482,41.430648],[-74.7414065,41.405503],[-74.7158504,41.3926826],[-74.6911097,41.3671027],[-74.6955425,41.3576501],[-74.330738,41.185489],[-73.893628,40.997165],[-73.929795,40.888724],[-73.963577,40.826642],[-74.014028,40.757551],[-74.02639,40.700102],[-74.055766,40.651475],[-74.126018,40.642151],[-74.185641,40.646042],[-74.2024,40.631592],[-74.199589,40.597846],[-74.214576,40.560533],[-74.247485,40.549377],[-74.246021,40.520958],[-74.258129,40.508717],[-74.253037,40.48666],[-74.225332,40.476578],[-73.977874,40.519095],[-73.90214,40.492121],[-73.893458,40.505019],[-73.783646,40.536351],[-73.617041,40.535251],[-73.565456,40.525965],[-73.341988,40.578627],[-73.309075,40.570074],[-73.246181,40.572456],[-73.066073,40.611332],[-72.752785,40.711932],[-72.391749,40.812733],[-71.86392,41.000177],[-71.8286172,41.0182938],[-71.7958962,41.0639397],[-71.790972,41.184101],[-71.907431,41.304579],[-71.929404,41.310549],[-72.019146,41.290637],[-72.081777,41.2622393],[-72.999547,41.087108],[-73.200345,41.036489],[-73.612405,40.950983],[-73.656559,40.984071],[-73.655291,41.012266],[-73.727811,41.10069],[-73.481924,41.212707],[-73.551401,41.295142],[-73.489333,42.010372],[-73.4873386,42.0495412],[-73.4970181,42.049624],[-73.5082102,42.086134],[-73.264851,42.745853],[-73.276094,42.746001],[-73.290963,42.801993],[-73.283584,42.814052],[-73.285347,42.834097],[-73.278355,42.837493],[-73.248348,43.516474],[-73.241668,43.534712],[-73.260502,43.566518],[-73.297359,43.579242],[-73.291001,43.599274],[-73.302273,43.60972],[-73.305477,43.627811],[-73.371779,43.624659],[-73.372976,43.604516],[-73.387413,43.590517],[-73.383908,43.57601],[-73.396246,43.567897],[-73.431388,43.58776],[-73.417826,43.62111],[-73.426517,43.642471],[-73.415765,43.651999],[-73.404436,43.690649],[-73.370486,43.724935],[-73.369498,43.744024],[-73.350645,43.77128],[-73.392492,43.820779],[-73.372247,43.845337],[-73.382046,43.855008],[-73.374051,43.875563],[-73.4081108,43.9304449],[-73.4076481,44.0211103],[-73.43774,44.045006],[-73.411316,44.112686],[-73.415761,44.132826],[-73.402381,44.145856],[-73.390583,44.190886],[-73.362013,44.208545],[-73.34323,44.238049],[-73.323596,44.243897],[-73.3132801,44.2641387],[-73.334939,44.364441],[-73.315016,44.388513],[-73.2933822,44.437485],[-73.306707,44.500334],[-73.338751,44.548046],[-73.374389,44.575455],[-73.381848,44.589316],[-73.376849,44.599598],[-73.390231,44.618353],[-73.3612783,44.6949782],[-73.3656186,44.7418072],[-73.333342,44.7872703],[-73.3351732,44.8042567],[-73.3791569,44.8377015],[-73.3815878,44.849223],[-73.3573494,44.9027903],[-73.3387145,44.9190397],[-73.3381868,44.9647982],[-73.3547615,44.9867954],[-73.3431662,45.0107247],[-74.149712,44.9913861],[-74.663059,44.998923],[-74.670529,45.006285],[-74.7218056,44.9984444],[-74.7309444,44.9904722],[-74.7603333,44.995],[-74.7631389,45.0057222],[-74.7928889,45.0044167],[-74.8014722,45.0145556],[-74.8265278,45.0158611],[-74.8663611,45.0004722],[-74.8884444,44.9999722],[-74.9080556,44.9835278],[-74.9928056,44.9775],[-75.0050278,44.9584167],[-75.0266944,44.9466389],[-75.0646667,44.9295],[-75.1346667,44.9150556],[-75.14,44.8969444],[-75.2183889,44.8777778],[-75.2848611,44.8483056],[-75.3074167,44.8366389],[-75.3018889,44.8264722],[-75.3335556,44.80625],[-75.3444167,44.8090278],[-75.3699444,44.7829722],[-75.4137222,44.7721667],[-75.4236389,44.7560833],[-75.5049167,44.7053611],[-75.7669167,44.5152778],[-75.8075833,44.4716944],[-75.8213889,44.4320556],[-75.9128333,44.3678056],[-75.9701944,44.3425278],[-76.0011111,44.3478611],[-76.0455,44.3318056],[-76.0969722,44.2997222],[-76.1311667,44.2963889],[-76.1618056,44.2807222],[-76.1643056,44.2398333],[-76.2068333,44.215],[-76.2454722,44.2038611],[-76.3127222,44.1990556],[-76.3528611,44.1343333],[-76.4389444,44.0940556],[-76.7966872,43.6311274],[-78.6903889,43.6311389],[-79.2006667,43.4504722],[-79.0703912,43.2623992],[-79.0559323,43.2546736],[-79.0565586,43.2103169],[-79.0486941,43.200158],[-79.0533047,43.1739052],[-79.0422989,43.1436633],[-79.0696492,43.1203219],[-79.0578728,43.1070959],[-79.0740736,43.0778478],[-79.0073964,43.0659167],[-78.9996403,43.0559897],[-79.0234241,43.0162881],[-79.0201819,42.9948219],[-78.9617555,42.9578503],[-78.9327428,42.9560158],[-78.9094861,42.9336997],[-78.9059228,42.900285],[-78.9353817,42.8282908],[-79.7618404,42.5161334]]],[[[-74.0438883,40.6901864],[-74.0462749,40.6893396],[-74.0436327,40.688777],[-74.0438883,40.6901864]]],[[[-74.0389358,40.6996549],[-74.0399309,40.6985897],[-74.0383723,40.6986686],[-74.0389358,40.6996549]]]]}}]}