{"type":"FeatureCollection","features":[{"type":"Feature","properties":{"id":"oh"},"geometry":{"type":"Polygon","coordinates":[[[-84.8035819,40.3102536],[-84.8199343,39.105441],[-84.7891737,39.1144519],[-84.7594859,39.1439423],[-84.7425139,39.1475668],[-84.718256,39.1368159],[-84.6859301,39.1007653],[-84.6071697,39.0732342],[-84.5715285,39.0825623],[-84.5509613,39.0994914],[-84.5127001,39.0933281],[-84.4759131,39.1197709],[-84.4517088,39.1187554],[-84.4349504,39.0997745],[-84.4265175,39.0532162],[-84.3408853,39.0350143],[-84.3060175,39.0076679],[-84.2886849,38.9556029],[-84.2340133,38.8912915],[-84.2319801,38.8327618],[-84.212904,38.805707],[-84.0707461,38.7702642],[-83.962195,38.7874403],[-83.9263607,38.7712814],[-83.86653,38.7602],[-83.848734,38.747178],[-83.8364101,38.7173418],[-83.7866068,38.6988058],[-83.7737108,38.6607979],[-83.7635398,38.6522521],[-83.6600496,38.6271788],[-83.6458232,38.6350571],[-83.6270692,38.6779702],[-83.5206177,38.7029589],[-83.4923579,38.6937483],[-83.4679606,38.6751727],[-83.3582046,38.6549669],[-83.3271982,38.6372528],[-83.3117487,38.6032536],[-83.292823,38.5966129],[-83.246497,38.6284638],[-83.2031847,38.6167036],[-83.1533171,38.6188999],[-83.1349493,38.6317241],[-83.1124724,38.6715819],[-83.0621327,38.6896727],[-83.0298282,38.7261755],[-82.9715706,38.7271464],[-82.9376246,38.7456248],[-82.8901816,38.7562594],[-82.8710092,38.7368214],[-82.8771987,38.6885137],[-82.8593598,38.659487],[-82.844306,38.590862],[-82.800112,38.563183],[-82.730958,38.559264],[-82.697693,38.542864],[-82.657051,38.496816],[-82.610458,38.471457],[-82.596921,38.426705],[-82.579976,38.41013],[-82.5359163,38.4040592],[-82.4074278,38.4395812],[-82.388781,38.4344465],[-82.3272404,38.4465222],[-82.304223,38.496308],[-82.2902601,38.5803689],[-82.2621484,38.598201],[-82.2041483,38.5917946],[-82.1753092,38.6072898],[-82.1732064,38.6311801],[-82.1913821,38.6822685],[-82.1823473,38.7073913],[-82.1924861,38.7286704],[-82.1938492,38.7383017],[-82.1870251,38.7216897],[-82.1886028,38.7343432],[-82.198882,38.757725],[-82.219644,38.772283],[-82.221566,38.787187],[-82.192926,38.8140912],[-82.1632285,38.8234033],[-82.1473801,38.8370314],[-82.1391372,38.8644832],[-82.1432388,38.898025],[-82.1118055,38.9322179],[-82.0913613,38.9739072],[-82.051563,38.994378],[-82.0373829,39.0242707],[-82.005509,39.029184],[-81.99108,39.0183817],[-81.9783534,38.9925563],[-81.9512524,38.9962253],[-81.9325445,38.9874503],[-81.8988538,38.9334425],[-81.9284858,38.8955938],[-81.9046474,38.8768009],[-81.889233,38.874279],[-81.8574148,38.8913078],[-81.8460777,38.9060744],[-81.8439834,38.9287414],[-81.8268795,38.9463807],[-81.8080858,38.9436438],[-81.7843075,38.9259554],[-81.7616063,38.925286],[-81.7566882,38.9370513],[-81.781989,38.9635527],[-81.7641678,39.0146845],[-81.803355,39.047678],[-81.8137039,39.0793417],[-81.7747668,39.0787245],[-81.7466519,39.0959826],[-81.7427648,39.1440769],[-81.7561501,39.1803103],[-81.7372158,39.1940626],[-81.726973,39.215068],[-81.692395,39.226443],[-81.696914,39.2559003],[-81.6843366,39.2704222],[-81.6473661,39.2773996],[-81.56989,39.2682144],[-81.5595463,39.3357609],[-81.5480579,39.3520176],[-81.5071027,39.3707048],[-81.4553618,39.409544],[-81.4374275,39.409142],[-81.4148926,39.3964563],[-81.3923878,39.3508304],[-81.3749417,39.3420116],[-81.3443473,39.3471127],[-81.2693109,39.3860736],[-81.217315,39.38759],[-81.1844791,39.4323842],[-81.1319507,39.4464809],[-81.071025,39.515608],[-80.972649,39.5890537],[-80.9304718,39.6161659],[-80.8793134,39.6217568],[-80.8664646,39.6531186],[-80.8636086,39.6917836],[-80.8311152,39.7070732],[-80.8319531,39.7197006],[-80.8695899,39.7655522],[-80.8254515,39.7996843],[-80.824276,39.847159],[-80.7911884,39.866203],[-80.8091185,39.9036455],[-80.8069909,39.9156501],[-80.7940981,39.9192839],[-80.7620693,39.9079581],[-80.7555859,39.9128472],[-80.7640933,39.9495752],[-80.740139,39.970795],[-80.7419763,40.0084725],[-80.7304578,40.0403672],[-80.7384605,40.0773173],[-80.7088736,40.1002514],[-80.7044672,40.1542776],[-80.6693056,40.1983654],[-80.65387,40.2439666],[-80.6207491,40.2642043],[-80.6163663,40.2909734],[-80.6015659,40.3148588],[-80.6124739,40.3433104],[-80.6085965,40.3734084],[-80.6340646,40.3911477],[-80.6142849,40.4068621],[-80.6132957,40.4357771],[-80.5965995,40.4761054],[-80.6182975,40.5022985],[-80.627507,40.535793],[-80.6641515,40.5701052],[-80.6676167,40.5838101],[-80.627171,40.619936],[-80.5989441,40.6252894],[-80.576704,40.614223],[-80.518991,40.638801],[-80.5210906,42.3246919],[-81.2457036,42.2075661],[-82.3974747,41.6765597],[-82.6797168,41.6765629],[-83.0691231,41.8635813],[-83.1125519,41.9593496],[-83.415851,41.733794],[-84.8059801,41.6961278],[-84.8035819,40.3102536]]]}}]}