{"type":"FeatureCollection","features":[{"type":"Feature","properties":{"id":"ok"},"geometry":{"type":"Polygon","coordinates":[[[-103.0024413,37.0000868],[-103.0024228,36.5003737],[-100.0004065,36.4999432],[-100.0003928,34.5605578],[-99.971555,34.562179],[-99.954567,34.578195],[-99.9238262,34.5754892],[-99.8341593,34.501244],[-99.8012212,34.4575294],[-99.7593044,34.4240666],[-99.7200093,34.4053491],[-99.7128127,34.3883972],[-99.6971971,34.378226],[-99.6094057,34.3691838],[-99.5869307,34.3860445],[-99.5802724,34.4153158],[-99.5725981,34.4172151],[-99.5041649,34.4106329],[-99.4869723,34.3974887],[-99.4657165,34.3941513],[-99.4605488,34.3801758],[-99.4530971,34.3878196],[-99.4354687,34.3695595],[-99.4259562,34.3815796],[-99.4031936,34.372815],[-99.3849838,34.4064655],[-99.397326,34.4088155],[-99.3907253,34.422099],[-99.3942283,34.4415594],[-99.3775733,34.4582487],[-99.3613665,34.45565],[-99.3558391,34.440935],[-99.3210781,34.4164915],[-99.3206566,34.4075786],[-99.2963865,34.413658],[-99.281486,34.4014043],[-99.2642938,34.401303],[-99.2616709,34.3925827],[-99.2751682,34.3849316],[-99.2582832,34.3724501],[-99.2467728,34.3737582],[-99.2481603,34.3651132],[-99.2371718,34.3659265],[-99.2322095,34.3465401],[-99.2125164,34.3475228],[-99.2172277,34.3415377],[-99.2080074,34.3244743],[-99.1948589,34.3238164],[-99.203921,34.30454],[-99.1926945,34.2964217],[-99.2105106,34.288762],[-99.1959991,34.2785996],[-99.2078414,34.260466],[-99.1931264,34.2588372],[-99.1890828,34.2162754],[-99.1790084,34.2260355],[-99.17475,34.2116957],[-99.1614275,34.2083129],[-99.1368782,34.2175128],[-99.1238812,34.2019521],[-99.0820179,34.2127579],[-99.0303257,34.1957398],[-99.0219802,34.2063565],[-99.013163,34.2031856],[-98.9889463,34.2195504],[-98.9730527,34.2032691],[-98.958321,34.2095885],[-98.9142377,34.1714477],[-98.9006187,34.1717633],[-98.8960246,34.1473977],[-98.8814757,34.15549],[-98.8713691,34.147997],[-98.8503786,34.1500383],[-98.7439267,34.1178373],[-98.6990997,34.1271558],[-98.663164,34.1469158],[-98.6536628,34.1624862],[-98.6420917,34.1631418],[-98.6139155,34.148905],[-98.5976685,34.1522718],[-98.5683542,34.1345996],[-98.5561381,34.1160589],[-98.4839687,34.0621266],[-98.4652405,34.0738614],[-98.449034,34.073462],[-98.440092,34.084311],[-98.414426,34.085074],[-98.4112828,34.1002302],[-98.3984828,34.102921],[-98.4004712,34.1234213],[-98.3811947,34.129845],[-98.3705848,34.1552234],[-98.3341781,34.151854],[-98.2895257,34.1324338],[-98.2393198,34.1332798],[-98.2026526,34.1170283],[-98.1710572,34.1142083],[-98.1149348,34.1551314],[-98.1040247,34.1485925],[-98.1037094,34.1121917],[-98.1189427,34.093709],[-98.1207656,34.0750532],[-98.1084465,34.0556499],[-98.0900334,34.0458502],[-98.1077656,34.0361742],[-98.088724,34.0056154],[-98.0393594,33.9932687],[-97.9823082,34.0030452],[-97.9677707,33.9884054],[-97.9484242,33.9877139],[-97.9568573,33.9598019],[-97.9745999,33.941426],[-97.95441,33.9322526],[-97.9545582,33.9226505],[-97.9639138,33.9123273],[-97.9790305,33.9114149],[-97.9849742,33.9006301],[-97.9666291,33.8822793],[-97.9348221,33.8787619],[-97.8714186,33.8505959],[-97.8468922,33.8549836],[-97.8084448,33.8788375],[-97.7945474,33.9117416],[-97.760218,33.9262092],[-97.7598736,33.9356659],[-97.7284935,33.9390919],[-97.7091401,33.955636],[-97.6940579,33.9836057],[-97.6662881,33.9925335],[-97.6369369,33.9884947],[-97.5897478,33.9527272],[-97.5998585,33.9272584],[-97.5874264,33.9145463],[-97.5911727,33.9025608],[-97.543105,33.9002667],[-97.5293672,33.9124006],[-97.5005746,33.9199323],[-97.4572301,33.9021244],[-97.4504495,33.8746219],[-97.4598909,33.8378429],[-97.450192,33.8275049],[-97.4206233,33.8185829],[-97.3786199,33.8300716],[-97.3608423,33.8257936],[-97.334106,33.8712101],[-97.3184634,33.8633885],[-97.3049021,33.8687158],[-97.3086358,33.8875549],[-97.2937763,33.87912],[-97.2872639,33.8606178],[-97.2613431,33.862364],[-97.2464782,33.877548],[-97.2489619,33.9072712],[-97.233491,33.916834],[-97.2053814,33.9155875],[-97.1743107,33.8912777],[-97.1758312,33.869976],[-97.1652341,33.8487499],[-97.1745897,33.8312124],[-97.2020555,33.823298],[-97.2030245,33.7950845],[-97.1877218,33.7803619],[-97.189095,33.7572445],[-97.1646333,33.7304091],[-97.1343329,33.7187017],[-97.1077683,33.7214859],[-97.087169,33.7433639],[-97.0940783,33.8040079],[-97.0481589,33.8200536],[-97.0542529,33.8343138],[-97.0902159,33.8418708],[-97.0886281,33.8529555],[-97.0626214,33.8600476],[-97.0406487,33.8380924],[-97.0183757,33.8501399],[-96.9838288,33.8952496],[-96.9958509,33.9428916],[-96.9808505,33.9562246],[-96.9727947,33.9353918],[-96.9169596,33.9581692],[-96.9027926,33.9431695],[-96.89557,33.8970596],[-96.872236,33.8576161],[-96.850013,33.8470609],[-96.8322348,33.8745602],[-96.7958447,33.869005],[-96.7819555,33.8617829],[-96.7708439,33.830117],[-96.7619547,33.8245616],[-96.6983418,33.8398391],[-96.6680634,33.9162263],[-96.6277842,33.8942826],[-96.5891721,33.8951159],[-96.5894498,33.8812274],[-96.6266731,33.8551167],[-96.6285036,33.844892],[-96.5730602,33.8192843],[-96.5287879,33.8226702],[-96.5015462,33.7744761],[-96.4655356,33.7822884],[-96.4224202,33.7764941],[-96.4095774,33.753641],[-96.3610966,33.7110354],[-96.3597507,33.695928],[-96.3474395,33.686667],[-96.3126815,33.706718],[-96.3100579,33.7417224],[-96.2921193,33.7708018],[-96.2612632,33.7670559],[-96.2274459,33.7506792],[-96.1877492,33.7569591],[-96.170111,33.7712655],[-96.1656907,33.8090716],[-96.1187842,33.8276118],[-96.1078837,33.8389123],[-96.0902026,33.8365596],[-96.0923054,33.8576599],[-96.0668996,33.8384489],[-96.03879,33.8403737],[-96.0302069,33.862756],[-96.0223964,33.8652861],[-96.0156157,33.8619007],[-96.0136416,33.8435104],[-95.9430888,33.8623996],[-95.935364,33.8816052],[-95.9258368,33.8859873],[-95.830276,33.8355268],[-95.8186475,33.8411972],[-95.8197072,33.8594774],[-95.8004811,33.8622214],[-95.7676938,33.8470391],[-95.7555058,33.8519933],[-95.7519868,33.8616156],[-95.7632306,33.8787193],[-95.751431,33.895499],[-95.7024217,33.8855955],[-95.6621671,33.9101028],[-95.6303239,33.9056151],[-95.5929876,33.9435753],[-95.5544839,33.9281582],[-95.5512738,33.8902267],[-95.5435491,33.8806076],[-95.5087877,33.8986337],[-95.504067,33.8762609],[-95.479498,33.8784432],[-95.4628361,33.8887306],[-95.4382348,33.8652861],[-95.4228711,33.8725552],[-95.3987527,33.8629341],[-95.3800416,33.8710587],[-95.3609872,33.8675667],[-95.3381562,33.8764746],[-95.3257966,33.890868],[-95.3046072,33.8738825],[-95.289383,33.8733303],[-95.2778953,33.8784414],[-95.2851987,33.9083932],[-95.266316,33.9098179],[-95.2635865,33.8886842],[-95.2570462,33.8912955],[-95.2486348,33.9118836],[-95.2512098,33.9382348],[-95.2197099,33.9632254],[-95.1448215,33.93449],[-95.1251684,33.9361902],[-95.1025177,33.9060397],[-95.0715736,33.9167671],[-95.0664838,33.9001448],[-95.0542358,33.8934462],[-95.0493746,33.8683043],[-95.0161195,33.8582301],[-94.9865079,33.867923],[-94.9768949,33.8504607],[-94.9562097,33.8582301],[-94.94694,33.8416926],[-94.9567247,33.8227276],[-94.9237657,33.8166664],[-94.9271989,33.8024032],[-94.9065995,33.8103909],[-94.9011922,33.7718006],[-94.8672191,33.7678032],[-94.8578019,33.7416563],[-94.7939256,33.7539304],[-94.7815826,33.7451546],[-94.7821801,33.7264208],[-94.7694918,33.7189452],[-94.7533498,33.7370063],[-94.7361444,33.737766],[-94.7195828,33.6937156],[-94.7021306,33.6850851],[-94.657133,33.6938063],[-94.6437847,33.6852899],[-94.6411859,33.661741],[-94.6181345,33.6878884],[-94.6055299,33.6812876],[-94.6026954,33.6614865],[-94.5780714,33.6805821],[-94.5678054,33.6602729],[-94.5489026,33.6621226],[-94.5407672,33.6551441],[-94.5426665,33.6428956],[-94.5626564,33.6413065],[-94.5730666,33.6310583],[-94.5602166,33.6192752],[-94.5490837,33.623455],[-94.5512832,33.6364889],[-94.5207048,33.6446366],[-94.4858248,33.6377602],[-94.4312145,35.3943534],[-94.6178753,36.4995],[-94.6179515,36.9985962],[-100.0894928,37.0022994],[-102.042132,36.9930715],[-103.0024413,37.0000868]]]}}]}