{"type":"FeatureCollection","features":[{"type":"Feature","properties":{"id":"on-s"},"geometry":{"type":"Polygon","coordinates":[[[-84.10216391345539,46.25],[-84.10825,46.2414444],[-84.0771389,46.1873333],[-84.0059722,46.1494444],[-84.0063056,46.1183056],[-83.9763333,46.1024167],[-83.9554722,46.05675],[-83.9035278,46.0604444],[-83.8263333,46.1188611],[-83.7598611,46.1027222],[-83.655,46.1216944],[-83.5719444,46.1057778],[-83.4337778,45.9981667],[-83.5971667,45.8212778],[-82.5186111,45.3386389],[-82.1228056,43.5911944],[-82.4241342,42.9978293],[-82.4131115,42.9773672],[-82.4167856,42.9667846],[-82.4553164,42.9267424],[-82.4703454,42.8874094],[-82.4682554,42.8556736],[-82.4820278,42.8082412],[-82.4673621,42.7624117],[-82.510507,42.6650326],[-82.5096536,42.6381746],[-82.5189332,42.6137372],[-82.5909251,42.5500199],[-82.6329909,42.557104],[-82.6621745,42.5414564],[-82.8281825,42.3734081],[-83.0794903,42.3087142],[-83.1279986,42.2386949],[-83.1339374,42.1748022],[-83.1217041,42.1254313],[-83.1496826,42.0409889],[-83.0691231,41.8635813],[-82.6797168,41.6765629],[-82.3974747,41.6765597],[-81.2457036,42.2075661],[-80.0799323,42.3935512],[-78.9353817,42.8282908],[-78.9059228,42.900285],[-78.9094861,42.9336997],[-78.9327428,42.9560158],[-78.9617555,42.9578503],[-79.0201819,42.9948219],[-79.0234241,43.0162881],[-78.9996403,43.0559897],[-79.0073964,43.0659167],[-79.0740736,43.0778478],[-79.0578728,43.1070959],[-79.0696492,43.1203219],[-79.0422989,43.1436633],[-79.0533047,43.1739052],[-79.0486941,43.200158],[-79.0565586,43.2103169],[-79.0559323,43.2546736],[-79.0703912,43.2623992],[-79.2006667,43.4504722],[-78.6903889,43.6311389],[-76.7966872,43.6311274],[-76.4389444,44.0940556],[-76.3528611,44.1343333],[-76.3127222,44.1990556],[-76.2454722,44.2038611],[-76.2068333,44.215],[-76.1643056,44.2398333],[-76.1618056,44.2807222],[-76.1311667,44.2963889],[-76.0969722,44.2997222],[-76.0455,44.3318056],[-76.0011111,44.3478611],[-75.9701944,44.3425278],[-75.9128333,44.3678056],[-75.8213889,44.4320556],[-75.8075833,44.4716944],[-75.7669167,44.5152778],[-75.5049167,44.7053611],[-75.4236389,44.7560833],[-75.4137222,44.7721667],[-75.3699444,44.7829722],[-75.3444167,44.8090278],[-75.3335556,44.80625],[-75.3018889,44.8264722],[-75.3074167,44.8366389],[-75.2848611,44.8483056],[-75.2183889,44.8777778],[-75.14,44.8969444],[-75.1346667,44.9150556],[-75.0646667,44.9295],[-75.0266944,44.9466389],[-75.0050278,44.9584167],[-74.9928056,44.9775],[-74.9080556,44.9835278],[-74.8884444,44.9999722],[-74.8663611,45.0004722],[-74.8265278,45.0158611],[-74.8014722,45.0145556],[-74.7928889,45.0044167],[-74.7631389,45.0057222],[-74.7603333,44.995],[-74.7309444,44.9904722],[-74.7022778,45.0033056],[-74.6732778,45.0008333],[-74.6535955,45.0191651],[-74.5960843,45.041687],[-74.5656892,45.0471573],[-74.5655741,45.0413093],[-74.530815,45.0520592],[-74.5310139,45.0634537],[-74.5094683,45.0782928],[-74.4933934,45.0665667],[-74.4423063,45.1303251],[-74.3769155,45.1539461],[-74.3201062,45.1881599],[-74.4720083,45.3027727],[-74.3810283,45.5655785],[-74.4807803,45.5956585],[-74.528527,45.5924188],[-74.6324449,45.6370947],[-74.7096591,45.6318594],[-74.9356682,45.6454052],[-74.9793055,45.6163142],[-75.0380422,45.5935296],[-75.1299805,45.5773348],[-75.2384999,45.5869751],[-75.34394,45.5369414],[-75.4786065,45.5134429],[-75.5781396,45.4739265],[-75.6837006,45.458706],[-75.7085501,45.4238684],[-75.757194,45.4118498],[-75.7842708,45.3841933],[-75.8172909,45.3724669],[-75.8686748,45.3844108],[-75.902794,45.4069634],[-75.9736631,45.476181],[-76.0915839,45.5167467],[-76.2118384,45.516388],[-76.2339169,45.5072326],[-76.2425848,45.4687998],[-76.3552315,45.4569701],[-76.4997859,45.5175056],[-76.6074072,45.5320741],[-76.659439,45.5598259],[-76.6748657,45.5852738],[-76.6702277,45.6246568],[-76.7126467,45.6629334],[-76.7036595,45.6764794],[-76.6887204,45.6812743],[-76.6920163,45.7102355],[-76.7043838,45.7217598],[-76.7488941,45.724247],[-76.7686765,45.7340659],[-76.7656712,45.746689],[-76.7807538,45.7836532],[-76.7655869,45.8079758],[-76.7711034,45.8326608],[-76.7643583,45.8503265],[-76.7826084,45.873993],[-76.8499222,45.8944893],[-76.9272159,45.8935433],[-76.9231867,45.8712538],[-76.9010318,45.8507729],[-76.9287115,45.8481637],[-76.912415,45.8046952],[-76.9387441,45.7884026],[-76.9878691,45.7870521],[-77.0170369,45.8070374],[-77.0516359,45.8100968],[-77.0716706,45.8310623],[-77.193413,45.8659973],[-77.2371056,45.9221075],[-77.2766954,45.949112],[-77.2857138,45.9812166],[-77.2803039,46.0158424],[-77.5725024,46.162243],[-77.6654276,46.1949386],[-77.6803892,46.1976509],[-77.6959457,46.1827125],[-77.7252115,46.192417],[-77.795181,46.1973456],[-77.9280326,46.2252237],[-77.9938348,46.248558],[-78.0391764,46.2422447],[-78.0661997,46.2466238],[-78.07510403289162,46.25],[-84.10216391345539,46.25]]]}}]}