{"type":"FeatureCollection","features":[{"type":"Feature","properties":{"id":"on"},"geometry":{"type":"Polygon","coordinates":[[[-95.1560176,49.3929418],[-95.1498056,49.3806389],[-95.1287222,49.3704444],[-95.0583056,49.35325],[-94.9573889,49.3701944],[-94.8540556,49.3243333],[-94.8162778,49.3213889],[-94.8255278,49.2943611],[-94.7973333,49.2143333],[-94.7979722,49.1978611],[-94.7727778,49.1205],[-94.7496389,49.09875],[-94.6834444,48.8841111],[-94.6843056,48.8723611],[-94.6923889,48.869],[-94.6855833,48.8400556],[-94.7042778,48.8242222],[-94.6908889,48.778],[-94.6520278,48.7561389],[-94.6412778,48.7412222],[-94.6191667,48.73725],[-94.5876389,48.7175833],[-94.5490278,48.71475],[-94.5329444,48.7012222],[-94.4523889,48.6923889],[-94.4158333,48.7109722],[-94.3431389,48.7034167],[-94.3088056,48.7102778],[-94.2610833,48.6965833],[-94.2514444,48.6836111],[-94.2546667,48.6614444],[-94.2241944,48.6494444],[-93.8443611,48.6302222],[-93.8334444,48.6256111],[-93.8063611,48.5795],[-93.8185,48.5314167],[-93.788,48.5158611],[-93.6593056,48.5164167],[-93.6284444,48.5318611],[-93.61225,48.5223889],[-93.4673889,48.5464444],[-93.4576667,48.5597222],[-93.4654722,48.5916389],[-93.4398333,48.5936944],[-93.4056667,48.6098333],[-93.3714444,48.6058611],[-93.3526944,48.6134722],[-93.3486667,48.6264444],[-93.2546667,48.6428056],[-93.2075278,48.6425],[-93.1783889,48.62325],[-92.9845833,48.6238333],[-92.9547778,48.6315556],[-92.95,48.6083611],[-92.7284167,48.5393889],[-92.6348889,48.5425556],[-92.6270278,48.5032778],[-92.6986944,48.4948333],[-92.7126944,48.4629722],[-92.6881111,48.4436944],[-92.6562222,48.4364722],[-92.5074722,48.4479722],[-92.4754444,48.4186111],[-92.4564444,48.4140833],[-92.4563889,48.4011111],[-92.4765,48.3719167],[-92.4697778,48.3520833],[-92.4367222,48.3088889],[-92.4156389,48.2950833],[-92.3699167,48.2202778],[-92.3365556,48.2356667],[-92.2695833,48.2481944],[-92.2945556,48.2712222],[-92.3014444,48.2883056],[-92.2945556,48.3062222],[-92.3061667,48.31625],[-92.2888333,48.3428056],[-92.2625556,48.3549167],[-92.2169722,48.3449444],[-92.1448889,48.3656944],[-92.1436944,48.3560278],[-92.0552222,48.3593611],[-92.0451111,48.3457222],[-92.0469444,48.3347778],[-92.0001111,48.3210833],[-92.0129722,48.2974444],[-92.0065278,48.2654167],[-91.9891389,48.2602778],[-91.9756389,48.2443333],[-91.9699722,48.2537778],[-91.9541111,48.25225],[-91.9480278,48.2459444],[-91.9582778,48.2438333],[-91.9583611,48.2331389],[-91.8931111,48.2379722],[-91.8675556,48.2191944],[-91.8643611,48.2069444],[-91.8154444,48.2118056],[-91.7886389,48.1963333],[-91.7559167,48.206],[-91.7483889,48.1986944],[-91.7420833,48.2046111],[-91.7153611,48.1995],[-91.7103889,48.1925556],[-91.7243611,48.1705278],[-91.7048333,48.1707222],[-91.7081111,48.153],[-91.6977778,48.1416111],[-91.71175,48.1146389],[-91.6821111,48.1225],[-91.6875833,48.1118889],[-91.6650833,48.1071389],[-91.6518056,48.1139444],[-91.6399274,48.0970657],[-91.5591029,48.1085888],[-91.5528538,48.1032226],[-91.5694444,48.0936944],[-91.5753889,48.0667222],[-91.5754444,48.0489444],[-91.5675,48.0437778],[-91.4881944,48.0683889],[-91.45,48.0690833],[-91.4385833,48.0503333],[-91.4295833,48.0486667],[-91.3908889,48.0571667],[-91.3708333,48.0697222],[-91.2667778,48.0788333],[-91.1373333,48.14925],[-91.1426111,48.1546111],[-91.0824722,48.1811389],[-91.0236944,48.1904444],[-90.9769722,48.2195556],[-90.9150833,48.23075],[-90.88575,48.2459444],[-90.8750833,48.2378333],[-90.8476667,48.2445278],[-90.8393056,48.2395556],[-90.8363889,48.1770278],[-90.8246944,48.1768333],[-90.8210278,48.1846667],[-90.8040833,48.1778056],[-90.7964167,48.1591944],[-90.7779444,48.1638333],[-90.7778333,48.1482778],[-90.7982222,48.1368889],[-90.7822222,48.1358611],[-90.7897778,48.1301389],[-90.76875,48.1165833],[-90.7515833,48.0909722],[-90.6415,48.1035278],[-90.5796667,48.1238056],[-90.5591111,48.1217222],[-90.5555,48.1169167],[-90.5697222,48.1068333],[-90.5566944,48.0959167],[-90.4866944,48.0990556],[-90.4673889,48.10875],[-90.4384444,48.0986667],[-90.4031667,48.1050833],[-90.3742778,48.0909167],[-90.3100556,48.1055556],[-90.28925,48.0990833],[-90.1357778,48.1122778],[-90.0233333,48.0848333],[-90.0148333,48.0672222],[-89.9981111,48.058],[-89.9938333,48.0281667],[-89.9531111,48.0108889],[-89.9345833,48.0158889],[-89.9221389,47.99725],[-89.8971944,47.9876667],[-89.8471944,47.9926944],[-89.8448056,48.0031389],[-89.8313056,47.9996944],[-89.8195833,48.0157222],[-89.7500556,48.0236389],[-89.7210833,48.0200833],[-89.7241667,48.0138333],[-89.717,48.0173056],[-89.7165833,48.0097778],[-89.7023889,48.0064444],[-89.6729167,48.0116389],[-89.6508611,48.0036944],[-89.6106944,48.018],[-89.6081389,48.007],[-89.5809722,47.9960278],[-89.4833363,48.0138889],[-89.33755,47.974261],[-88.677442,48.245397],[-88.369862,48.306063],[-87.1138101,47.8166994],[-84.8601389,46.8889167],[-84.7628333,46.6343056],[-84.5568333,46.4608056],[-84.4756389,46.4528611],[-84.4452222,46.4890833],[-84.4211389,46.5005833],[-84.3418889,46.5075],[-84.27625,46.4929444],[-84.2548056,46.5008056],[-84.2258889,46.5340556],[-84.1936667,46.5402222],[-84.1776944,46.5270833],[-84.129,46.5305],[-84.1111389,46.5042222],[-84.1460556,46.4187778],[-84.139,46.3724444],[-84.1059444,46.3219722],[-84.1194444,46.3148889],[-84.1154167,46.2680278],[-84.0976389,46.2563611],[-84.10825,46.2414444],[-84.0771389,46.1873333],[-84.0059722,46.1494444],[-84.0063056,46.1183056],[-83.9763333,46.1024167],[-83.9554722,46.05675],[-83.9035278,46.0604444],[-83.8263333,46.1188611],[-83.7598611,46.1027222],[-83.655,46.1216944],[-83.5719444,46.1057778],[-83.4337778,45.9981667],[-83.5971667,45.8212778],[-82.5186111,45.3386389],[-82.1228056,43.5911944],[-82.4241342,42.9978293],[-82.4131115,42.9773672],[-82.4167856,42.9667846],[-82.4553164,42.9267424],[-82.4703454,42.8874094],[-82.4682554,42.8556736],[-82.4820278,42.8082412],[-82.4673621,42.7624117],[-82.510507,42.6650326],[-82.5096536,42.6381746],[-82.5189332,42.6137372],[-82.5909251,42.5500199],[-82.6329909,42.557104],[-82.6621745,42.5414564],[-82.8281825,42.3734081],[-83.0794903,42.3087142],[-83.1279986,42.2386949],[-83.1339374,42.1748022],[-83.1217041,42.1254313],[-83.1496826,42.0409889],[-83.0691231,41.8635813],[-82.6797168,41.6765629],[-82.3974747,41.6765597],[-81.2457036,42.2075661],[-80.0799323,42.3935512],[-78.9353817,42.8282908],[-78.9059228,42.900285],[-78.9094861,42.9336997],[-78.9327428,42.9560158],[-78.9617555,42.9578503],[-79.0201819,42.9948219],[-79.0234241,43.0162881],[-78.9996403,43.0559897],[-79.0073964,43.0659167],[-79.0740736,43.0778478],[-79.0578728,43.1070959],[-79.0696492,43.1203219],[-79.0422989,43.1436633],[-79.0533047,43.1739052],[-79.0486941,43.200158],[-79.0565586,43.2103169],[-79.0559323,43.2546736],[-79.0703912,43.2623992],[-79.2006667,43.4504722],[-78.6903889,43.6311389],[-76.7966872,43.6311274],[-76.4389444,44.0940556],[-76.3528611,44.1343333],[-76.3127222,44.1990556],[-76.2454722,44.2038611],[-76.2068333,44.215],[-76.1643056,44.2398333],[-76.1618056,44.2807222],[-76.1311667,44.2963889],[-76.0969722,44.2997222],[-76.0455,44.3318056],[-76.0011111,44.3478611],[-75.9701944,44.3425278],[-75.9128333,44.3678056],[-75.8213889,44.4320556],[-75.8075833,44.4716944],[-75.7669167,44.5152778],[-75.5049167,44.7053611],[-75.4236389,44.7560833],[-75.4137222,44.7721667],[-75.3699444,44.7829722],[-75.3444167,44.8090278],[-75.3335556,44.80625],[-75.3018889,44.8264722],[-75.3074167,44.8366389],[-75.2848611,44.8483056],[-75.2183889,44.8777778],[-75.14,44.8969444],[-75.1346667,44.9150556],[-75.0646667,44.9295],[-75.0266944,44.9466389],[-75.0050278,44.9584167],[-74.9928056,44.9775],[-74.9080556,44.9835278],[-74.8884444,44.9999722],[-74.8663611,45.0004722],[-74.8265278,45.0158611],[-74.8014722,45.0145556],[-74.7928889,45.0044167],[-74.7631389,45.0057222],[-74.7603333,44.995],[-74.7309444,44.9904722],[-74.7022778,45.0033056],[-74.6732778,45.0008333],[-74.6535955,45.0191651],[-74.5960843,45.041687],[-74.5656892,45.0471573],[-74.5655741,45.0413093],[-74.530815,45.0520592],[-74.5310139,45.0634537],[-74.5094683,45.0782928],[-74.4933934,45.0665667],[-74.4423063,45.1303251],[-74.3769155,45.1539461],[-74.3201062,45.1881599],[-74.4720083,45.3027727],[-74.3810283,45.5655785],[-74.4807803,45.5956585],[-74.528527,45.5924188],[-74.6324449,45.6370947],[-74.7096591,45.6318594],[-74.9356682,45.6454052],[-74.9793055,45.6163142],[-75.0380422,45.5935296],[-75.1299805,45.5773348],[-75.2384999,45.5869751],[-75.34394,45.5369414],[-75.4786065,45.5134429],[-75.5781396,45.4739265],[-75.6837006,45.458706],[-75.7085501,45.4238684],[-75.757194,45.4118498],[-75.7842708,45.3841933],[-75.8172909,45.3724669],[-75.8686748,45.3844108],[-75.902794,45.4069634],[-75.9736631,45.476181],[-76.0915839,45.5167467],[-76.2118384,45.516388],[-76.2339169,45.5072326],[-76.2425848,45.4687998],[-76.3552315,45.4569701],[-76.4997859,45.5175056],[-76.6074072,45.5320741],[-76.659439,45.5598259],[-76.6748657,45.5852738],[-76.6702277,45.6246568],[-76.7126467,45.6629334],[-76.7036595,45.6764794],[-76.6887204,45.6812743],[-76.6920163,45.7102355],[-76.7043838,45.7217598],[-76.7488941,45.724247],[-76.7686765,45.7340659],[-76.7656712,45.746689],[-76.7807538,45.7836532],[-76.7655869,45.8079758],[-76.7711034,45.8326608],[-76.7643583,45.8503265],[-76.7826084,45.873993],[-76.8499222,45.8944893],[-76.9272159,45.8935433],[-76.9231867,45.8712538],[-76.9010318,45.8507729],[-76.9287115,45.8481637],[-76.912415,45.8046952],[-76.9387441,45.7884026],[-76.9878691,45.7870521],[-77.0170369,45.8070374],[-77.0516359,45.8100968],[-77.0716706,45.8310623],[-77.193413,45.8659973],[-77.2371056,45.9221075],[-77.2766954,45.949112],[-77.2857138,45.9812166],[-77.2803039,46.0158424],[-77.5725024,46.162243],[-77.6654276,46.1949386],[-77.6803892,46.1976509],[-77.6959457,46.1827125],[-77.7252115,46.192417],[-77.795181,46.1973456],[-77.9280326,46.2252237],[-77.9938348,46.248558],[-78.0391764,46.2422447],[-78.0661997,46.2466238],[-78.1440207,46.2761307],[-78.2141187,46.2698669],[-78.2554162,46.2755393],[-78.3133616,46.2526054],[-78.3899606,46.2917251],[-78.502342,46.2944069],[-78.5980232,46.3186685],[-78.6797099,46.3178557],[-78.7105866,46.3247604],[-78.7273788,46.343998],[-78.723015,46.3695793],[-78.7303853,46.3846207],[-78.8882518,46.4589347],[-78.9871143,46.5452386],[-78.9972607,46.571453],[-78.9951482,46.5928193],[-79.0077743,46.6040916],[-79.0159914,46.6318092],[-79.0723502,46.664982],[-79.07544,46.6774445],[-79.0929713,46.6877632],[-79.0998075,46.7106781],[-79.1196143,46.7329141],[-79.1654585,46.8199997],[-79.1785421,46.8295182],[-79.2139511,46.8329467],[-79.2570337,46.8834495],[-79.3169329,46.9345703],[-79.3382117,46.970852],[-79.3465806,47.0066452],[-79.4282005,47.0761339],[-79.4453559,47.1088995],[-79.4332817,47.1818391],[-79.4386978,47.2166519],[-79.4260252,47.2504654],[-79.5695196,47.3965684],[-79.5870363,47.4365578],[-79.5834963,47.452343],[-79.5592732,47.4805909],[-79.5529475,47.5118331],[-79.5102697,47.5432588],[-79.5177608,47.5834121],[-79.5164173,51.488565],[-79.5228099,51.48762],[-79.5295143,51.4629647],[-79.567194,51.4686728],[-79.5826101,51.47862],[-79.5800257,51.4499553],[-79.6057534,51.4394835],[-79.6155811,51.420647],[-79.63448,51.4185001],[-79.6408367,51.4064342],[-79.6805,51.40724],[-79.6888161,51.3829239],[-79.6745467,51.3522593],[-79.6769285,51.3402505],[-79.700253,51.3599776],[-79.7119101,51.34685],[-79.7169471,51.3555023],[-79.70877,51.36398],[-79.7110462,51.3825891],[-79.7320748,51.371633],[-79.7259808,51.357405],[-79.7395801,51.35253],[-79.74333,51.32771],[-79.69394,51.29513],[-79.6896899,51.2648501],[-79.7032356,51.2594106],[-79.697132,51.2490209],[-79.7220255,51.2423064],[-79.7379112,51.2286432],[-79.7912829,51.1607309],[-79.8825789,51.1721863],[-79.92019,51.1905701],[-80.00002,51.25189],[-80.05475,51.2648601],[-80.1105237,51.2914724],[-80.2425881,51.3010961],[-80.3083849,51.326482],[-80.3472455,51.3275325],[-80.3851396,51.3386689],[-80.4326119,51.382296],[-80.4318744,51.4653465],[-80.4474679,51.4933336],[-80.4834653,51.5074696],[-80.51186,51.5479299],[-80.56614,51.6742299],[-80.5651833,51.700773],[-80.63943,51.76186],[-80.6534501,51.79188],[-80.69012,51.8071],[-80.6853962,51.8477224],[-80.6909088,51.8247199],[-80.7292901,51.8230899],[-80.7395101,51.8446301],[-80.75027,51.8444001],[-80.7516682,51.8589219],[-80.7535299,51.8531199],[-80.7870492,51.8586233],[-80.7974804,51.8767625],[-80.7931459,51.8880674],[-80.8221101,51.87938],[-80.8777213,51.8956885],[-80.9172049,51.9247055],[-80.9733264,52.0022299],[-80.9884536,52.0143006],[-81.0317552,52.0202233],[-81.0407835,52.0401216],[-81.07286,52.0396499],[-81.079182,52.0594273],[-81.0890955,52.0620592],[-81.1296219,52.044187],[-81.1543209,52.047664],[-81.32635,52.09943],[-81.3739439,52.1213775],[-81.4031627,52.1458653],[-81.4241337,52.1442564],[-81.405267,52.1567377],[-81.4199777,52.1636845],[-81.4505953,52.2015147],[-81.445452,52.2275945],[-81.436393,52.231682],[-81.4487042,52.2308722],[-81.4618719,52.2464302],[-81.493684,52.2467395],[-81.4579792,52.2490943],[-81.4942182,52.2803548],[-81.5510924,52.2877625],[-81.5529513,52.3025635],[-81.5059467,52.3248212],[-81.5363499,52.3509998],[-81.5345189,52.3599383],[-81.5453387,52.3691086],[-81.5452653,52.3875515],[-81.5309161,52.3964175],[-81.5248595,52.4225971],[-81.5296377,52.4282207],[-81.5242034,52.4371761],[-81.5368796,52.4519296],[-81.5626676,52.4689941],[-81.613741,52.4802189],[-81.6770359,52.5270409],[-81.7575518,52.6069129],[-81.8712351,52.6613168],[-81.9135846,52.70855],[-81.936868,52.7743485],[-81.9498816,52.7834456],[-82.1096706,52.8911109],[-82.1347649,52.8984748],[-82.1636369,52.8873915],[-82.1685006,52.8914514],[-82.1594328,52.9024881],[-82.2358813,52.9259619],[-82.2502118,52.9566645],[-82.2617717,52.9616512],[-82.257608,52.9746737],[-82.2645194,52.9952443],[-82.2925952,53.0005463],[-82.2756966,53.0027841],[-82.2758025,53.017093],[-82.280316,53.0188439],[-82.2884151,53.0184113],[-82.2915611,53.0192789],[-82.2774171,53.0218731],[-82.2790454,53.090223],[-82.26302,53.12626],[-82.26825,53.13003],[-82.26015,53.1298599],[-82.2451899,53.1723001],[-82.2327948,53.1845003],[-82.2394278,53.1946998],[-82.1946099,53.2086799],[-82.0995428,53.2705004],[-82.1114499,53.3347699],[-82.1461201,53.4225601],[-82.1547318,53.4754809],[-82.19185,53.5238401],[-82.1969499,53.5750099],[-82.2062087,53.5953448],[-82.1671,53.7023901],[-82.1302367,53.7299388],[-82.1118164,53.7572366],[-82.1126616,53.805551],[-82.1543455,53.911185],[-82.1767199,53.9464301],[-82.183707,53.9767785],[-82.2245297,54.039954],[-82.2789658,54.0932791],[-82.3169197,54.112503],[-82.4003396,54.1943022],[-82.4199915,54.2518878],[-82.415185,54.3384962],[-82.4408895,54.3552102],[-82.4074559,54.3573326],[-82.3868609,54.4182058],[-82.3589659,54.4426451],[-82.3466921,54.4791395],[-82.3236895,54.5004523],[-82.2837782,54.6302325],[-82.2862673,54.6562086],[-82.2734356,54.6685202],[-82.2537805,54.7200597],[-82.2334815,54.7424359],[-82.2091914,54.7575818],[-82.214368,54.7487897],[-82.2095508,54.7521891],[-82.1966297,54.7920449],[-82.1976042,54.8442239],[-82.2136975,54.877261],[-82.2462566,54.8802747],[-82.2590761,54.8965062],[-82.2266404,54.912512],[-82.2505188,54.9405115],[-82.2550893,54.978137],[-82.2773194,55.0356529],[-82.2707995,55.0507617],[-82.2456694,55.0609331],[-82.2521818,55.1098499],[-82.2872543,55.1268088],[-82.2970596,55.1178408],[-82.3007512,55.1333966],[-82.318883,55.14934],[-82.33609,55.1530499],[-82.3362217,55.1375645],[-82.3435471,55.1432605],[-82.3380915,55.1508336],[-82.35528,55.1561792],[-82.3590517,55.1487637],[-82.3433301,55.1288901],[-82.3311997,55.1330654],[-82.3126144,55.1174009],[-82.3112441,55.1063394],[-82.3351908,55.1024849],[-82.3323079,55.0907142],[-82.34098,55.0784599],[-82.3277074,55.0640339],[-82.3349559,55.0620371],[-82.3894801,55.08048],[-82.4012804,55.0952168],[-82.37832,55.09328],[-82.40881,55.1094501],[-82.43848,55.11449],[-82.4640443,55.1390519],[-82.4845774,55.1345951],[-82.52216,55.1647001],[-82.5380001,55.1578399],[-82.5546901,55.16121],[-82.54521,55.13598],[-82.5223401,55.13409],[-82.5182499,55.1442501],[-82.5110793,55.127913],[-82.54818,55.1315799],[-82.56229,55.1439399],[-82.595942,55.1493687],[-82.6216299,55.1682799],[-82.6892299,55.1901601],[-82.70754,55.1993801],[-82.7013,55.20024],[-82.70851,55.21166],[-82.7523501,55.20003],[-82.716837,55.1820043],[-82.7203809,55.1619374],[-82.7475182,55.1450989],[-82.8046418,55.1374321],[-82.8666116,55.1556789],[-82.9120589,55.2051533],[-82.9523993,55.2254496],[-82.9885125,55.2254619],[-83.00482,55.2156101],[-83.1362601,55.19365],[-83.18624,55.19456],[-83.2204056,55.2060471],[-83.2944989,55.2040635],[-83.2992625,55.19712],[-83.3309985,55.1949645],[-83.3546019,55.1967281],[-83.3823037,55.2141153],[-83.4154344,55.2209457],[-83.42035,55.2149799],[-83.3948779,55.2072593],[-83.4762669,55.2118873],[-83.5443736,55.2383957],[-83.6340666,55.2523894],[-83.6476708,55.2583817],[-83.6462975,55.2644219],[-83.6960399,55.2663299],[-83.695736,55.2564496],[-83.6282101,55.21081],[-83.6744929,55.2261595],[-83.70043,55.22191],[-83.7469769,55.2515333],[-83.7611819,55.2478395],[-83.81696,55.2758999],[-83.8898206,55.2947317],[-83.944366,55.2921905],[-84.0895901,55.2509],[-84.1211129,55.2535879],[-84.17135,55.2743499],[-84.2617199,55.26539],[-84.3077301,55.2749999],[-84.3522901,55.25958],[-84.37351,55.2576],[-84.36818,55.26351],[-84.37706,55.2649801],[-84.4437504,55.2542728],[-84.5111999,55.2316301],[-84.5287,55.2361099],[-84.5423199,55.22602],[-84.568162,55.2376616],[-84.7856141,55.2341379],[-84.8141957,55.2511419],[-84.8977815,55.2587222],[-84.9040553,55.2697247],[-84.9354196,55.265415],[-84.9711678,55.2796316],[-84.9936351,55.276798],[-85.0059247,55.2656565],[-85.0124155,55.2728294],[-85.0513578,55.2725395],[-85.1112618,55.2906676],[-85.1110893,55.3127157],[-85.1214942,55.3112432],[-85.1248289,55.3186451],[-85.1220517,55.3355736],[-85.1389064,55.3321981],[-85.1777443,55.347846],[-85.2085757,55.3436309],[-85.2221627,55.3524259],[-85.22896,55.373287],[-85.2826512,55.3698299],[-85.3067956,55.381837],[-85.36014,55.3778946],[-85.352313,55.383944],[-85.3669854,55.3943882],[-85.3955938,55.3983804],[-85.4456321,55.4279507],[-85.4785288,55.4372745],[-85.4564604,55.4346754],[-85.4989976,55.4516515],[-85.5066694,55.4645698],[-85.555488,55.4968766],[-85.5829696,55.5020797],[-85.5755768,55.5053555],[-85.5886074,55.5261254],[-85.6247191,55.5330372],[-85.641901,55.557707],[-85.671684,55.5611869],[-85.6989342,55.5839908],[-85.7288823,55.5934256],[-85.7655403,55.5906848],[-85.8210786,55.618311],[-85.8609797,55.6245682],[-85.8891096,55.6411339],[-85.8955063,55.6557555],[-86.0128714,55.6696641],[-86.0039836,55.6712463],[-86.0473073,55.6682685],[-86.1343849,55.6900782],[-86.2686306,55.7080122],[-86.3817557,55.7666578],[-86.5529487,55.8080621],[-86.5894262,55.8234406],[-86.686249,55.8363372],[-86.7642068,55.869931],[-86.7783458,55.868412],[-86.7794808,55.8612238],[-86.785226,55.8579988],[-86.780931,55.8711079],[-86.7881674,55.8764653],[-86.9012455,55.9140723],[-86.9446229,55.9165443],[-86.9466765,55.9132969],[-86.9567803,55.9091819],[-86.9495347,55.9176168],[-87.0230204,55.915686],[-87.0330418,55.9199737],[-87.0207229,55.9207111],[-87.0357529,55.9228655],[-87.0278275,55.9233963],[-87.2169907,55.934453],[-87.3435949,55.9673344],[-87.3613169,55.9545645],[-87.3564833,55.9747516],[-87.3779051,55.98437],[-87.3716343,55.9890761],[-87.4452481,56.0062854],[-87.4728418,56.0489574],[-87.5675157,56.0670074],[-87.6567593,56.106685],[-87.6355167,56.1076164],[-87.7130798,56.1930523],[-87.7143301,56.2168717],[-87.7252102,56.2299791],[-87.7300368,56.2339287],[-87.7330812,56.2405735],[-87.7386005,56.2459254],[-87.7443262,56.2490723],[-87.7496861,56.2489982],[-87.7280935,56.2316051],[-87.7702431,56.2596396],[-87.8046321,56.31134],[-87.8286944,56.3234746],[-87.835317,56.3352205],[-87.8177282,56.3248911],[-87.8414039,56.3457772],[-87.8230356,56.3411111],[-87.8108555,56.3274336],[-87.8119877,56.3341865],[-87.8265786,56.3437275],[-87.8449552,56.3475433],[-87.923677,56.3916511],[-87.941457,56.4136073],[-87.9152376,56.396737],[-87.941234,56.4164582],[-87.9498799,56.4427278],[-87.9791099,56.4730713],[-88.1286837,56.5095966],[-88.1687165,56.5076193],[-88.2595253,56.5310216],[-88.436637,56.6052401],[-88.5058699,56.6541599],[-88.5568643,56.6606374],[-88.6138988,56.6806567],[-88.62868,56.67721],[-88.62465,56.6822225],[-88.6779499,56.7052595],[-88.67815,56.7226399],[-88.7010801,56.7456301],[-88.82644,56.79329],[-88.8303619,56.8093121],[-88.8201714,56.8176994],[-88.80767,56.8153301],[-88.816824,56.8375648],[-88.8434315,56.8470945],[-88.8266087,56.8397714],[-88.857894,56.8345598],[-88.8648463,56.8518115],[-88.8889432,56.8581352],[-88.8773132,56.8600239],[-88.891623,56.8611801],[-88.9060664,56.8572201],[-88.9094947,56.8553748],[-88.889544,56.8598479],[-88.9079333,56.8449],[-88.9000933,56.8365276],[-88.9865273,56.849167],[-89.7388151,56.3920098],[-90.4971391,55.9149015],[-91.3007584,55.3908995],[-92.1016236,54.848999],[-92.8459167,54.3271143],[-93.6570511,53.7374915],[-94.4297409,53.28199],[-95.1536713,52.8415679],[-95.1560176,49.3929418]]]}}]}