{"type":"FeatureCollection","features":[{"type":"Feature","properties":{"id":"or"},"geometry":{"type":"Polygon","coordinates":[[[-124.703541,42.770369],[-124.690712,42.738254],[-124.664637,42.720482],[-124.584689,42.719302],[-124.544129,42.683817],[-124.545722,42.657166],[-124.530312,42.63228],[-124.508492,42.619564],[-124.473554,42.614734],[-124.480838,42.581577],[-124.465351,42.553033],[-124.50122,42.535388],[-124.518687,42.511076],[-124.554651,42.494142],[-124.567221,42.477791],[-124.569509,42.454586],[-124.5427,42.415252],[-124.494154,42.396086],[-124.500007,42.365101],[-124.486544,42.338278],[-124.494904,42.305751],[-124.478258,42.278002],[-124.483673,42.229613],[-124.471356,42.203723],[-124.433514,42.164832],[-124.432455,42.131848],[-124.416273,42.074854],[-124.375047,42.02923],[-124.328835,41.998334],[-123.6572315,41.9950959],[-123.1459166,42.0087612],[-123.0076515,42.0031197],[-122.376131,42.009499],[-120.9900804,41.9930239],[-117.0262469,42.000255],[-117.026841,43.732905],[-117.0213944,43.8201921],[-117.0330325,43.8295],[-117.0251682,43.8416077],[-117.0113575,43.8417808],[-117.0209599,43.8585985],[-116.9825645,43.8678647],[-116.9624703,43.9283362],[-116.9682896,43.9372361],[-116.9636658,43.9526443],[-116.9746908,43.9670003],[-116.9352405,43.9909377],[-116.9444519,44.0031436],[-116.934727,44.023806],[-116.943361,44.035645],[-116.973185,44.049425],[-116.977351,44.085364],[-116.933704,44.100039],[-116.8938015,44.1619186],[-116.902752,44.179467],[-116.925392,44.191544],[-116.971675,44.197256],[-116.9764172,44.2428275],[-117.031862,44.248635],[-117.05303,44.229076],[-117.089503,44.258234],[-117.104208,44.27994],[-117.121037,44.277585],[-117.143394,44.258262],[-117.170342,44.25889],[-117.198147,44.273828],[-117.222647,44.297578],[-117.189769,44.336585],[-117.235123,44.3738517],[-117.242684,44.3965493],[-117.226977,44.4055809],[-117.2150678,44.4271611],[-117.225076,44.482346],[-117.2002412,44.4920287],[-117.181583,44.52296],[-117.161033,44.525166],[-117.149242,44.536151],[-117.14293,44.557236],[-117.148255,44.564371],[-117.124754,44.583834],[-117.120522,44.614658],[-117.098221,44.640689],[-117.095868,44.664737],[-117.061799,44.706654],[-117.062273,44.727143],[-117.03827,44.748179],[-116.998903,44.756382],[-116.970902,44.773881],[-116.9347,44.783881],[-116.931099,44.804781],[-116.899058,44.840503],[-116.8981515,44.8542217],[-116.8660214,44.8701376],[-116.8512227,44.8893809],[-116.8316808,44.9320354],[-116.8514168,44.9611801],[-116.825925,44.9835861],[-116.8374263,44.9840718],[-116.8484127,44.9721717],[-116.8580078,44.9771766],[-116.8442928,45.0016745],[-116.848241,45.0221839],[-116.796056,45.0612407],[-116.774847,45.105536],[-116.754643,45.113972],[-116.745535,45.133038],[-116.729607,45.142091],[-116.703697,45.240099],[-116.691388,45.263739],[-116.674493,45.276349],[-116.673793,45.321511],[-116.623193,45.3940761],[-116.5971641,45.4136677],[-116.5883371,45.4431416],[-116.5550973,45.4630316],[-116.5580354,45.5037016],[-116.5350178,45.525992],[-116.5236326,45.5466889],[-116.528688,45.5515481],[-116.4823218,45.5775697],[-116.4813953,45.5876592],[-116.4642386,45.6022243],[-116.4634986,45.6158638],[-116.4829687,45.6338197],[-116.4898092,45.6521441],[-116.535396,45.691734],[-116.535698,45.734231],[-116.5476235,45.7525687],[-116.5941586,45.779104],[-116.6643472,45.781858],[-116.6962434,45.8192493],[-116.711822,45.826267],[-116.7358693,45.8265372],[-116.759787,45.816167],[-116.7809373,45.8245753],[-116.7960157,45.8605784],[-116.859795,45.907264],[-116.8756588,45.9543645],[-116.8908616,45.9603443],[-116.8934199,45.9778107],[-116.9159938,45.9953489],[-118.935288,46.00067],[-118.9872769,45.99986],[-119.0272314,45.969118],[-119.1263387,45.932789],[-119.1955361,45.9279054],[-119.2570888,45.939872],[-119.3645149,45.9215525],[-119.4504145,45.9173864],[-119.488099,45.9063668],[-119.5245363,45.9085723],[-119.5716186,45.9254834],[-119.6006777,45.9195305],[-119.6236451,45.9056082],[-119.6699902,45.8569136],[-119.8027222,45.8476349],[-119.9657892,45.8243813],[-120.0702529,45.7851606],[-120.1706195,45.7619845],[-120.21079,45.7259202],[-120.2834474,45.7211696],[-120.4036672,45.6994492],[-120.4826306,45.6944124],[-120.5057592,45.6999539],[-120.5593028,45.7383201],[-120.5911594,45.7465143],[-120.6350665,45.7457167],[-120.6895512,45.7157331],[-120.8554309,45.6717347],[-120.8958379,45.6429291],[-120.9136246,45.6399984],[-120.9440339,45.6563983],[-120.9835098,45.6483647],[-121.0644757,45.6524976],[-121.0848788,45.6479391],[-121.1318487,45.609761],[-121.1678661,45.6060967],[-121.1837003,45.6064574],[-121.1964786,45.6165822],[-121.2003668,45.6498465],[-121.2157836,45.6712354],[-121.3377284,45.7048451],[-121.4239771,45.6940798],[-121.5329493,45.7265092],[-121.7073117,45.694842],[-121.8112019,45.7067171],[-121.8670358,45.6933977],[-121.9017585,45.6706766],[-121.9081473,45.6545656],[-121.9557869,45.6435935],[-121.9630927,45.6328991],[-122.0035666,45.6159546],[-122.0442622,45.6095663],[-122.1017639,45.5831776],[-122.1828777,45.5767891],[-122.2413511,45.5507475],[-122.2966859,45.5437331],[-122.3314924,45.5485107],[-122.3523267,45.5692883],[-122.3801054,45.5757879],[-122.4389392,45.5634539],[-122.547887,45.5964802],[-122.6420567,45.609285],[-122.7640049,45.6572705],[-122.774561,45.6806175],[-122.7601172,45.7344784],[-122.7615066,45.7593394],[-122.769646,45.7806725],[-122.7956751,45.8101167],[-122.7849813,45.8681723],[-122.811441,45.9128943],[-122.8062329,45.9323387],[-122.8142336,45.9609497],[-122.8777645,46.0313654],[-122.8844318,46.0602539],[-122.904294,46.08392],[-122.9635401,46.1053969],[-123.005686,46.1348355],[-123.1209402,46.1863066],[-123.166664,46.1889454],[-123.2643611,46.1510841],[-123.3139177,46.1423335],[-123.3905601,46.1501114],[-123.4284793,46.179778],[-123.4236201,46.2194165],[-123.4322602,46.2396942],[-123.4655404,46.2628054],[-123.5012649,46.2705552],[-123.5409879,46.2603883],[-123.649268,46.259082],[-123.6881297,46.2501093],[-123.7402993,46.2691364],[-123.8719712,46.2348292],[-123.9296137,46.2386613],[-124.0213576,46.2923965],[-124.036567,46.290938],[-124.0306775,46.2712151],[-124.0353859,46.2639926],[-124.0846248,46.249825],[-124.1568004,46.249825],[-124.123418,46.202729],[-124.067313,46.183849],[-124.058451,46.173834],[-124.009796,46.081973],[-124.002783,46.027544],[-124.008125,46.00994],[-124.039544,45.985938],[-124.070819,45.973939],[-124.084898,45.960137],[-124.092434,45.934261],[-124.080158,45.908264],[-124.043353,45.887086],[-124.037704,45.841614],[-124.0579978,45.814442],[-124.0673133,45.749841],[-124.0529903,45.7330607],[-124.010805,45.708285],[-124.016648,45.632119],[-124.029324,45.612461],[-124.037112,45.571724],[-124.02666,45.537877],[-124.053115,45.514225],[-124.064549,45.467567],[-124.063953,45.451512],[-124.035819,45.422051],[-124.036498,45.413336],[-124.043308,45.384061],[-124.066488,45.366973],[-124.076977,45.341846],[-124.073829,45.317509],[-124.042356,45.282176],[-124.043322,45.245174],[-124.059827,45.215599],[-124.044792,45.165999],[-124.055808,45.124826],[-124.0895258,45.0695921],[-124.097475,45.027358],[-124.086205,45.002864],[-124.097932,44.929657],[-124.116574,44.866335],[-124.136209,44.849241],[-124.141563,44.833439],[-124.148207,44.735594],[-124.139118,44.710536],[-124.153962,44.675332],[-124.13744,44.641002],[-124.152328,44.609343],[-124.134313,44.583182],[-124.164557,44.49984],[-124.153428,44.465036],[-124.157014,44.421594],[-124.187649,44.288559],[-124.186756,44.176481],[-124.200984,44.139524],[-124.195377,44.097462],[-124.212721,44.024567],[-124.207893,44.002133],[-124.215152,43.953775],[-124.265705,43.701558],[-124.285296,43.672726],[-124.280333,43.648394],[-124.328714,43.499835],[-124.380274,43.402846],[-124.425643,43.385886],[-124.476948,43.329371],[-124.474849,43.288566],[-124.455498,43.268233],[-124.470326,43.245496],[-124.465235,43.200308],[-124.481613,43.15944],[-124.505969,43.143379],[-124.51584,43.12483],[-124.505331,43.067953],[-124.530606,42.99983],[-124.572353,42.922514],[-124.60686,42.903525],[-124.622126,42.877198],[-124.645154,42.861892],[-124.703541,42.770369]]]}}]}