{"type":"FeatureCollection","features":[{"type":"Feature","properties":{"id":"pa"},"geometry":{"type":"Polygon","coordinates":[[[-80.5210906,42.3246919],[-80.5191235,39.7212492],[-75.7737845,39.7222016],[-75.7527423,39.757875],[-75.720601,39.7895228],[-75.6345958,39.8303147],[-75.5777462,39.838996],[-75.5186747,39.8367923],[-75.4633782,39.8239982],[-75.4140163,39.8016236],[-75.3414798,39.8461385],[-75.2469736,39.8539808],[-75.187889,39.881095],[-75.1431616,39.8848859],[-75.1283739,39.9096944],[-75.1361415,39.9334288],[-75.1297697,39.9594562],[-75.071264,39.980493],[-75.04709,40.009941],[-75.013776,40.020166],[-74.9689407,40.0527594],[-74.9279733,40.0706184],[-74.8606614,40.0839415],[-74.8373371,40.101091],[-74.8225703,40.1270693],[-74.7837502,40.1214403],[-74.7399711,40.1354461],[-74.7219656,40.1499284],[-74.7231402,40.163054],[-74.7551774,40.1863875],[-74.7722017,40.2161731],[-74.8400461,40.2484361],[-74.8709522,40.2978926],[-74.9404207,40.3382787],[-74.9668047,40.3983356],[-74.9947165,40.410389],[-75.0281389,40.4040363],[-75.0584885,40.4183648],[-75.0710433,40.4561481],[-75.0620097,40.4883458],[-75.0679051,40.541244],[-75.1165146,40.5732609],[-75.1401834,40.575471],[-75.1719654,40.5643679],[-75.1943555,40.57648],[-75.1895284,40.5912835],[-75.201876,40.6164782],[-75.1885493,40.6242375],[-75.2001379,40.6489785],[-75.1769507,40.6758846],[-75.1963703,40.6810492],[-75.2040737,40.6917488],[-75.1822087,40.7303214],[-75.1959866,40.7521089],[-75.1782599,40.7626427],[-75.1711556,40.7777278],[-75.1343174,40.7736998],[-75.1083096,40.7914205],[-75.0834595,40.8261032],[-75.0965109,40.8461432],[-75.0652428,40.8476211],[-75.0507821,40.8659841],[-75.0754473,40.8942054],[-75.0785553,40.9128585],[-75.1177352,40.9530445],[-75.1203575,40.9685382],[-75.1349591,40.9722517],[-75.1313473,40.9906685],[-75.0273987,41.0394356],[-75.0124598,41.067227],[-74.9699303,41.0859989],[-74.968768,41.0959989],[-74.9916965,41.0890517],[-74.982212,41.108245],[-74.9235803,41.1381627],[-74.8846206,41.1781516],[-74.8595786,41.2185382],[-74.8677718,41.2279536],[-74.8613502,41.2432126],[-74.846932,41.253318],[-74.8295765,41.2879856],[-74.792254,41.3109683],[-74.7939798,41.3216749],[-74.7666068,41.3283762],[-74.7548574,41.3460499],[-74.720923,41.347384],[-74.690332,41.36602],[-74.7171325,41.3936283],[-74.7365677,41.3986947],[-74.738482,41.430648],[-74.7896272,41.4215148],[-74.8081613,41.4427827],[-74.8316145,41.4304081],[-74.858578,41.444427],[-74.892625,41.438617],[-74.8904783,41.4556937],[-74.906887,41.461131],[-74.912991,41.475901],[-74.941798,41.483542],[-74.95826,41.476396],[-74.983341,41.480894],[-74.984372,41.506611],[-75.003151,41.508101],[-75.00385,41.524052],[-75.024757,41.535099],[-75.018524,41.551802],[-75.074613,41.605711],[-75.0597725,41.6105402],[-75.0594807,41.6176478],[-75.0441256,41.6182293],[-75.0495324,41.6608667],[-75.0593884,41.671715],[-75.052655,41.6878886],[-75.0689897,41.7088251],[-75.0500399,41.7128894],[-75.0531228,41.7506249],[-75.0746625,41.7713574],[-75.1046555,41.7742395],[-75.0929691,41.7963829],[-75.0757472,41.7994819],[-75.072247,41.81413],[-75.089878,41.811699],[-75.113019,41.822618],[-75.116595,41.845448],[-75.1626433,41.8503504],[-75.172473,41.8722106],[-75.1851947,41.8599234],[-75.2044975,41.8698342],[-75.223546,41.857511],[-75.2417523,41.8671957],[-75.2589222,41.8626689],[-75.2596684,41.8824466],[-75.2713693,41.8873133],[-75.2672033,41.905401],[-75.2788983,41.9387695],[-75.2932191,41.9542332],[-75.3109228,41.9490679],[-75.3417998,41.9723892],[-75.3374852,41.9869575],[-75.3456381,41.9949544],[-76.8304905,42.0020265],[-79.761785,41.9988366],[-79.7618404,42.5161334],[-80.0799323,42.3935512],[-80.5210906,42.3246919]]]}}]}