{"type":"FeatureCollection","features":[{"type":"Feature","properties":{"id":"pe"},"geometry":{"type":"Polygon","coordinates":[[[-64.5519125,46.6771422],[-64.5326865,46.5582912],[-64.3816245,46.4126746],[-64.2223227,46.333083],[-63.8776267,46.2495769],[-63.7492995,46.1952362],[-63.4064966,46.0118372],[-63.1428248,45.9221107],[-62.7775294,45.8494597],[-62.5330836,45.8609372],[-62.21448,45.9431236],[-61.7818549,46.2156982],[-61.5813583,46.4376179],[-61.3993669,46.8399985],[-62.2999563,46.839999],[-62.98636,47.1397285],[-63.328871,47.6024791],[-64.4557681,47.0564791],[-64.5464194,46.8727701],[-64.5519125,46.6771422]]]}}]}