{"type":"FeatureCollection","features":[{"type":"Feature","properties":{"id":"qc-s"},"geometry":{"type":"Polygon","coordinates":[[[-79.51718743939135,49.25],[-79.5177608,47.5834121],[-79.5102697,47.5432588],[-79.5529475,47.5118331],[-79.5592732,47.4805909],[-79.5834963,47.452343],[-79.5870363,47.4365578],[-79.5695196,47.3965684],[-79.4257275,47.2497939],[-79.4386978,47.2166519],[-79.4332817,47.1818391],[-79.4460749,47.1249999],[-79.4362264,47.086834],[-79.3488924,47.0094414],[-79.3382117,46.970852],[-79.3172462,46.9349786],[-79.2570337,46.8834495],[-79.2285001,46.8458785],[-79.2122188,46.8318901],[-79.1785421,46.8295182],[-79.1650772,46.8195458],[-79.1196143,46.7329141],[-79.0998075,46.7106781],[-79.0929713,46.6877632],[-79.07544,46.6774445],[-79.0723502,46.664982],[-79.0159914,46.6318092],[-79.0077743,46.6040916],[-78.9951482,46.5928193],[-78.9972607,46.571453],[-78.9871143,46.5452386],[-78.8882518,46.4589347],[-78.7303853,46.3846207],[-78.723015,46.3695793],[-78.7273788,46.343998],[-78.7105866,46.3247604],[-78.6797099,46.3178557],[-78.5980232,46.3186685],[-78.502342,46.2944069],[-78.3899606,46.2917251],[-78.3133616,46.2526054],[-78.2554162,46.2755393],[-78.2141187,46.2698669],[-78.1440207,46.2761307],[-78.0661997,46.2466238],[-78.0391764,46.2422447],[-77.9938348,46.248558],[-77.9280326,46.2252237],[-77.795181,46.1973456],[-77.7252115,46.192417],[-77.6959457,46.1827125],[-77.6803892,46.1976509],[-77.6654276,46.1949386],[-77.5725024,46.162243],[-77.2803039,46.0158424],[-77.2857138,45.9812166],[-77.2766954,45.949112],[-77.2371056,45.9221075],[-77.193413,45.8659973],[-77.0716706,45.8310623],[-77.0516359,45.8100968],[-77.0170369,45.8070374],[-76.9878691,45.7870521],[-76.9387441,45.7884026],[-76.912415,45.8046952],[-76.9287115,45.8481637],[-76.9010318,45.8507729],[-76.9231867,45.8712538],[-76.9272159,45.8935433],[-76.8499222,45.8944893],[-76.7826084,45.873993],[-76.7643583,45.8503265],[-76.7711034,45.8326608],[-76.7655869,45.8079758],[-76.7807538,45.7836532],[-76.7656712,45.746689],[-76.7688138,45.7343636],[-76.7488941,45.724247],[-76.7043838,45.7217598],[-76.6919257,45.7101022],[-76.6887204,45.6812743],[-76.7129371,45.6640435],[-76.6702277,45.6246568],[-76.6748657,45.5852738],[-76.6592411,45.5596048],[-76.6074072,45.5320741],[-76.4989173,45.5172388],[-76.3725822,45.4601289],[-76.3221203,45.4568709],[-76.2425848,45.4687998],[-76.2334669,45.5079116],[-76.2102202,45.5167389],[-76.0915839,45.5167467],[-75.9736631,45.476181],[-75.902794,45.4069634],[-75.8686748,45.3844108],[-75.8172909,45.3724669],[-75.7842708,45.3841933],[-75.757194,45.4118498],[-75.7085501,45.4238684],[-75.6816024,45.459465],[-75.5781396,45.4739265],[-75.4786065,45.5134429],[-75.34394,45.5369414],[-75.2384999,45.5869751],[-75.1299805,45.5773348],[-75.0297852,45.5954704],[-74.9769976,45.6175386],[-74.9356682,45.6454052],[-74.7096591,45.6318594],[-74.6324449,45.6370947],[-74.528527,45.5924188],[-74.4807803,45.5956585],[-74.3830661,45.5666025],[-74.4720083,45.3027727],[-74.3201062,45.1881599],[-74.3769155,45.1539461],[-74.4423063,45.1303251],[-74.4933934,45.0665667],[-74.5094683,45.0782928],[-74.5310139,45.0634537],[-74.530815,45.0520592],[-74.5655741,45.0413093],[-74.5656892,45.0471573],[-74.5960843,45.041687],[-74.6535955,45.0191651],[-74.6684979,45.0042784],[-74.663059,44.998923],[-74.149712,44.9913861],[-73.0653483,45.0159664],[-72.6346761,45.0146878],[-72.3119542,45.0037886],[-71.5010194,45.0134458],[-71.4909228,45.0426383],[-71.5066058,45.0475547],[-71.4972044,45.0558022],[-71.4980422,45.0701875],[-71.4678872,45.0836514],[-71.4487872,45.1125669],[-71.4283997,45.1236853],[-71.4376217,45.1418869],[-71.3973478,45.2035219],[-71.4031294,45.2153011],[-71.4428239,45.2382931],[-71.4210481,45.2322025],[-71.4021647,45.2425972],[-71.3841436,45.2335083],[-71.35654,45.2539044],[-71.3602833,45.2703356],[-71.3364156,45.2727439],[-71.2962422,45.2991442],[-71.2842303,45.3023608],[-71.2805197,45.2945872],[-71.2649536,45.2937939],[-71.2594075,45.2720386],[-71.2456206,45.2688],[-71.2306507,45.2494258],[-71.1964358,45.2540533],[-71.1801067,45.2399381],[-71.1623372,45.2503475],[-71.1475683,45.2394375],[-71.1309278,45.24655],[-71.0982114,45.3016753],[-71.0085189,45.3192389],[-71.0018772,45.3284283],[-71.0121225,45.3338697],[-71.0103778,45.3476667],[-70.9849844,45.3319097],[-70.9523783,45.3391153],[-70.9389003,45.3199803],[-70.9178356,45.3117242],[-70.9120097,45.2963189],[-70.9213422,45.2792247],[-70.8985106,45.2583292],[-70.8950581,45.2403264],[-70.8582,45.2291594],[-70.8380717,45.23462],[-70.8486353,45.2451783],[-70.8489469,45.2630919],[-70.8318956,45.2789086],[-70.8354672,45.2939658],[-70.8115475,45.3037667],[-70.8061006,45.3215731],[-70.8199006,45.3401936],[-70.8025322,45.3656786],[-70.8257442,45.4002592],[-70.7981056,45.4265078],[-70.7545847,45.4283122],[-70.7238469,45.3955717],[-70.6781678,45.3942717],[-70.6587692,45.3776719],[-70.6348875,45.3834186],[-70.6363247,45.3952383],[-70.6212694,45.4027358],[-70.635045,45.4110617],[-70.6278664,45.4225992],[-70.6507344,45.4449447],[-70.681115,45.4521831],[-70.6917219,45.4742669],[-70.7163969,45.4864725],[-70.7115967,45.5018106],[-70.7225622,45.513675],[-70.6771031,45.5522169],[-70.6891903,45.5621847],[-70.6876922,45.5694256],[-70.6780906,45.5705022],[-70.6445761,45.6069825],[-70.6191458,45.61203],[-70.5908731,45.6304633],[-70.5585819,45.6664767],[-70.5263858,45.6663558],[-70.4654736,45.7065367],[-70.4391664,45.7038811],[-70.4003497,45.7197272],[-70.3838408,45.7345703],[-70.3938972,45.7401042],[-70.3884325,45.7502211],[-70.4070294,45.7625344],[-70.4056314,45.7765217],[-70.4168725,45.7955344],[-70.3961622,45.7986561],[-70.3966967,45.8080967],[-70.3708169,45.8351997],[-70.3594214,45.8354497],[-70.3419442,45.8523411],[-70.3077981,45.8588497],[-70.2588044,45.8911686],[-70.2657106,45.8937589],[-70.2533764,45.9073683],[-70.2630856,45.9239886],[-70.2391336,45.943945],[-70.2769994,45.9672589],[-70.3158603,45.9629919],[-70.3069828,45.9826939],[-70.2839411,45.9954908],[-70.3023719,45.9986864],[-70.3179975,46.0190808],[-70.3013742,46.0276278],[-70.2973636,46.0407189],[-70.2783161,46.0562911],[-70.31095,46.0642014],[-70.3019053,46.0823689],[-70.2859306,46.0998364],[-70.2531133,46.1001275],[-70.2545272,46.1137133],[-70.2362825,46.1452408],[-70.2926928,46.1914742],[-70.2710758,46.2108347],[-70.2736481,46.2168347],[-70.2508897,46.2491147],[-70.2530678,46.2588342],[-70.2316289,46.2910367],[-70.2058756,46.2997364],[-70.20894,46.3295028],[-70.1911844,46.3502247],[-70.1269894,46.3708156],[-70.1270231,46.3804044],[-70.1077592,46.3877236],[-70.0969458,46.4094817],[-70.0565033,46.4155811],[-69.9971231,46.6955228],[-69.22447,47.4598397],[-69.2051958,47.4519524],[-69.1788961,47.4573785],[-69.1622574,47.4474307],[-69.1220168,47.4426966],[-69.1077947,47.4353754],[-69.107743,47.4276836],[-69.0988826,47.4314475],[-69.090137,47.4241355],[-69.0635481,47.4340583],[-69.0521198,47.4300086],[-69.0521489,47.4221421],[-69.0432161,47.4267836],[-69.0422484,47.4157126],[-69.0305977,47.4074197],[-69.0424935,47.4047464],[-69.0352387,47.4018005],[-69.0427328,47.4019708],[-69.0375639,47.3968435],[-69.0454114,47.3929871],[-69.0396417,47.3842086],[-69.0548816,47.377716],[-69.0509608,47.3000884],[-68.7996281,47.348942],[-68.5692747,47.4271241],[-68.3834933,47.5531985],[-68.3823342,47.9161169],[-68.1227929,47.9163191],[-68.1226045,47.999843],[-67.5977438,47.9999447],[-67.6134038,47.9801662],[-67.5969734,47.9715514],[-67.6077617,47.9611338],[-67.6016879,47.9534935],[-67.6079589,47.9370253],[-67.5935501,47.9246268],[-67.5478238,47.9217851],[-67.4817058,47.9027811],[-67.392869,47.8673326],[-67.3933975,47.8596751],[-67.3793703,47.8558623],[-67.3898685,47.8502036],[-67.3741962,47.8439573],[-67.3574824,47.846509],[-67.3642304,47.8562987],[-67.3521831,47.8731317],[-67.3366948,47.871853],[-67.3383256,47.8882078],[-67.3480366,47.895801],[-67.3044214,47.8856894],[-67.2943444,47.8888936],[-67.2979648,47.8986924],[-67.2872971,47.8987133],[-67.2466497,47.8822555],[-67.2289555,47.8872571],[-67.2102856,47.8756545],[-67.1753109,47.882734],[-67.1666497,47.8965206],[-67.1401865,47.8934376],[-67.13277,47.914941],[-67.0727006,47.9216116],[-67.0596908,47.935402],[-66.9808427,47.8942961],[-66.9558831,47.8923938],[-66.9444092,47.9028112],[-66.9702922,47.9153344],[-66.9646839,47.9414031],[-66.9214104,47.9843466],[-66.855432,48.0006281],[-66.7984525,47.9912835],[-66.7267447,48.0093662],[-66.6990865,48.0053468],[-66.6713038,48.0181598],[-66.5300694,48.0481209],[-66.5038822,48.0759609],[-66.4876054,48.0817495],[-66.3920415,48.0892456],[-66.3482135,48.0783542],[-66.3034842,48.0328304],[-66.1608784,48.0489975],[-65.8581465,48.0222337],[-65.6064082,47.9336109],[-65.5361394,47.8286068],[-65.1116784,47.9211034],[-64.4468737,48.2100036],[-64.2737962,48.2206848],[-63.625121,48.0000632],[-62.98636,47.1397285],[-62.2999563,46.839999],[-61.3993669,46.8399985],[-61.3504814,47.0097234],[-60.9918489,47.3294321],[-60.7626788,47.4233275],[-60.4037537,47.7610742],[-60.4768198,48.7813802],[-59.85537894150624,49.25],[-79.51718743939135,49.25]]]}}]}