{"type":"FeatureCollection","features":[{"type":"Feature","properties":{"id":"ri"},"geometry":{"type":"MultiPolygon","coordinates":[[[[-71.907431,41.304579],[-71.790972,41.184101],[-71.79148,41.272165],[-71.695043,41.282647],[-71.575253,41.320955],[-71.494805,41.307355],[-71.124594,41.411474],[-71.088571,41.431315],[-71.1204946,41.4974252],[-71.1316195,41.5937162],[-71.1419579,41.6125329],[-71.1325581,41.6603662],[-71.1954793,41.6750899],[-71.2610672,41.7520824],[-71.3284718,41.7806942],[-71.340481,41.797033],[-71.3475459,41.8232462],[-71.3354167,41.8356453],[-71.3425502,41.8446565],[-71.3340402,41.862604],[-71.3387869,41.8985926],[-71.381463,41.8935458],[-71.3813271,42.0189359],[-71.799188,42.008053],[-71.787239,41.656111],[-71.797745,41.416727],[-71.8187825,41.4197787],[-71.8426279,41.4100795],[-71.8422859,41.3951017],[-71.830637,41.378772],[-71.837873,41.360145],[-71.829365,41.342432],[-71.858995,41.320518],[-71.892067,41.330075],[-71.907431,41.304579]]],[[[-71.678807,41.158912],[-71.668345,41.12825],[-71.618861,41.099091],[-71.5693,41.097182],[-71.517538,41.107077],[-71.491432,41.125104],[-71.477024,41.155657],[-71.489844,41.194698],[-71.489322,41.235171],[-71.535979,41.28618],[-71.557569,41.294018],[-71.591591,41.289317],[-71.634968,41.263682],[-71.643014,41.231323],[-71.670491,41.194503],[-71.678807,41.158912]]]]}}]}