{"type":"FeatureCollection","features":[{"type":"Feature","properties":{"id":"sc"},"geometry":{"type":"Polygon","coordinates":[[[-83.3539979,34.6995155],[-83.340279,34.691635],[-83.3412356,34.6796307],[-83.3047661,34.6697924],[-83.2912218,34.6529498],[-83.2544185,34.6369199],[-83.232904,34.6119735],[-83.1596409,34.6033226],[-83.1708767,34.59831],[-83.1544524,34.5877548],[-83.1586241,34.5791079],[-83.1435935,34.5736437],[-83.1395128,34.5617994],[-83.1225507,34.5597152],[-83.102692,34.532402],[-83.084686,34.530685],[-83.077751,34.524185],[-83.087173,34.516071],[-83.068809,34.501865],[-83.054322,34.502794],[-83.0417262,34.4875449],[-83.0027549,34.4720341],[-82.980271,34.4828888],[-82.9548059,34.4771957],[-82.9396171,34.4863294],[-82.9244995,34.4812203],[-82.9039123,34.4862463],[-82.8766111,34.4750749],[-82.8759597,34.4642803],[-82.8604018,34.4571252],[-82.8345006,34.3648735],[-82.7944273,34.3402715],[-82.7796218,34.2956634],[-82.7468623,34.2664912],[-82.7418706,34.210205],[-82.7177256,34.1509119],[-82.6764896,34.1309675],[-82.6593056,34.1041385],[-82.6418739,34.0925901],[-82.6416802,34.0691289],[-82.6269591,34.0635401],[-82.5944942,34.0295139],[-82.5890841,34.0007495],[-82.57554,33.992049],[-82.5803547,33.9813752],[-82.556835,33.945353],[-82.515958,33.9385994],[-82.4941673,33.9108532],[-82.4548491,33.8814998],[-82.4256902,33.8644677],[-82.4034957,33.8654516],[-82.3244049,33.8200178],[-82.300213,33.800627],[-82.298286,33.783518],[-82.2480759,33.7529583],[-82.2344955,33.7000477],[-82.2007148,33.6646533],[-82.1968943,33.6311857],[-82.1850339,33.6198958],[-82.1356203,33.591238],[-82.1080409,33.5963375],[-82.0940785,33.5827687],[-82.05375,33.5687676],[-82.0018619,33.5202447],[-81.9872585,33.4875637],[-81.9287108,33.4648529],[-81.9129969,33.4383729],[-81.9319044,33.4246545],[-81.9093851,33.4118756],[-81.9458089,33.4069588],[-81.9246409,33.3740653],[-81.9314001,33.367874],[-81.9461201,33.3711175],[-81.9346892,33.3553768],[-81.9399832,33.3450492],[-81.9192402,33.3403403],[-81.9092418,33.3463591],[-81.919137,33.334442],[-81.9083229,33.3271875],[-81.9136621,33.3197455],[-81.9013561,33.3355945],[-81.8989566,33.3230522],[-81.8894364,33.3214488],[-81.8924083,33.3152448],[-81.8821515,33.3164462],[-81.8806817,33.3022077],[-81.8689583,33.3137408],[-81.864163,33.3024395],[-81.8548574,33.3108426],[-81.847551,33.3068346],[-81.8488385,33.2968184],[-81.8603396,33.299042],[-81.8632902,33.2885679],[-81.832636,33.275845],[-81.8364856,33.2629171],[-81.8281227,33.2626942],[-81.8352079,33.2581863],[-81.847362,33.266303],[-81.839272,33.2547043],[-81.8530206,33.248542],[-81.8096394,33.2226534],[-81.8052414,33.2114474],[-81.7789384,33.2098534],[-81.7788204,33.2221819],[-81.7682828,33.2169976],[-81.757022,33.1979635],[-81.7650984,33.1788777],[-81.772593,33.1804969],[-81.7516388,33.1478707],[-81.704634,33.116451],[-81.6425041,33.0929967],[-81.6122899,33.0942912],[-81.6127638,33.080306],[-81.6006813,33.087156],[-81.5964241,33.0794672],[-81.6028319,33.0736269],[-81.567619,33.0534261],[-81.5634257,33.0604533],[-81.559173,33.051765],[-81.5661748,33.0484281],[-81.5596378,33.0447451],[-81.5439194,33.0490254],[-81.5377788,33.0387033],[-81.5282952,33.0405414],[-81.5100415,33.0267721],[-81.5190783,33.0232024],[-81.5086594,33.0189051],[-81.5106933,33.0103214],[-81.5049575,33.0164753],[-81.4919573,33.0090994],[-81.5006333,33.0024604],[-81.4912003,32.9978304],[-81.4998333,32.9638224],[-81.5104551,32.9636522],[-81.4994493,32.9449944],[-81.5024303,32.9353594],[-81.4833979,32.9218555],[-81.4881143,32.91545],[-81.4800815,32.9132029],[-81.4804798,32.8975578],[-81.4640723,32.898173],[-81.4794483,32.8810884],[-81.4528863,32.8729704],[-81.4551323,32.8466175],[-81.4607253,32.8460443],[-81.4527473,32.8436965],[-81.4448693,32.8509723],[-81.4386553,32.8400823],[-81.4264783,32.8407793],[-81.4206233,32.8312293],[-81.4299463,32.8282523],[-81.4219553,32.8214723],[-81.4282383,32.8185903],[-81.4179873,32.8182023],[-81.4282953,32.8008383],[-81.4198823,32.7948633],[-81.4276703,32.7876193],[-81.4222433,32.7839923],[-81.4312383,32.7841473],[-81.4144593,32.7781553],[-81.4319433,32.7689173],[-81.4120963,32.7638723],[-81.4140413,32.7554293],[-81.4081623,32.7558093],[-81.4197013,32.7491733],[-81.4049353,32.7455653],[-81.4185453,32.7325913],[-81.4099913,32.7218693],[-81.4203413,32.7210573],[-81.4151233,32.7136753],[-81.4275203,32.7019013],[-81.4124063,32.6921013],[-81.4090153,32.6965573],[-81.3971573,32.6613843],[-81.4071963,32.6605253],[-81.3930363,32.6515483],[-81.4125563,32.6415293],[-81.4027383,32.6370373],[-81.4072743,32.6317433],[-81.4143602,32.6375394],[-81.4186633,32.6293983],[-81.3892083,32.5954223],[-81.369757,32.591231],[-81.366964,32.577059],[-81.3570769,32.5820522],[-81.357721,32.5727893],[-81.328753,32.561228],[-81.297955,32.563026],[-81.296747,32.553428],[-81.2910273,32.5627467],[-81.2894087,32.5514419],[-81.2802056,32.5557395],[-81.2746804,32.5443139],[-81.2799945,32.5366239],[-81.252882,32.51833],[-81.2339359,32.5183908],[-81.2388326,32.507442],[-81.2335577,32.4986702],[-81.1872603,32.4642256],[-81.1977166,32.4482376],[-81.2064083,32.4490179],[-81.1993601,32.4427735],[-81.2083924,32.4369204],[-81.205364,32.4233261],[-81.1782259,32.3930342],[-81.1817053,32.3791977],[-81.167555,32.368364],[-81.1740765,32.3628337],[-81.1545457,32.3497912],[-81.1602764,32.3404553],[-81.1441479,32.3513963],[-81.1284994,32.3408199],[-81.1378691,32.3271475],[-81.1307493,32.3254286],[-81.1334815,32.3080513],[-81.122933,32.307295],[-81.119557,32.2864693],[-81.1269708,32.2831025],[-81.1231364,32.2754084],[-81.1418759,32.2716818],[-81.1378075,32.2647756],[-81.1463349,32.2633343],[-81.14577,32.2511198],[-81.1565459,32.2426244],[-81.1436632,32.2291323],[-81.152064,32.222042],[-81.138925,32.219768],[-81.121885,32.195538],[-81.114032,32.195701],[-81.121795,32.191794],[-81.120439,32.1787],[-81.111132,32.172703],[-81.121149,32.174902],[-81.129756,32.165839],[-81.112236,32.150804],[-81.119131,32.142137],[-81.117225,32.117604],[-81.091575,32.110909],[-81.053228,32.085756],[-81.032633,32.085476],[-81.002318,32.100056],[-80.983192,32.079659],[-80.954483,32.068616],[-80.918003,32.037579],[-80.751429,32.033468],[-80.745536,32.078667],[-80.6954042,32.1057017],[-80.4456112,32.2814117],[-80.3830663,32.3742826],[-80.3048724,32.4662924],[-80.2801511,32.484543],[-80.1021364,32.5803056],[-79.9961677,32.5919617],[-79.9666451,32.6075708],[-79.8750525,32.6721743],[-79.8481075,32.7352204],[-79.8234632,32.7434444],[-79.7825391,32.7368963],[-79.6779416,32.7901947],[-79.5647952,32.8667536],[-79.3410261,32.9867382],[-79.3044179,33.0563283],[-79.2027171,33.1469986],[-79.1585174,33.1583181],[-79.1466899,33.2012656],[-79.1671348,33.2384026],[-79.1222196,33.3980613],[-79.0735793,33.4756349],[-79.0161929,33.5232384],[-78.9848189,33.5720426],[-78.867528,33.6809044],[-78.7647994,33.7572539],[-78.7048585,33.789579],[-78.5413536,33.8513675],[-79.3907286,34.5732023],[-79.6764943,34.805065],[-80.7974606,34.8198035],[-80.781921,34.9358481],[-80.9348164,35.1073997],[-81.0416088,35.044658],[-81.0576744,35.061874],[-81.0570822,35.0856874],[-81.0328557,35.107385],[-81.0380091,35.1244737],[-81.0520773,35.1334935],[-81.0463365,35.1467351],[-81.034223,35.1492065],[-82.2910804,35.2000858],[-82.3237532,35.1850878],[-82.3596436,35.1924892],[-82.371234,35.1806494],[-82.3831345,35.1908314],[-82.3778864,35.1957759],[-82.3839277,35.2108487],[-82.3937917,35.2152244],[-82.4226228,35.1958874],[-82.4258892,35.1794016],[-82.4398696,35.165743],[-82.4573172,35.1639246],[-82.4549689,35.1769413],[-82.4781557,35.1759758],[-82.4954732,35.1620363],[-82.5042,35.1658785],[-82.5273821,35.1557951],[-82.5458869,35.1642225],[-82.5685963,35.1454666],[-82.6130951,35.1396539],[-82.6287569,35.1257772],[-82.6433481,35.1337829],[-82.6557088,35.1199412],[-82.6735637,35.117262],[-82.6748779,35.1272987],[-82.6817474,35.1279728],[-82.6945362,35.1161622],[-82.686765,35.108025],[-82.6976343,35.0959536],[-82.7000708,35.100891],[-82.7267333,35.0946738],[-82.7389166,35.0780952],[-82.7513598,35.0815335],[-82.7565112,35.0673604],[-82.7817314,35.0653052],[-82.7762285,35.081165],[-82.783172,35.0859216],[-83.1089924,35.0012396],[-83.0983376,34.9907586],[-83.1208769,34.9682123],[-83.114043,34.9504785],[-83.1254835,34.95504],[-83.1275938,34.9495774],[-83.1119647,34.9349084],[-83.1275756,34.9386348],[-83.1415494,34.9244563],[-83.1565746,34.9310161],[-83.1573736,34.9149762],[-83.1690184,34.9191191],[-83.1973195,34.8908616],[-83.2033532,34.8937181],[-83.2053057,34.880233],[-83.2136324,34.8886634],[-83.2198792,34.878193],[-83.2431554,34.8776667],[-83.2354795,34.8706026],[-83.2486706,34.865126],[-83.2537866,34.8483761],[-83.248681,34.8454867],[-83.2677641,34.8478183],[-83.268718,34.8205908],[-83.2760742,34.8166661],[-83.2894342,34.8245693],[-83.295695,34.8129868],[-83.3033785,34.8188531],[-83.300847,34.8042756],[-83.3240937,34.7894104],[-83.3188634,34.7575503],[-83.3491628,34.7361905],[-83.3530065,34.7182147],[-83.3466363,34.7042527],[-83.3539979,34.6995155]]]}}]}