{"type":"FeatureCollection","features":[{"type":"Feature","properties":{"id":"sd"},"geometry":{"type":"Polygon","coordinates":[[[-104.0577568,44.9975418],[-104.0531795,43.0012719],[-98.4985499,42.9985598],[-98.467356,42.947556],[-98.444145,42.929242],[-98.42074,42.931924],[-98.34623,42.902747],[-98.325864,42.8865],[-98.25181,42.872824],[-98.189765,42.841628],[-98.146933,42.839823],[-98.059838,42.772772],[-98.035034,42.764205],[-98.000348,42.763256],[-97.9367731,42.7793247],[-97.8884075,42.8220066],[-97.8753612,42.8586508],[-97.8455136,42.8677731],[-97.8285835,42.8688425],[-97.7770851,42.836626],[-97.7556918,42.8407012],[-97.7317021,42.862001],[-97.7213381,42.86241],[-97.6759394,42.8313112],[-97.6603416,42.8348866],[-97.6268465,42.8642034],[-97.6266704,42.8465616],[-97.519489,42.8600494],[-97.444905,42.845932],[-97.41448,42.867034],[-97.3773063,42.8651411],[-97.3526294,42.8741909],[-97.3030021,42.8651451],[-97.289859,42.855499],[-97.237868,42.853139],[-97.218046,42.845113],[-97.210126,42.809296],[-97.150763,42.795566],[-97.131331,42.771929],[-97.065592,42.772189],[-96.9774638,42.753387],[-96.9604264,42.7482188],[-96.9569932,42.7258709],[-96.9473801,42.7170745],[-96.9079409,42.7326801],[-96.8656264,42.7294332],[-96.8348132,42.7040511],[-96.8064214,42.7019758],[-96.8034421,42.6769548],[-96.7931424,42.6662898],[-96.7237054,42.6628816],[-96.6966258,42.652435],[-96.6956816,42.636904],[-96.7110024,42.6071252],[-96.6840517,42.5766054],[-96.6386472,42.5526784],[-96.631492,42.524318],[-96.6174041,42.5078338],[-96.593114,42.5041639],[-96.5656911,42.5177669],[-96.5446626,42.5187475],[-96.526681,42.5108392],[-96.4990006,42.4820447],[-96.4402046,42.4900083],[-96.4759157,42.490424],[-96.4760839,42.5086853],[-96.4938796,42.5160101],[-96.4790523,42.5256414],[-96.4769816,42.5556186],[-96.4985287,42.5583975],[-96.4994728,42.5705033],[-96.4857467,42.5747184],[-96.4960893,42.5799405],[-96.4913901,42.5871686],[-96.5015128,42.5888908],[-96.5096613,42.6131354],[-96.5297886,42.6104586],[-96.5155943,42.6299196],[-96.5373095,42.6457207],[-96.5421268,42.6607998],[-96.5592822,42.6575176],[-96.5555056,42.6639162],[-96.5663095,42.6763013],[-96.5784331,42.6717104],[-96.5743133,42.6823667],[-96.5856858,42.6824692],[-96.5984388,42.6986282],[-96.6301461,42.7052585],[-96.6237303,42.7253203],[-96.6347917,42.7247213],[-96.6305431,42.7299702],[-96.6397162,42.7370312],[-96.630586,42.7351084],[-96.6358324,42.7414518],[-96.6284402,42.743461],[-96.6303607,42.750544],[-96.619031,42.7542153],[-96.627142,42.7545461],[-96.6364869,42.7692602],[-96.5946659,42.7928994],[-96.5996426,42.7994022],[-96.5899881,42.8075571],[-96.5960177,42.8152782],[-96.577489,42.8277039],[-96.5818342,42.8376253],[-96.5677608,42.8381077],[-96.5635308,42.8281366],[-96.5605911,42.839655],[-96.5502914,42.8373421],[-96.5561064,42.849315],[-96.5451337,42.8496717],[-96.5410324,42.8583757],[-96.5474729,42.8570171],[-96.5503987,42.8690628],[-96.5378896,42.8779631],[-96.5406445,42.8894992],[-96.5247745,42.891871],[-96.5429207,42.9038165],[-96.5365051,42.9050385],[-96.5410539,42.9244976],[-96.5250572,42.9358016],[-96.5171169,42.9320612],[-96.5198,42.9402158],[-96.499029,42.9575476],[-96.5049943,42.9709652],[-96.5209351,42.9795804],[-96.4919647,43.0101533],[-96.5123709,43.0267413],[-96.510777,43.0398021],[-96.5217186,43.0393836],[-96.5103432,43.0501251],[-96.4602824,43.0646826],[-96.4541395,43.0855618],[-96.4628835,43.0915009],[-96.4363403,43.1204988],[-96.4502234,43.1422812],[-96.4686253,43.1518996],[-96.4646679,43.1812598],[-96.4738185,43.1892212],[-96.4761575,43.2215679],[-96.5197702,43.2177213],[-96.5344365,43.2270405],[-96.5591021,43.222983],[-96.569155,43.2326297],[-96.5655716,43.2443616],[-96.5492208,43.2479878],[-96.5537699,43.2594198],[-96.5850981,43.2684748],[-96.5790363,43.2932813],[-96.5889282,43.2957958],[-96.5527118,43.2926983],[-96.5302609,43.2997608],[-96.5237136,43.3107425],[-96.5351214,43.336301],[-96.5242956,43.3471094],[-96.5309933,43.3686221],[-96.5224532,43.3719679],[-96.5218835,43.3877637],[-96.5250485,43.3959499],[-96.5443389,43.3958255],[-96.5732424,43.4187799],[-96.5748732,43.4313952],[-96.5937345,43.4334053],[-96.6031978,43.4509301],[-96.5828476,43.4665312],[-96.5869744,43.4777397],[-96.5811954,43.4811373],[-96.5994244,43.5003786],[-96.4533065,43.5003923],[-96.4530892,45.3006404],[-96.489065,45.357071],[-96.521787,45.375645],[-96.619752,45.408884],[-96.680454,45.410499],[-96.692541,45.417338],[-96.732739,45.458737],[-96.763432,45.520007],[-96.8576095,45.6059699],[-96.838648,45.647509],[-96.662595,45.738682],[-96.627778,45.786239],[-96.583684,45.819307],[-96.5613655,45.9352504],[-104.0456224,45.9452802],[-104.0396963,44.9979762],[-104.0577568,44.9975418]]]}}]}