{"type":"FeatureCollection","features":[{"type":"Feature","properties":{"id":"sk"},"geometry":{"type":"Polygon","coordinates":[[[-110.006368,59.9996139],[-110.005056,48.9996249],[-101.361989,48.9994722],[-101.362087,49.1777115],[-101.3922176,49.1777123],[-101.3925639,49.5327312],[-101.4177744,49.5327142],[-101.417546,49.8866701],[-101.4471985,49.88666],[-101.4471535,50.2405433],[-101.4767208,50.2405059],[-101.4769949,50.5943875],[-101.5087288,50.5943934],[-101.5086946,50.9484851],[-101.5389827,50.9485807],[-101.53911,51.301712],[-101.5705439,51.3018759],[-101.5772302,51.9685683],[-101.6093112,51.9685811],[-101.6090547,52.318158],[-101.6378127,52.3181495],[-101.6377053,52.6672739],[-101.671588,52.6672606],[-101.6716045,53.0164479],[-101.7006943,53.0164508],[-101.7006057,53.3657811],[-101.7355437,53.3658084],[-101.735099,53.7107061],[-101.7706467,53.7108988],[-101.7713228,54.0644025],[-101.8104345,54.0644058],[-101.8104613,54.4135399],[-101.8474842,54.4135639],[-101.8474228,54.7625602],[-101.8853319,54.7625693],[-101.8852911,55.1115689],[-101.9240555,55.111545],[-101.9241924,55.4604325],[-101.9638087,55.46042],[-101.9637277,55.8093992],[-102.004039,55.8093815],[-102.0075681,59.9994439],[-110.006368,59.9996139]]]}}]}