{"type":"FeatureCollection","features":[{"type":"Feature","properties":{"id":"tn"},"geometry":{"type":"Polygon","coordinates":[[[-90.291996,35.041793],[-90.309297,34.9956588],[-90.136745,34.9946728],[-88.2000237,34.9955693],[-88.202969,35.0081121],[-85.5099404,34.983321],[-84.3218293,34.988494],[-84.2902426,35.2253183],[-84.2240251,35.2690078],[-84.2113946,35.2656284],[-84.1994771,35.2438191],[-84.1835276,35.2399989],[-84.1479731,35.2468778],[-84.1269317,35.2408335],[-84.1192916,35.252242],[-84.0976467,35.2475655],[-84.0525461,35.2701926],[-84.0214975,35.3010928],[-84.0359088,35.3132179],[-84.029268,35.3331049],[-84.0388863,35.3482177],[-84.0073928,35.3716538],[-84.0085627,35.3910003],[-84.0234187,35.4116175],[-84.0012871,35.4233961],[-83.9919964,35.4405423],[-83.972649,35.4473133],[-83.9610797,35.4641441],[-83.9496528,35.4609456],[-83.9367236,35.4715589],[-83.9118828,35.4760706],[-83.8802756,35.5188204],[-83.8204695,35.5256596],[-83.7719026,35.5613945],[-83.7549884,35.5646218],[-83.6401347,35.5661694],[-83.6083396,35.5800209],[-83.5843756,35.5627067],[-83.4984096,35.5629387],[-83.4456859,35.6117581],[-83.4220427,35.6110552],[-83.3962461,35.6228274],[-83.3887295,35.6336295],[-83.3678005,35.6378467],[-83.3508173,35.6605508],[-83.3346579,35.6656644],[-83.3120793,35.6546185],[-83.2982463,35.6572613],[-83.2903069,35.6735034],[-83.2543256,35.6954516],[-83.2515098,35.7197599],[-83.2408301,35.7268624],[-83.1860833,35.7300128],[-83.159587,35.7646596],[-83.1206122,35.7664386],[-83.0743379,35.7901549],[-82.9921157,35.7739212],[-82.9617575,35.7909644],[-82.9458521,35.8243844],[-82.9163467,35.8416699],[-82.9208348,35.8681849],[-82.8962374,35.8791572],[-82.9068296,35.8839155],[-82.9010471,35.8927975],[-82.9198349,35.928897],[-82.9018214,35.9269635],[-82.8981852,35.9452374],[-82.8742958,35.9528363],[-82.8460432,35.9461758],[-82.8221668,35.9219152],[-82.8050871,35.9271435],[-82.8061728,35.9377644],[-82.7750898,35.9718351],[-82.7856945,35.9778479],[-82.7757623,36.0010572],[-82.750225,36.005988],[-82.6372314,36.0658266],[-82.5907938,36.0336423],[-82.614932,36.0020501],[-82.6044188,35.9874702],[-82.6107062,35.9672111],[-82.5804658,35.9652542],[-82.5579913,35.9538802],[-82.460587,36.007731],[-82.4098917,36.0828974],[-82.3527587,36.1164882],[-82.3359547,36.1145739],[-82.2894039,36.1357314],[-82.2668343,36.1269173],[-82.2545835,36.1359888],[-82.2453123,36.1312337],[-82.213206,36.1590857],[-82.1774205,36.142322],[-82.1487784,36.149822],[-82.1298497,36.1042497],[-82.0810982,36.1031283],[-82.0618482,36.1130933],[-82.0543022,36.1266461],[-82.0338533,36.1205285],[-81.9080942,36.3020179],[-81.841268,36.343321],[-81.800812,36.358073],[-81.7661018,36.3385173],[-81.7358128,36.3429405],[-81.707438,36.335171],[-81.7057759,36.3432178],[-81.722085,36.352089],[-81.7346002,36.3793789],[-81.728666,36.3912931],[-81.7392971,36.395477],[-81.7417105,36.4122503],[-81.720734,36.422537],[-81.7168934,36.4566355],[-81.6950811,36.4673346],[-81.6971169,36.506092],[-81.707963,36.536209],[-81.69003,36.552154],[-81.690236,36.568718],[-81.677036,36.570718],[-81.680137,36.585518],[-81.6472191,36.6117066],[-81.922644,36.616213],[-81.934144,36.594213],[-83.248933,36.593827],[-83.6750166,36.6008122],[-83.690714,36.582581],[-84.543138,36.596277],[-85.195372,36.625498],[-85.488353,36.614994],[-85.677789,36.618157],[-86.507771,36.652445],[-86.543777,36.640536],[-86.550054,36.644817],[-86.56388,36.6335536],[-86.589906,36.652486],[-87.8535427,36.6350732],[-87.8504528,36.6650968],[-88.070532,36.678118],[-88.032489,36.540662],[-88.037822,36.51385],[-88.0533223,36.497118],[-89.301022,36.507233],[-89.41822,36.499029],[-89.448964,36.464882],[-89.471895,36.45756],[-89.493082,36.4705],[-89.485427,36.497491],[-89.539232,36.497934],[-89.520642,36.478668],[-89.51972,36.467002],[-89.545255,36.427079],[-89.51038,36.378356],[-89.513178,36.359897],[-89.531822,36.339246],[-89.605668,36.342234],[-89.620255,36.323006],[-89.611819,36.309088],[-89.578492,36.288317],[-89.539487,36.277368],[-89.534745,36.252576],[-89.602374,36.238106],[-89.642182,36.249486],[-89.695235,36.252766],[-89.705328,36.239898],[-89.607004,36.171179],[-89.592206,36.15012],[-89.59307,36.129699],[-89.601936,36.11947],[-89.666598,36.095802],[-89.678821,36.084636],[-89.688577,36.029238],[-89.706932,36.000981],[-89.733095,36.000608],[-89.719168,35.985976],[-89.714565,35.963034],[-89.652279,35.921462],[-89.642635,35.906517],[-89.645346,35.891419],[-89.666101,35.882866],[-89.714934,35.906247],[-89.742606,35.906653],[-89.765689,35.891299],[-89.772467,35.865098],[-89.7063196,35.8371766],[-89.704387,35.819607],[-89.734707,35.806047],[-89.765438,35.811213],[-89.781176,35.805296],[-89.820876,35.756868],[-89.847127,35.755499],[-89.876462,35.738026],[-89.909825,35.759387],[-89.956252,35.733388],[-89.955753,35.690621],[-89.9315134,35.6611397],[-89.898916,35.650904],[-89.864739,35.670388],[-89.851558,35.659105],[-89.856619,35.634444],[-89.894345,35.615535],[-89.911082,35.617556],[-89.957495,35.58853],[-89.941997,35.556964],[-89.9109336,35.5477553],[-89.9046661,35.519308],[-89.9242905,35.5112816],[-89.9587824,35.5238469],[-89.956706,35.539369],[-89.989363,35.560043],[-90.032938,35.55344],[-90.04981,35.510454],[-90.043462,35.492339],[-90.018916,35.466231],[-90.031584,35.427662],[-90.056782,35.403863],[-90.044582,35.393073],[-90.054322,35.389277],[-90.0695631,35.4080689],[-90.062018,35.41518],[-90.074082,35.433983],[-90.067798,35.466224],[-90.085009,35.478835],[-90.098719,35.478595],[-90.11839,35.468791],[-90.129448,35.441931],[-90.169002,35.421853],[-90.179265,35.385194],[-90.166246,35.374745],[-90.13551,35.376668],[-90.146191,35.399468],[-90.130475,35.413745],[-90.112504,35.410153],[-90.0806579,35.3857906],[-90.110293,35.342788],[-90.103862,35.332405],[-90.109093,35.304987],[-90.158913,35.300637],[-90.168924,35.28028],[-90.152094,35.255989],[-90.105093,35.254288],[-90.079345,35.228838],[-90.074392,35.210589],[-90.088597,35.212376],[-90.0964719,35.1948545],[-90.1161879,35.1985045],[-90.1173989,35.1878965],[-90.0920676,35.1563676],[-90.066958,35.151839],[-90.064768,35.13894],[-90.100593,35.116691],[-90.142794,35.135091],[-90.160058,35.12883],[-90.176843,35.112088],[-90.200222,35.032743],[-90.214382,35.025795],[-90.291996,35.041793]]]}}]}