{"type":"FeatureCollection","features":[{"type":"Feature","properties":{"id":"tx-nw"},"geometry":{"type":"Polygon","coordinates":[[[-106.63575,31.8662938],[-106.6146764,31.84646],[-106.601711,31.8443327],[-106.6025213,31.8244265],[-106.5909252,31.8238908],[-106.5767551,31.8103092],[-106.546801,31.8073573],[-106.5102436,31.7614138],[-106.4903218,31.7487799],[-106.45188,31.7645002],[-106.38004,31.73114],[-106.3723,31.71245],[-106.3496,31.69674],[-106.30438,31.62385],[-106.28091,31.56233],[-106.2465,31.54174],[-106.20668,31.46626],[-106.17532,31.45541],[-106.13234,31.42491],[-106.10752,31.42226],[-106.08058,31.39864],[-106.00527,31.39264],[-105.96997,31.36587],[-105.95396,31.36489],[-105.93819,31.31831],[-105.90774,31.31249],[-105.89395,31.29063],[-105.86894,31.28864],[-105.79432,31.20236],[-105.78318,31.19803],[-105.77304,31.1668],[-105.74235,31.16485],[-105.71066,31.13703],[-105.64878,31.11587],[-105.64151,31.09811],[-105.62685,31.09834],[-105.60442,31.0837],[-105.5850975,31.0573158],[-105.5813304,31.0267375],[-105.55719,30.98968],[-105.53262,30.98468],[-105.51578,30.96491],[-105.50208,30.96781],[-105.49395,30.95632],[-105.49886,30.95033],[-105.46692,30.92437],[-105.45161,30.92481],[-105.45321,30.91618],[-105.44687,30.91957],[-105.44144,30.90858],[-105.41373,30.89951],[-105.4121856,30.8885807],[-105.40004,30.88931],[-105.40425,30.87955],[-105.39134,30.87382],[-105.3998555,30.8520076],[-105.361634,30.8505897],[-105.35231,30.83596],[-105.33913,30.84035],[-105.32744,30.82736],[-105.31861,30.82829],[-105.31667,30.81085],[-105.3095,30.81704],[-105.30628,30.80978],[-105.30006,30.82484],[-105.29187,30.8262],[-105.2575529,30.7941023],[-105.2150083,30.805926],[-105.2095353,30.7973401],[-105.2199684,30.7889089],[-105.21641,30.7834],[-105.1949997,30.7922383],[-105.17652,30.7679],[-105.16704,30.77665],[-105.15627,30.76983],[-105.16146,30.75216],[-105.1199667857143,30.75],[-97,30.75],[-97,33.87413401565988],[-97.0183757,33.8501399],[-97.0406487,33.8380924],[-97.0626214,33.8600476],[-97.0886281,33.8529555],[-97.0902159,33.8418708],[-97.0542529,33.8343138],[-97.0481589,33.8200536],[-97.0940783,33.8040079],[-97.087169,33.7433639],[-97.1077683,33.7214859],[-97.1343329,33.7187017],[-97.1646333,33.7304091],[-97.189095,33.7572445],[-97.1877218,33.7803619],[-97.2030245,33.7950845],[-97.2020555,33.823298],[-97.1745897,33.8312124],[-97.1652341,33.8487499],[-97.1758312,33.869976],[-97.1743107,33.8912777],[-97.2053814,33.9155875],[-97.233491,33.916834],[-97.2489619,33.9072712],[-97.2464782,33.877548],[-97.2613431,33.862364],[-97.2872639,33.8606178],[-97.2937763,33.87912],[-97.3086358,33.8875549],[-97.3049021,33.8687158],[-97.3184634,33.8633885],[-97.334106,33.8712101],[-97.3608423,33.8257936],[-97.3786199,33.8300716],[-97.4206233,33.8185829],[-97.450192,33.8275049],[-97.4598909,33.8378429],[-97.4504495,33.8746219],[-97.4572301,33.9021244],[-97.5005746,33.9199323],[-97.5293672,33.9124006],[-97.543105,33.9002667],[-97.5911727,33.9025608],[-97.5874264,33.9145463],[-97.5998585,33.9272584],[-97.5897478,33.9527272],[-97.6369369,33.9884947],[-97.6662881,33.9925335],[-97.6940579,33.9836057],[-97.7091401,33.955636],[-97.7284935,33.9390919],[-97.7598736,33.9356659],[-97.760218,33.9262092],[-97.7945474,33.9117416],[-97.8084448,33.8788375],[-97.8468922,33.8549836],[-97.8714186,33.8505959],[-97.9348221,33.8787619],[-97.9666291,33.8822793],[-97.9849742,33.9006301],[-97.9790305,33.9114149],[-97.9639138,33.9123273],[-97.9545582,33.9226505],[-97.95441,33.9322526],[-97.9745999,33.941426],[-97.9568573,33.9598019],[-97.9484242,33.9877139],[-97.9677707,33.9884054],[-97.9823082,34.0030452],[-98.0393594,33.9932687],[-98.088724,34.0056154],[-98.1077656,34.0361742],[-98.0900334,34.0458502],[-98.1084465,34.0556499],[-98.1207656,34.0750532],[-98.1189427,34.093709],[-98.1037094,34.1121917],[-98.1040247,34.1485925],[-98.1149348,34.1551314],[-98.1710572,34.1142083],[-98.2026526,34.1170283],[-98.2393198,34.1332798],[-98.2895257,34.1324338],[-98.3341781,34.151854],[-98.3705848,34.1552234],[-98.3811947,34.129845],[-98.4004712,34.1234213],[-98.3984828,34.102921],[-98.4112828,34.1002302],[-98.414426,34.085074],[-98.440092,34.084311],[-98.449034,34.073462],[-98.4652405,34.0738614],[-98.4839687,34.0621266],[-98.5561381,34.1160589],[-98.5683542,34.1345996],[-98.5976685,34.1522718],[-98.6139155,34.148905],[-98.6420917,34.1631418],[-98.6536628,34.1624862],[-98.663164,34.1469158],[-98.6990997,34.1271558],[-98.7439267,34.1178373],[-98.8503786,34.1500383],[-98.8713691,34.147997],[-98.8814757,34.15549],[-98.8960246,34.1473977],[-98.9006187,34.1717633],[-98.9142377,34.1714477],[-98.958321,34.2095885],[-98.9730527,34.2032691],[-98.9889463,34.2195504],[-99.013163,34.2031856],[-99.0219802,34.2063565],[-99.0303257,34.1957398],[-99.0820179,34.2127579],[-99.1238812,34.2019521],[-99.1368782,34.2175128],[-99.1614275,34.2083129],[-99.17475,34.2116957],[-99.1790084,34.2260355],[-99.1890828,34.2162754],[-99.1931264,34.2588372],[-99.2078414,34.260466],[-99.1959991,34.2785996],[-99.2105106,34.288762],[-99.1926945,34.2964217],[-99.203921,34.30454],[-99.1948589,34.3238164],[-99.2080074,34.3244743],[-99.2172277,34.3415377],[-99.2125164,34.3475228],[-99.2322095,34.3465401],[-99.2371718,34.3659265],[-99.2481603,34.3651132],[-99.2467728,34.3737582],[-99.2582832,34.3724501],[-99.2751682,34.3849316],[-99.2616709,34.3925827],[-99.2642938,34.401303],[-99.281486,34.4014043],[-99.2963865,34.413658],[-99.3206566,34.4075786],[-99.3210781,34.4164915],[-99.3558391,34.440935],[-99.3613665,34.45565],[-99.3775733,34.4582487],[-99.3942283,34.4415594],[-99.3907253,34.422099],[-99.397326,34.4088155],[-99.3849838,34.4064655],[-99.4031936,34.372815],[-99.4259562,34.3815796],[-99.4354687,34.3695595],[-99.4530971,34.3878196],[-99.4605488,34.3801758],[-99.4657165,34.3941513],[-99.4869723,34.3974887],[-99.5041649,34.4106329],[-99.5725981,34.4172151],[-99.5802724,34.4153158],[-99.5869307,34.3860445],[-99.6094057,34.3691838],[-99.6971971,34.378226],[-99.7128127,34.3883972],[-99.7200093,34.4053491],[-99.7593044,34.4240666],[-99.8012212,34.4575294],[-99.8341593,34.501244],[-99.9238262,34.5754892],[-99.954567,34.578195],[-99.971555,34.562179],[-100.0003928,34.5605578],[-100.0004065,36.4999432],[-103.0416536,36.5004529],[-103.043617,34.003633],[-103.064625,32.999899],[-103.064631,32.0003914],[-106.6186248,32.0007143],[-106.639738,31.9813236],[-106.61947,31.9721145],[-106.6252372,31.9545566],[-106.6143983,31.9520588],[-106.6298362,31.9266273],[-106.6129088,31.9203781],[-106.6458459,31.8952738],[-106.6294184,31.8834938],[-106.63575,31.8662938]]]}}]}