{"type":"FeatureCollection","features":[{"type":"Feature","properties":{"id":"tx-ne"},"geometry":{"type":"Polygon","coordinates":[[[-97.25,31],[-93.57760049538805,31],[-93.5669728,31.0133324],[-93.5555921,31.0037191],[-93.5404023,31.0078363],[-93.5340258,31.0189045],[-93.5078217,31.0306396],[-93.5245638,31.0377231],[-93.5189283,31.0430871],[-93.5322724,31.0545442],[-93.5193255,31.0644434],[-93.527374,31.0738495],[-93.552235,31.0786409],[-93.5485241,31.0900328],[-93.557908,31.0954898],[-93.5392716,31.1146586],[-93.5488662,31.1504686],[-93.5364405,31.1584039],[-93.5432206,31.1706098],[-93.5327411,31.1745304],[-93.5325451,31.183541],[-93.5503446,31.1866168],[-93.589255,31.1660646],[-93.6005759,31.1768713],[-93.6072278,31.204864],[-93.5964158,31.2297382],[-93.618021,31.2326008],[-93.6216366,31.2492316],[-93.6140728,31.2596599],[-93.6206067,31.271105],[-93.6425257,31.2696102],[-93.6484909,31.2838507],[-93.659209,31.281861],[-93.6690581,31.2981256],[-93.6871087,31.305024],[-93.6739563,31.3238087],[-93.6687255,31.3526474],[-93.6455222,31.3591264],[-93.6391568,31.3720693],[-93.6710526,31.3661799],[-93.6743742,31.3977468],[-93.7048066,31.4105257],[-93.6919105,31.4388061],[-93.7095487,31.4416437],[-93.7039483,31.4555286],[-93.7233889,31.4537806],[-93.749857,31.4693474],[-93.7454045,31.4801539],[-93.7524533,31.4824962],[-93.7283778,31.4884524],[-93.7109757,31.511816],[-93.7424755,31.5154563],[-93.7475717,31.5306105],[-93.7595558,31.5240168],[-93.7873221,31.5273183],[-93.818346,31.5546157],[-93.8182855,31.5710494],[-93.8347487,31.5861187],[-93.838917,31.6052482],[-93.8277658,31.6169074],[-93.819015,31.6149518],[-93.8268397,31.6207109],[-93.8162255,31.6224709],[-93.8182104,31.6474449],[-93.811455,31.6475317],[-93.826462,31.666919],[-93.8217737,31.6738569],[-93.8124199,31.670111],[-93.8163385,31.6752745],[-93.7944536,31.7036687],[-93.8167925,31.7077744],[-93.8151956,31.7294447],[-93.8367491,31.7488375],[-93.8227061,31.7740467],[-93.8373223,31.7801818],[-93.8395108,31.8002178],[-93.8511178,31.7998635],[-93.8736608,31.8153235],[-93.8734263,31.8365194],[-93.8898963,31.8565295],[-93.8825365,31.8686333],[-93.9018485,31.87441],[-93.9004628,31.8965708],[-93.9240858,31.8866343],[-93.9246788,31.8942548],[-93.9326958,31.8928119],[-93.921869,31.903731],[-93.9279705,31.9122045],[-93.9533871,31.9105378],[-93.9606398,31.9236061],[-93.9740294,31.9222219],[-94.0162436,31.9800508],[-94.017847,31.9923456],[-94.0422605,31.993621],[-94.0433167,33.5521745],[-94.0633121,33.5670738],[-94.0659461,33.5805826],[-94.0936103,33.5707926],[-94.1270843,33.5720799],[-94.1549793,33.557633],[-94.1512725,33.5803252],[-94.1587704,33.591931],[-94.1811783,33.5826789],[-94.2105976,33.5856627],[-94.2160907,33.5836607],[-94.2146316,33.5609946],[-94.2366901,33.5529837],[-94.2542854,33.5617098],[-94.234201,33.5782977],[-94.2357513,33.5900422],[-94.2426982,33.5914542],[-94.2621818,33.581301],[-94.278318,33.5561309],[-94.291965,33.5609946],[-94.271105,33.5779594],[-94.2965999,33.581158],[-94.3044963,33.5785122],[-94.303123,33.5593495],[-94.3109336,33.5497648],[-94.329988,33.5523399],[-94.3358245,33.5744398],[-94.3595138,33.5521253],[-94.3880954,33.5477619],[-94.3989959,33.5544858],[-94.3676687,33.5849526],[-94.3836332,33.5870261],[-94.3929887,33.5702217],[-94.4083524,33.5692205],[-94.4209695,33.578088],[-94.4225145,33.5933895],[-94.4430401,33.5918876],[-94.4571901,33.6370623],[-94.497788,33.6358474],[-94.5207048,33.6446366],[-94.5512832,33.6364889],[-94.5490837,33.623455],[-94.5602166,33.6192752],[-94.5730666,33.6310583],[-94.5626564,33.6413065],[-94.5426665,33.6428956],[-94.5407672,33.6551441],[-94.5489026,33.6621226],[-94.5678054,33.6602729],[-94.5780714,33.6805821],[-94.6026954,33.6614865],[-94.6055299,33.6812876],[-94.6181345,33.6878884],[-94.6411859,33.661741],[-94.6437847,33.6852899],[-94.657133,33.6938063],[-94.7021306,33.6850851],[-94.7195828,33.6937156],[-94.7361444,33.737766],[-94.7533498,33.7370063],[-94.7694918,33.7189452],[-94.7821801,33.7264208],[-94.7815826,33.7451546],[-94.7939256,33.7539304],[-94.8578019,33.7416563],[-94.8672191,33.7678032],[-94.9011922,33.7718006],[-94.9065995,33.8103909],[-94.9271989,33.8024032],[-94.9237657,33.8166664],[-94.9567247,33.8227276],[-94.94694,33.8416926],[-94.9562097,33.8582301],[-94.9768949,33.8504607],[-94.9865079,33.867923],[-95.0161195,33.8582301],[-95.0493746,33.8683043],[-95.0542358,33.8934462],[-95.0664838,33.9001448],[-95.0715736,33.9167671],[-95.1025177,33.9060397],[-95.1251684,33.9361902],[-95.1448215,33.93449],[-95.2197099,33.9632254],[-95.2512098,33.9382348],[-95.2486348,33.9118836],[-95.2570462,33.8912955],[-95.2635865,33.8886842],[-95.266316,33.9098179],[-95.2851987,33.9083932],[-95.2778953,33.8784414],[-95.289383,33.8733303],[-95.3046072,33.8738825],[-95.3257966,33.890868],[-95.3381562,33.8764746],[-95.3609872,33.8675667],[-95.3800416,33.8710587],[-95.3987527,33.8629341],[-95.4228711,33.8725552],[-95.4382348,33.8652861],[-95.4628361,33.8887306],[-95.479498,33.8784432],[-95.504067,33.8762609],[-95.5087877,33.8986337],[-95.5435491,33.8806076],[-95.5512738,33.8902267],[-95.5544839,33.9281582],[-95.5929876,33.9435753],[-95.6303239,33.9056151],[-95.6621671,33.9101028],[-95.7024217,33.8855955],[-95.751431,33.895499],[-95.7632306,33.8787193],[-95.7519868,33.8616156],[-95.7555058,33.8519933],[-95.7676938,33.8470391],[-95.8004811,33.8622214],[-95.8197072,33.8594774],[-95.8186475,33.8411972],[-95.830276,33.8355268],[-95.9258368,33.8859873],[-95.935364,33.8816052],[-95.9430888,33.8623996],[-96.0136416,33.8435104],[-96.0156157,33.8619007],[-96.0223964,33.8652861],[-96.0302069,33.862756],[-96.03879,33.8403737],[-96.0668996,33.8384489],[-96.0923054,33.8576599],[-96.0902026,33.8365596],[-96.1078837,33.8389123],[-96.1187842,33.8276118],[-96.1656907,33.8090716],[-96.170111,33.7712655],[-96.1877492,33.7569591],[-96.2274459,33.7506792],[-96.2612632,33.7670559],[-96.2921193,33.7708018],[-96.3100579,33.7417224],[-96.3126815,33.706718],[-96.3474395,33.686667],[-96.3597507,33.695928],[-96.3610966,33.7110354],[-96.4095774,33.753641],[-96.4224202,33.7764941],[-96.4655356,33.7822884],[-96.5015462,33.7744761],[-96.5287879,33.8226702],[-96.5730602,33.8192843],[-96.6285036,33.844892],[-96.6266731,33.8551167],[-96.5894498,33.8812274],[-96.5891721,33.8951159],[-96.6277842,33.8942826],[-96.6680634,33.9162263],[-96.6983418,33.8398391],[-96.7619547,33.8245616],[-96.7708439,33.830117],[-96.7819555,33.8617829],[-96.7958447,33.869005],[-96.8322348,33.8745602],[-96.850013,33.8470609],[-96.872236,33.8576161],[-96.89557,33.8970596],[-96.9027926,33.9431695],[-96.9169596,33.9581692],[-96.9727947,33.9353918],[-96.9808505,33.9562246],[-96.9958509,33.9428916],[-96.9838288,33.8952496],[-97.0183757,33.8501399],[-97.0406487,33.8380924],[-97.0626214,33.8600476],[-97.0886281,33.8529555],[-97.0902159,33.8418708],[-97.0542529,33.8343138],[-97.0481589,33.8200536],[-97.0940783,33.8040079],[-97.087169,33.7433639],[-97.1077683,33.7214859],[-97.1343329,33.7187017],[-97.1646333,33.7304091],[-97.189095,33.7572445],[-97.1877218,33.7803619],[-97.2030245,33.7950845],[-97.2020555,33.823298],[-97.1745897,33.8312124],[-97.1652341,33.8487499],[-97.1758312,33.869976],[-97.1743107,33.8912777],[-97.2053814,33.9155875],[-97.233491,33.916834],[-97.2489619,33.9072712],[-97.2464782,33.877548],[-97.25,33.87395059865858],[-97.25,31]]]}}]}