{"type":"FeatureCollection","features":[{"type":"Feature","properties":{"id":"tx-sw"},"geometry":{"type":"Polygon","coordinates":[[[-105.55719,30.98968],[-105.53262,30.98468],[-105.51578,30.96491],[-105.50208,30.96781],[-105.49395,30.95632],[-105.49886,30.95033],[-105.46692,30.92437],[-105.45161,30.92481],[-105.45321,30.91618],[-105.44687,30.91957],[-105.44144,30.90858],[-105.41373,30.89951],[-105.4121856,30.8885807],[-105.40004,30.88931],[-105.40425,30.87955],[-105.39134,30.87382],[-105.3998555,30.8520076],[-105.361634,30.8505897],[-105.35231,30.83596],[-105.33913,30.84035],[-105.32744,30.82736],[-105.31861,30.82829],[-105.31667,30.81085],[-105.3095,30.81704],[-105.30628,30.80978],[-105.30006,30.82484],[-105.29187,30.8262],[-105.2575529,30.7941023],[-105.2150083,30.805926],[-105.2095353,30.7973401],[-105.2199684,30.7889089],[-105.21641,30.7834],[-105.1949997,30.7922383],[-105.17652,30.7679],[-105.16704,30.77665],[-105.15627,30.76983],[-105.16146,30.75216],[-105.11843,30.74992],[-105.10548,30.72363],[-105.08748,30.71547],[-105.08089,30.69989],[-105.06256,30.69858],[-105.06175,30.68587],[-105.04604,30.6799],[-105.04726,30.68795],[-105.04091,30.68901],[-105.02723,30.67891],[-105.00659,30.68609],[-105.00149,30.67269],[-104.98607,30.6628],[-104.98389,30.63486],[-104.97174,30.61017],[-104.93116,30.59903],[-104.92263,30.60366],[-104.91878,30.58555],[-104.90957,30.58518],[-104.89887,30.57053],[-104.89839,30.55399],[-104.88299,30.53043],[-104.8857,30.51828],[-104.87208,30.51136],[-104.87397,30.49532],[-104.8665626,30.4942983],[-104.86812,30.44145],[-104.8583,30.43746],[-104.86132,30.42611],[-104.84778,30.41977],[-104.85948,30.39031],[-104.83745,30.37373],[-104.81661,30.37544],[-104.81967,30.36856],[-104.81091,30.36292],[-104.82263,30.35076],[-104.81161,30.33284],[-104.79133,30.32548],[-104.77689,30.31041],[-104.77936,30.30333],[-104.76662,30.30592],[-104.76032,30.29609],[-104.76316,30.27482],[-104.74863,30.27437],[-104.75044,30.26188],[-104.7368,30.25576],[-104.73375,30.26151],[-104.70629,30.23491],[-104.71127,30.22306],[-104.6871195,30.1792646],[-104.68533,30.14477],[-104.69671,30.13433],[-104.69505,30.11777],[-104.68552,30.11031],[-104.69435,30.10196],[-104.68496,30.09838],[-104.68665,30.07629],[-104.70365,30.06435],[-104.70738,30.0499],[-104.6957,30.03768],[-104.70368,30.02293],[-104.68968,30.01508],[-104.69314,29.99301],[-104.68584,29.98699],[-104.69316,29.97549],[-104.68008,29.97688],[-104.68535,29.95673],[-104.67324,29.95493],[-104.68257,29.93949],[-104.67997,29.92078],[-104.66529,29.9014],[-104.65519,29.90563],[-104.65837,29.8909],[-104.65174,29.89239],[-104.63335,29.87064],[-104.6294,29.85239],[-104.62156,29.8495],[-104.62472,29.84271],[-104.61065,29.84229],[-104.61983,29.83045],[-104.60859,29.82798],[-104.61005,29.8192],[-104.59496,29.80533],[-104.59108,29.80959],[-104.59092,29.79804],[-104.5659,29.77136],[-104.57004,29.75279],[-104.55143,29.74136],[-104.56057,29.73532],[-104.54932,29.73051],[-104.54588,29.69942],[-104.53016,29.69008],[-104.5441711,29.6807941],[-104.5357,29.66662],[-104.52538,29.66787],[-104.50828,29.63249],[-104.49805,29.63966],[-104.47617,29.62811],[-104.47328,29.61783],[-104.46541,29.61828],[-104.46662,29.60926],[-104.39852,29.57167],[-104.39396,29.55444],[-104.38035,29.54212],[-104.37015,29.54299],[-104.33746,29.5197],[-104.32146,29.52195],[-104.31555,29.53284],[-104.31158,29.52326],[-104.26241,29.51363],[-104.23676,29.49737],[-104.23078,29.47875],[-104.21378,29.48472],[-104.20895,29.48062],[-104.2179,29.45685],[-104.18113,29.42671],[-104.18398,29.4168],[-104.1694167,29.4078403],[-104.1673,29.39463],[-104.14333,29.38824],[-104.14097,29.37769],[-104.13484,29.38424],[-104.1226418,29.3797223],[-104.12141,29.37142],[-104.10664,29.37339],[-104.08207,29.34589],[-104.0564319,29.3378336],[-104.03771,29.3198],[-103.97533,29.2962],[-103.92581,29.29443],[-103.91776,29.28446],[-103.8549531,29.2815574],[-103.8261,29.26918],[-103.81368,29.27409],[-103.7995362,29.2583689],[-103.7839296,29.2654528],[-103.77514,29.24782],[-103.7819178,29.2267148],[-103.76966,29.22057],[-103.76005,29.23373],[-103.75683,29.22036],[-103.74232,29.22183],[-103.74264,29.20889],[-103.71849,29.18081],[-103.70487,29.18499],[-103.69823,29.17739],[-103.65994,29.17099],[-103.65048,29.15668],[-103.6108167,29.1655383],[-103.59275,29.15022],[-103.55364,29.158],[-103.54977,29.14308],[-103.53995,29.1463],[-103.52441,29.13719],[-103.5239541,29.1211603],[-103.4999559,29.1152027],[-103.47006,29.08539],[-103.47264,29.06793],[-103.4497,29.07267],[-103.44961,29.06498],[-103.42886,29.04943],[-103.43258,29.04345],[-103.40487,29.03953],[-103.40107,29.03104],[-103.39086,29.03484],[-103.38715,29.02188],[-103.3607342,29.0182278],[-103.34424,29.04601],[-103.33043,29.04312],[-103.3272,29.03285],[-103.34192,29.02842],[-103.33897,29.02065],[-103.32629,29.01629],[-103.30756,29.02449],[-103.31607,29.01038],[-103.28638,29.00067],[-103.28628,28.97692],[-103.27939,28.97646],[-103.26724,28.9961],[-103.25047,28.98042],[-103.22775,28.99178],[-103.220459,28.9833906],[-103.17075,28.98052],[-103.16388,28.97223],[-103.11596,28.98461],[-103.11723,29.00037],[-103.0979,29.02666],[-103.10657,29.03839],[-103.10056,29.06069],[-103.0923,29.06453],[-103.08583,29.05398],[-103.07581,29.09156],[-103.0335141,29.1013324],[-103.03728,29.11416],[-103.01228,29.12586],[-103.01562,29.13422],[-102.9961,29.16038],[-102.99575,29.17927],[-102.97563,29.18632],[-102.95069,29.1736],[-102.9448263,29.1909032],[-102.91767,29.19099],[-102.9132022,29.2187963],[-102.89533,29.2085],[-102.86766,29.22344],[-102.87139,29.24152],[-102.90635,29.26],[-102.89919,29.26945],[-102.90326,29.27907],[-102.88807,29.29276],[-102.89308,29.30816],[-102.88004,29.33838],[-102.88415,29.34786],[-102.87706,29.35482],[-102.8612795,29.3512939],[-102.83943,29.35894],[-102.84494,29.37455],[-102.83416,29.37877],[-102.82601,29.39667],[-102.81275,29.39939],[-102.83344,29.41045],[-102.82692,29.41794],[-102.83086,29.44451],[-102.8196,29.45078],[-102.82562,29.45794],[-102.81445,29.48259],[-102.80085,29.48628],[-102.80856,29.5229],[-102.79229,29.53286],[-102.791,29.5433],[-102.77128,29.54828],[-102.77782,29.56074],[-102.76219,29.57989],[-102.76841,29.59519],[-102.7402,29.59825],[-102.74207,29.63309],[-102.69366,29.67672],[-102.69878,29.69719],[-102.67399,29.74463],[-102.66265,29.73623],[-102.6306,29.73413],[-102.61263,29.74829],[-102.57369,29.75478],[-102.56866,29.77146],[-102.54818,29.74465],[-102.51345,29.76545],[-102.51758,29.78358],[-102.48702,29.78664],[-102.48072,29.77598],[-102.46539,29.78344],[-102.45818,29.77474],[-102.43384,29.77683],[-102.40913,29.76448],[-102.39563,29.76939],[-102.38764,29.76124],[-102.39,29.78182],[-102.37722,29.78988],[-102.36445,29.84556],[-102.341,29.86943],[-102.3234,29.86404],[-102.32431,29.8737],[-102.31557,29.88003],[-102.28098,29.86289],[-102.26439,29.86733],[-102.2621,29.85347],[-102.25277,29.85341],[-102.24635,29.86418],[-102.2446,29.84866],[-102.22334,29.84052],[-102.20957,29.84433],[-102.19655,29.83632],[-102.18664,29.84852],[-102.17853,29.83979],[-102.1796,29.82589],[-102.16671,29.82559],[-102.14336,29.80322],[-102.11965,29.80248],[-102.1155,29.7923],[-102.08431,29.79513],[-102.0729,29.78645],[-102.04928,29.78553],[-102.03551,29.80422],[-102.01511,29.79751],[-101.99678,29.80616],[-101.98753,29.79675],[-101.97647,29.81591],[-101.95714,29.79565],[-101.93587,29.79979],[-101.92906,29.78266],[-101.91157,29.79812],[-101.87561,29.79387],[-101.85256,29.80789],[-101.82381,29.78738],[-101.81865,29.79148],[-101.82546,29.80777],[-101.81808,29.81175],[-101.80358,29.80355],[-101.814,29.7917],[-101.80476,29.78023],[-101.7884,29.77941],[-101.78518,29.7885],[-101.77557,29.78935],[-101.73427,29.77148],[-101.71972,29.77579],[-101.70992,29.76174],[-101.68956,29.77108],[-101.67683,29.76057],[-101.66168,29.77112],[-101.64504,29.75421],[-101.62659,29.77091],[-101.5747024,29.7697755],[-101.5689,29.79739],[-101.54454,29.81213],[-101.53523,29.79879],[-101.53621,29.75807],[-101.5017254,29.7645431],[-101.46187,29.78997],[-101.45288,29.78519],[-101.4559878,29.7712988],[-101.4475417,29.7499133],[-101.40112,29.7712],[-101.3986174,29.7609548],[-101.4161208,29.7465205],[-101.3965671,29.7351719],[-101.397007,29.7129662],[-101.3709056,29.6987857],[-101.3735532,29.6773148],[-101.3612139,29.649321],[-101.3460562,29.6629356],[-101.3038354,29.6530602],[-101.3004293,29.6379749],[-101.31256,29.60846],[-101.3074235,29.5802327],[-101.2894446,29.5720917],[-101.2774702,29.5904033],[-101.2802742,29.619206],[-101.2658249,29.6312592],[-101.2486433,29.6233522],[-101.252826,29.6015216],[-101.2413135,29.5656887],[-101.262323,29.5355752],[-101.2568045,29.5223324],[-101.176844,29.5159918],[-101.14853,29.47539],[-101.1292042,29.4790885],[-101.1152458,29.4681304],[-101.0928745,29.4719164],[-101.0598746,29.4585813],[-101.05717,29.44077],[-101.04337,29.42986],[-101.03714,29.40656],[-101.01914,29.39064],[-101.00989,29.36831],[-100.94995,29.34767],[-100.93958,29.33236],[-100.88629,29.30759],[-100.8778,29.28058],[-100.83462,29.26138],[-100.81379,29.2636],[-100.81667,29.25404],[-100.79732,29.24681],[-100.79597,29.22892],[-100.78476,29.22745],[-100.77366,29.21086],[-100.77643,29.20036],[-100.76682,29.19528],[-100.77264,29.16835],[-100.73805,29.1493],[-100.73878,29.14033],[-100.7258,29.12811],[-100.67459,29.10038],[-100.64564,28.98809],[-100.65155,28.9436],[-100.62951,28.92243],[-100.64091,28.91485],[-100.63244,28.90348],[-100.62228,28.91005],[-100.6007,28.90132],[-100.60288,28.88684],[-100.5893,28.88678],[-100.59846,28.87431],[-100.57261,28.8482],[-100.57434,28.82819],[-100.54767,28.82645],[-100.54582,28.81272],[-100.53522,28.80522],[-100.5337,28.75928],[-100.52064,28.75721],[-100.5075396,28.7407132],[-100.51214,28.70662],[-100.5004736,28.6619539],[-100.46194,28.64109],[-100.44646,28.64185],[-100.44731,28.60938],[-100.3987,28.58531],[-100.41109,28.55007],[-100.38853,28.51528],[-100.33389,28.49929],[-100.34383,28.48649],[-100.36836,28.47636],[-100.33744,28.44251],[-100.33605,28.42998],[-100.34956,28.4032],[-100.34449,28.39014],[-100.28637,28.3119],[-100.29199,28.2763],[-100.25366,28.23719],[-100.22095,28.23291],[-100.20856,28.19092],[-100.08444,28.14484],[-100.05607,28.10355],[-100.05274,28.08453],[-100.01787,28.06498],[-100.00719,28.02007],[-99.99044,27.99351],[-99.93138,27.98062],[-99.9375,27.9414999],[-99.89336,27.89907],[-99.90423,27.87383],[-99.87729,27.84265],[-99.87626,27.79756],[-99.85088,27.79411],[-99.83587,27.76315],[-99.81334,27.77445],[-99.79796,27.73746],[-99.77072,27.73218],[-99.7105,27.65769],[-99.69916,27.65574],[-99.69031,27.66899],[-99.68659,27.66153],[-99.6671,27.65922],[-99.65808,27.64863],[-99.6661,27.63596],[-99.63912,27.6267],[-99.62398,27.63235],[-99.6245,27.64408],[-99.6162,27.63757],[-99.59602,27.63969],[-99.57729,27.61851],[-99.58354,27.60306],[-99.5548,27.6144],[-99.5137,27.56953],[-99.5281,27.49816],[-99.4932098,27.497553],[-99.47872,27.47938],[-99.49543,27.4457],[-99.48764,27.41019],[-99.49206,27.38117],[-99.50737,27.35186],[-99.50423,27.33922],[-99.53807,27.31685],[-99.52755,27.30473],[-99.49157,27.30042],[-99.48771,27.28886],[-99.49658,27.27192],[-99.49141,27.26323],[-99.46164,27.26831],[-99.44166,27.25023],[-99.44527,27.22321],[-99.43262,27.2092],[-99.4262,27.17566],[-99.44013,27.1515],[-99.43091,27.1251],[-99.44256,27.10681],[-99.42865,27.09192],[-99.4528,27.06414],[-99.44583,27.0216],[-99.43134,27.01035],[-99.40938,27.01089],[-99.38555,26.9806],[-99.3840953,26.969494],[-99.39471,26.95964],[-99.38449,26.93768],[-99.32478,26.91602],[-99.32879,26.87995],[-99.3164397,26.8644797],[-99.29527,26.86549],[-99.2680515,26.8421764],[-99.26226,26.81574],[-99.24246,26.78804],[-99.24005,26.74575],[-99.20879,26.7248],[-99.20022,26.65592],[-99.17806,26.62049],[-99.1673135,26.5600453],[-99.17104,26.54168],[-99.12805,26.52552],[-99.10438,26.49926],[-99.09169,26.47548],[-99.10291,26.44181],[-99.11368,26.43289],[-99.0845303,26.3979773],[-99.06213,26.39738],[-99.03708,26.41351],[-99.01125,26.39233],[-98.98796,26.39164],[-98.97387,26.40117],[-98.95419,26.39395],[-98.95607,26.37719],[-98.94361,26.36938],[-98.9353,26.37256],[-98.9356,26.38498],[-98.92628,26.39436],[-98.92237,26.37884],[-98.90101,26.37044],[-98.89653,26.35316],[-98.86064,26.36625],[-98.84378,26.35835],[-98.82495,26.37072],[-98.80554,26.36808],[-98.7891,26.33068],[-98.77106,26.3249],[-98.75032,26.33091],[-98.73599,26.30852],[-98.74112,26.30272],[-98.75475,26.30798],[-98.75056,26.29568],[-98.72849,26.29912],[-98.71715,26.28634],[-98.70291,26.28728],[-98.70103,26.27792],[-98.71988,26.27273],[-98.68099,26.26283],[-98.6701,26.23671],[-98.6346,26.24236],[-98.62292,26.25995],[-98.6163,26.24652],[-98.59997,26.25757],[-98.58314,26.25681],[-98.57999,26.23524],[-98.5659,26.24152],[-98.56147,26.22414],[-98.54584,26.23709],[-98.55625,26.24812],[-98.54376,26.24382],[-98.53488,26.22544],[-98.5224,26.23578],[-98.52457,26.2214],[-98.51374,26.22731],[-98.50104,26.22257],[-98.50701,26.20922],[-98.48504,26.21263],[-98.48183,26.2009],[-98.48131,26.21989],[-98.45986,26.22633],[-98.45454,26.21678],[-98.44458,26.22444],[-98.43875,26.21303],[-98.44382,26.20043],[-98.40236,26.1812],[-98.40194,26.17113],[-98.38652,26.15773],[-98.3650576,26.1584164],[-98.36736,26.1684],[-98.35972,26.17256],[-98.35149,26.15128],[-98.34669,26.16559],[-98.33591,26.16616],[-98.33799,26.14946],[-98.32685,26.14291],[-98.3353695,26.1379504],[-98.30576,26.10318],[-98.2977,26.10332],[-98.30361,26.11002],[-98.29666,26.12026],[-98.2664,26.12091],[-98.27045,26.10656],[-98.28821,26.10446],[-98.24939,26.07219],[-98.22081,26.07648],[-98.19492,26.05339],[-98.18731,26.06428],[-98.17705,26.06074],[-98.17684,26.07527],[-98.16769,26.06289],[-98.15799,26.06342],[-98.16176,26.0539],[-98.15175,26.05832],[-98.14652,26.04908],[-98.13213,26.0742],[-98.1295095,26.0627846],[-98.10477,26.06764],[-98.09293,26.05861],[-98.08042,26.07118],[-98.07006,26.05052],[-98.08019,26.04177],[-98.07655,26.03634],[-98.06185,26.04633],[-98.03884,26.04129],[-98.02766,26.06705],[-98.02075,26.05867],[-98.01178,26.06592],[-98.01202,26.05614],[-98.00346,26.06475],[-97.99189,26.05826],[-97.98003,26.06731],[-97.96548,26.05173],[-97.95125,26.0622],[-97.93326,26.05304],[-97.93354,26.06565],[-97.92691,26.05485],[-97.88715,26.0667],[-97.86898,26.05689],[-97.86161,26.07016],[-97.86075,26.05292],[-97.83912,26.05321],[-97.83456,26.04585],[-97.81879,26.05667],[-97.8122,26.04439],[-97.81121,26.05545],[-97.80111,26.06025],[-97.78872,26.04921],[-97.79735,26.03954],[-97.77745,26.02916],[-97.76923,26.03583],[-97.77652,26.04476],[-97.76768,26.04732],[-97.76143,26.02566],[-97.73498,26.03216],[-97.7194,26.03091],[-97.71974,26.02341],[-97.70939,26.02641],[-97.70726,26.03785],[-97.69152,26.0189],[-97.69345,26.03236],[-97.67507,26.02605],[-97.6626,26.03815],[-97.66799,26.01927],[-97.65159,26.01587],[-97.64627,26.02745],[-97.63903,26.02319],[-97.6381,26.01341],[-97.64924,26.01053],[-97.63505,26],[-97.6268,26.00606],[-97.62744,25.99666],[-97.61865,26.00272],[-97.62003,25.99266],[-97.63112,25.99649],[-97.63455,25.99034],[-97.60781,25.97674],[-97.61056,25.96598],[-97.60194,25.95719],[-97.58215,25.96244],[-97.57803,25.94213],[-97.57454,25.95398],[-97.5679,25.95244],[-97.5663,25.94495],[-97.58297,25.93302],[-97.56716,25.93382],[-97.56159,25.9257],[-97.55212,25.93714],[-97.54374,25.92343],[-97.53718,25.93072],[-97.5430478,25.91996],[-97.5301,25.91993],[-97.53328,25.90821],[-97.52105,25.88614],[-97.49815,25.89911],[-97.49667,25.87968],[-97.46879,25.88885],[-97.47027,25.87535],[-97.45537,25.88397],[-97.4566,25.86833],[-97.44461,25.86745],[-97.45412,25.85427],[-97.44524,25.85638],[-97.444,25.8485],[-97.42578,25.84074],[-97.4125,25.84122],[-97.4086,25.86215],[-97.40861,25.84596],[-97.3986761,25.8504846],[-97.40561,25.83764],[-97.37311,25.83983],[-97.36399,25.84997],[-97.37662,25.85456],[-97.35661,25.86733],[-97.35935,25.87979],[-97.3743,25.87899],[-97.35641,25.88805],[-97.36656,25.89082],[-97.36594,25.90245],[-97.37497,25.90648],[-97.3689678,25.9152449],[-97.3545,25.91985],[-97.34792,25.93134],[-97.3260241,25.9175712],[-97.31801,25.93134],[-97.3049,25.92801],[-97.30302,25.9373],[-97.27666,25.93523],[-97.27823,25.94729],[-97.28966,25.95431],[-97.28456,25.95926],[-97.25,25.948998409638556],[-97.25,31],[-105.56391276672738,31],[-105.55719,30.98968]]]}}]}