{"type":"FeatureCollection","features":[{"type":"Feature","properties":{"id":"tx-se"},"geometry":{"type":"Polygon","coordinates":[[[-97.5,25.898062205240173],[-97.49815,25.89911],[-97.49667,25.87968],[-97.46879,25.88885],[-97.47027,25.87535],[-97.45537,25.88397],[-97.4566,25.86833],[-97.44461,25.86745],[-97.45412,25.85427],[-97.44524,25.85638],[-97.444,25.8485],[-97.42578,25.84074],[-97.4125,25.84122],[-97.4086,25.86215],[-97.40861,25.84596],[-97.3986761,25.8504846],[-97.40561,25.83764],[-97.37311,25.83983],[-97.36399,25.84997],[-97.37662,25.85456],[-97.35661,25.86733],[-97.35935,25.87979],[-97.3743,25.87899],[-97.35641,25.88805],[-97.36656,25.89082],[-97.36594,25.90245],[-97.37497,25.90648],[-97.3689678,25.9152449],[-97.3545,25.91985],[-97.34792,25.93134],[-97.3260241,25.9175712],[-97.31801,25.93134],[-97.3049,25.92801],[-97.30302,25.9373],[-97.27666,25.93523],[-97.27823,25.94729],[-97.28966,25.95431],[-97.28456,25.95926],[-97.24721,25.94817],[-97.20882,25.96398],[-97.18784,25.95398],[-97.17537,25.96593],[-97.158205,25.9617067],[-97.15713,25.94902],[-97.1474408,25.956321],[-96.9792906,25.9708711],[-96.9872584,26.0789889],[-97.0319458,26.3403613],[-97.081037,26.515419],[-97.171062,26.775824],[-97.195511,26.8755459],[-97.2087701,26.9703986],[-97.210264,27.0753515],[-97.1894349,27.2227602],[-97.1331245,27.3872773],[-97.0382595,27.5738534],[-96.9730655,27.6728946],[-96.8987072,27.7660089],[-96.8740835,27.8111747],[-96.7698756,27.9217432],[-96.647601,28.0239533],[-96.4952592,28.1239896],[-96.315425,28.2084975],[-96.2694913,28.2492297],[-96.241562,28.2922343],[-96.1933036,28.3260518],[-96.0180413,28.4155821],[-95.7373723,28.5296539],[-95.1970684,28.8125653],[-95.1330948,28.8709299],[-95.0049747,28.9573771],[-94.9691705,28.9973401],[-94.6467335,29.1971472],[-94.6133155,29.2386985],[-94.5920767,29.2947869],[-94.5770952,29.3047827],[-94.4088798,29.3778008],[-94.0064077,29.5270678],[-93.9821531,29.5316267],[-93.856639,29.5231263],[-93.7950654,29.5354517],[-93.8366978,29.6877644],[-93.8704129,29.7357394],[-93.8912408,29.7455896],[-93.8909471,29.7641362],[-93.9252251,29.7879391],[-93.9280671,29.8053631],[-93.9059038,29.8384398],[-93.8394368,29.8827212],[-93.81807,29.9181136],[-93.8029379,29.9754387],[-93.7411352,30.0228111],[-93.7185146,30.0658809],[-93.7104411,30.0552326],[-93.7000024,30.0581003],[-93.7019981,30.066499],[-93.7339858,30.0870304],[-93.7241195,30.0827174],[-93.7232311,30.0956684],[-93.7027294,30.1125976],[-93.7078017,30.1208139],[-93.7005925,30.1236374],[-93.7014092,30.1374477],[-93.6884273,30.1411219],[-93.6975809,30.1529259],[-93.7095024,30.1468135],[-93.7000193,30.1748153],[-93.7109885,30.1798613],[-93.7176831,30.1934595],[-93.7141021,30.2085663],[-93.7211311,30.2094228],[-93.7110243,30.2352637],[-93.7044234,30.233816],[-93.7094474,30.2385262],[-93.7031008,30.2385081],[-93.7105725,30.2455058],[-93.7026262,30.2605353],[-93.7088468,30.2653745],[-93.7048638,30.290978],[-93.7125975,30.2874261],[-93.7119545,30.2920276],[-93.715011,30.2958076],[-93.7427258,30.3011947],[-93.7553384,30.3313898],[-93.7660903,30.3327019],[-93.7584501,30.3388114],[-93.7663364,30.3437984],[-93.7596785,30.3415868],[-93.76279,30.3533383],[-93.7508716,30.3595709],[-93.7573117,30.3643539],[-93.7597453,30.3694629],[-93.7552813,30.3655362],[-93.7583872,30.3900309],[-93.7222556,30.4198563],[-93.725562,30.4313796],[-93.7185561,30.4223933],[-93.7126886,30.4333832],[-93.7025073,30.4297303],[-93.6972928,30.4423979],[-93.7077234,30.4449239],[-93.7025954,30.4493385],[-93.7074026,30.456545],[-93.6990192,30.4582376],[-93.717182,30.4836397],[-93.7095187,30.4831387],[-93.7167964,30.495976],[-93.7050334,30.5116301],[-93.7400002,30.5399721],[-93.7284295,30.5453018],[-93.7281042,30.5739126],[-93.7154973,30.5784486],[-93.7136666,30.5884778],[-93.6935565,30.5945443],[-93.6862808,30.5855516],[-93.6787799,30.5937103],[-93.6889634,30.610894],[-93.6812552,30.6201592],[-93.6826895,30.6422415],[-93.6547592,30.6708481],[-93.649278,30.6672338],[-93.6308652,30.6780585],[-93.6208256,30.6923818],[-93.6180448,30.7287288],[-93.6086323,30.7305398],[-93.6191417,30.7412025],[-93.6087814,30.7452725],[-93.6125968,30.7542353],[-93.5915507,30.7644257],[-93.5921827,30.7762203],[-93.582649,30.7779386],[-93.5887426,30.784249],[-93.5813494,30.7901346],[-93.5846779,30.8014734],[-93.5629502,30.8060752],[-93.5638185,30.8185931],[-93.555337,30.8219563],[-93.5525939,30.8352206],[-93.568837,30.8434613],[-93.5573938,30.8521842],[-93.5585853,30.866951],[-93.5746507,30.8847997],[-93.5681134,30.8938469],[-93.549226,30.8966522],[-93.5588738,30.9131059],[-93.5474667,30.9264758],[-93.5434748,30.920121],[-93.532129,30.9243416],[-93.5259792,30.9376537],[-93.5313719,30.9581574],[-93.5733648,30.9707276],[-93.5637317,30.9890184],[-93.5778272,30.9997156],[-93.5669728,31.0133324],[-93.5555921,31.0037191],[-93.5404023,31.0078363],[-93.5340258,31.0189045],[-93.5078217,31.0306396],[-93.5245638,31.0377231],[-93.5189283,31.0430871],[-93.5322724,31.0545442],[-93.5193255,31.0644434],[-93.527374,31.0738495],[-93.552235,31.0786409],[-93.5485241,31.0900328],[-93.557908,31.0954898],[-93.5392716,31.1146586],[-93.5488662,31.1504686],[-93.5364405,31.1584039],[-93.5432206,31.1706098],[-93.5327411,31.1745304],[-93.5325451,31.183541],[-93.5503446,31.1866168],[-93.589255,31.1660646],[-93.6005759,31.1768713],[-93.6072278,31.204864],[-93.5964158,31.2297382],[-93.618021,31.2326008],[-93.6216366,31.2492316],[-93.62107926813191,31.25],[-97.5,31.25],[-97.5,25.898062205240173]]]}}]}