{"type":"FeatureCollection","features":[{"type":"Feature","properties":{"id":"tx"},"geometry":{"type":"Polygon","coordinates":[[[-106.6458459,31.8952738],[-106.6294184,31.8834938],[-106.63575,31.8662938],[-106.6146764,31.84646],[-106.601711,31.8443327],[-106.6025213,31.8244265],[-106.5909252,31.8238908],[-106.5767551,31.8103092],[-106.546801,31.8073573],[-106.5102436,31.7614138],[-106.4903218,31.7487799],[-106.45188,31.7645002],[-106.38004,31.73114],[-106.3723,31.71245],[-106.3496,31.69674],[-106.30438,31.62385],[-106.28091,31.56233],[-106.2465,31.54174],[-106.20668,31.46626],[-106.17532,31.45541],[-106.13234,31.42491],[-106.10752,31.42226],[-106.08058,31.39864],[-106.00527,31.39264],[-105.96997,31.36587],[-105.95396,31.36489],[-105.93819,31.31831],[-105.90774,31.31249],[-105.89395,31.29063],[-105.86894,31.28864],[-105.79432,31.20236],[-105.78318,31.19803],[-105.77304,31.1668],[-105.74235,31.16485],[-105.71066,31.13703],[-105.64878,31.11587],[-105.64151,31.09811],[-105.62685,31.09834],[-105.60442,31.0837],[-105.5850975,31.0573158],[-105.5813304,31.0267375],[-105.55719,30.98968],[-105.53262,30.98468],[-105.51578,30.96491],[-105.50208,30.96781],[-105.49395,30.95632],[-105.49886,30.95033],[-105.46692,30.92437],[-105.45161,30.92481],[-105.45321,30.91618],[-105.44687,30.91957],[-105.44144,30.90858],[-105.41373,30.89951],[-105.4121856,30.8885807],[-105.40004,30.88931],[-105.40425,30.87955],[-105.39134,30.87382],[-105.3998555,30.8520076],[-105.361634,30.8505897],[-105.35231,30.83596],[-105.33913,30.84035],[-105.32744,30.82736],[-105.31861,30.82829],[-105.31667,30.81085],[-105.3095,30.81704],[-105.30628,30.80978],[-105.30006,30.82484],[-105.29187,30.8262],[-105.2575529,30.7941023],[-105.2150083,30.805926],[-105.2095353,30.7973401],[-105.2199684,30.7889089],[-105.21641,30.7834],[-105.1949997,30.7922383],[-105.17652,30.7679],[-105.16704,30.77665],[-105.15627,30.76983],[-105.16146,30.75216],[-105.11843,30.74992],[-105.10548,30.72363],[-105.08748,30.71547],[-105.08089,30.69989],[-105.06256,30.69858],[-105.06175,30.68587],[-105.04604,30.6799],[-105.04726,30.68795],[-105.04091,30.68901],[-105.02723,30.67891],[-105.00659,30.68609],[-105.00149,30.67269],[-104.98607,30.6628],[-104.98389,30.63486],[-104.97174,30.61017],[-104.93116,30.59903],[-104.92263,30.60366],[-104.91878,30.58555],[-104.90957,30.58518],[-104.89887,30.57053],[-104.89839,30.55399],[-104.88299,30.53043],[-104.8857,30.51828],[-104.87208,30.51136],[-104.87397,30.49532],[-104.8665626,30.4942983],[-104.86812,30.44145],[-104.8583,30.43746],[-104.86132,30.42611],[-104.84778,30.41977],[-104.85948,30.39031],[-104.83745,30.37373],[-104.81661,30.37544],[-104.81967,30.36856],[-104.81091,30.36292],[-104.82263,30.35076],[-104.81161,30.33284],[-104.79133,30.32548],[-104.77689,30.31041],[-104.77936,30.30333],[-104.76662,30.30592],[-104.76032,30.29609],[-104.76316,30.27482],[-104.74863,30.27437],[-104.75044,30.26188],[-104.7368,30.25576],[-104.73375,30.26151],[-104.70629,30.23491],[-104.71127,30.22306],[-104.6871195,30.1792646],[-104.68533,30.14477],[-104.69671,30.13433],[-104.69505,30.11777],[-104.68552,30.11031],[-104.69435,30.10196],[-104.68496,30.09838],[-104.68665,30.07629],[-104.70365,30.06435],[-104.70738,30.0499],[-104.6957,30.03768],[-104.70368,30.02293],[-104.68968,30.01508],[-104.69314,29.99301],[-104.68584,29.98699],[-104.69316,29.97549],[-104.68008,29.97688],[-104.68535,29.95673],[-104.67324,29.95493],[-104.68257,29.93949],[-104.67997,29.92078],[-104.66529,29.9014],[-104.65519,29.90563],[-104.65837,29.8909],[-104.65174,29.89239],[-104.63335,29.87064],[-104.6294,29.85239],[-104.62156,29.8495],[-104.62472,29.84271],[-104.61065,29.84229],[-104.61983,29.83045],[-104.60859,29.82798],[-104.61005,29.8192],[-104.59496,29.80533],[-104.59108,29.80959],[-104.59092,29.79804],[-104.5659,29.77136],[-104.57004,29.75279],[-104.55143,29.74136],[-104.56057,29.73532],[-104.54932,29.73051],[-104.54588,29.69942],[-104.53016,29.69008],[-104.5441711,29.6807941],[-104.5357,29.66662],[-104.52538,29.66787],[-104.50828,29.63249],[-104.49805,29.63966],[-104.47617,29.62811],[-104.47328,29.61783],[-104.46541,29.61828],[-104.46662,29.60926],[-104.39852,29.57167],[-104.39396,29.55444],[-104.38035,29.54212],[-104.37015,29.54299],[-104.33746,29.5197],[-104.32146,29.52195],[-104.31555,29.53284],[-104.31158,29.52326],[-104.26241,29.51363],[-104.23676,29.49737],[-104.23078,29.47875],[-104.21378,29.48472],[-104.20895,29.48062],[-104.2179,29.45685],[-104.18113,29.42671],[-104.18398,29.4168],[-104.1694167,29.4078403],[-104.1673,29.39463],[-104.14333,29.38824],[-104.14097,29.37769],[-104.13484,29.38424],[-104.1226418,29.3797223],[-104.12141,29.37142],[-104.10664,29.37339],[-104.08207,29.34589],[-104.0564319,29.3378336],[-104.03771,29.3198],[-103.97533,29.2962],[-103.92581,29.29443],[-103.91776,29.28446],[-103.8549531,29.2815574],[-103.8261,29.26918],[-103.81368,29.27409],[-103.7995362,29.2583689],[-103.7839296,29.2654528],[-103.77514,29.24782],[-103.7819178,29.2267148],[-103.76966,29.22057],[-103.76005,29.23373],[-103.75683,29.22036],[-103.74232,29.22183],[-103.74264,29.20889],[-103.71849,29.18081],[-103.70487,29.18499],[-103.69823,29.17739],[-103.65994,29.17099],[-103.65048,29.15668],[-103.6108167,29.1655383],[-103.59275,29.15022],[-103.55364,29.158],[-103.54977,29.14308],[-103.53995,29.1463],[-103.52441,29.13719],[-103.5239541,29.1211603],[-103.4999559,29.1152027],[-103.47006,29.08539],[-103.47264,29.06793],[-103.4497,29.07267],[-103.44961,29.06498],[-103.42886,29.04943],[-103.43258,29.04345],[-103.40487,29.03953],[-103.40107,29.03104],[-103.39086,29.03484],[-103.38715,29.02188],[-103.3607342,29.0182278],[-103.34424,29.04601],[-103.33043,29.04312],[-103.3272,29.03285],[-103.34192,29.02842],[-103.33897,29.02065],[-103.32629,29.01629],[-103.30756,29.02449],[-103.31607,29.01038],[-103.28638,29.00067],[-103.28628,28.97692],[-103.27939,28.97646],[-103.26724,28.9961],[-103.25047,28.98042],[-103.22775,28.99178],[-103.220459,28.9833906],[-103.17075,28.98052],[-103.16388,28.97223],[-103.11596,28.98461],[-103.11723,29.00037],[-103.0979,29.02666],[-103.10657,29.03839],[-103.10056,29.06069],[-103.0923,29.06453],[-103.08583,29.05398],[-103.07581,29.09156],[-103.0335141,29.1013324],[-103.03728,29.11416],[-103.01228,29.12586],[-103.01562,29.13422],[-102.9961,29.16038],[-102.99575,29.17927],[-102.97563,29.18632],[-102.95069,29.1736],[-102.9448263,29.1909032],[-102.91767,29.19099],[-102.9132022,29.2187963],[-102.89533,29.2085],[-102.86766,29.22344],[-102.87139,29.24152],[-102.90635,29.26],[-102.89919,29.26945],[-102.90326,29.27907],[-102.88807,29.29276],[-102.89308,29.30816],[-102.88004,29.33838],[-102.88415,29.34786],[-102.87706,29.35482],[-102.8612795,29.3512939],[-102.83943,29.35894],[-102.84494,29.37455],[-102.83416,29.37877],[-102.82601,29.39667],[-102.81275,29.39939],[-102.83344,29.41045],[-102.82692,29.41794],[-102.83086,29.44451],[-102.8196,29.45078],[-102.82562,29.45794],[-102.81445,29.48259],[-102.80085,29.48628],[-102.80856,29.5229],[-102.79229,29.53286],[-102.791,29.5433],[-102.77128,29.54828],[-102.77782,29.56074],[-102.76219,29.57989],[-102.76841,29.59519],[-102.7402,29.59825],[-102.74207,29.63309],[-102.69366,29.67672],[-102.69878,29.69719],[-102.67399,29.74463],[-102.66265,29.73623],[-102.6306,29.73413],[-102.61263,29.74829],[-102.57369,29.75478],[-102.56866,29.77146],[-102.54818,29.74465],[-102.51345,29.76545],[-102.51758,29.78358],[-102.48702,29.78664],[-102.48072,29.77598],[-102.46539,29.78344],[-102.45818,29.77474],[-102.43384,29.77683],[-102.40913,29.76448],[-102.39563,29.76939],[-102.38764,29.76124],[-102.39,29.78182],[-102.37722,29.78988],[-102.36445,29.84556],[-102.341,29.86943],[-102.3234,29.86404],[-102.32431,29.8737],[-102.31557,29.88003],[-102.28098,29.86289],[-102.26439,29.86733],[-102.2621,29.85347],[-102.25277,29.85341],[-102.24635,29.86418],[-102.2446,29.84866],[-102.22334,29.84052],[-102.20957,29.84433],[-102.19655,29.83632],[-102.18664,29.84852],[-102.17853,29.83979],[-102.1796,29.82589],[-102.16671,29.82559],[-102.14336,29.80322],[-102.11965,29.80248],[-102.1155,29.7923],[-102.08431,29.79513],[-102.0729,29.78645],[-102.04928,29.78553],[-102.03551,29.80422],[-102.01511,29.79751],[-101.99678,29.80616],[-101.98753,29.79675],[-101.97647,29.81591],[-101.95714,29.79565],[-101.93587,29.79979],[-101.92906,29.78266],[-101.91157,29.79812],[-101.87561,29.79387],[-101.85256,29.80789],[-101.82381,29.78738],[-101.81865,29.79148],[-101.82546,29.80777],[-101.81808,29.81175],[-101.80358,29.80355],[-101.814,29.7917],[-101.80476,29.78023],[-101.7884,29.77941],[-101.78518,29.7885],[-101.77557,29.78935],[-101.73427,29.77148],[-101.71972,29.77579],[-101.70992,29.76174],[-101.68956,29.77108],[-101.67683,29.76057],[-101.66168,29.77112],[-101.64504,29.75421],[-101.62659,29.77091],[-101.5747024,29.7697755],[-101.5689,29.79739],[-101.54454,29.81213],[-101.53523,29.79879],[-101.53621,29.75807],[-101.5017254,29.7645431],[-101.46187,29.78997],[-101.45288,29.78519],[-101.4559878,29.7712988],[-101.4475417,29.7499133],[-101.40112,29.7712],[-101.3986174,29.7609548],[-101.4161208,29.7465205],[-101.3965671,29.7351719],[-101.397007,29.7129662],[-101.3709056,29.6987857],[-101.3735532,29.6773148],[-101.3612139,29.649321],[-101.3460562,29.6629356],[-101.3038354,29.6530602],[-101.3004293,29.6379749],[-101.31256,29.60846],[-101.3074235,29.5802327],[-101.2894446,29.5720917],[-101.2774702,29.5904033],[-101.2802742,29.619206],[-101.2658249,29.6312592],[-101.2486433,29.6233522],[-101.252826,29.6015216],[-101.2413135,29.5656887],[-101.262323,29.5355752],[-101.2568045,29.5223324],[-101.176844,29.5159918],[-101.14853,29.47539],[-101.1292042,29.4790885],[-101.1152458,29.4681304],[-101.0928745,29.4719164],[-101.0598746,29.4585813],[-101.05717,29.44077],[-101.04337,29.42986],[-101.03714,29.40656],[-101.01914,29.39064],[-101.00989,29.36831],[-100.94995,29.34767],[-100.93958,29.33236],[-100.88629,29.30759],[-100.8778,29.28058],[-100.83462,29.26138],[-100.81379,29.2636],[-100.81667,29.25404],[-100.79732,29.24681],[-100.79597,29.22892],[-100.78476,29.22745],[-100.77366,29.21086],[-100.77643,29.20036],[-100.76682,29.19528],[-100.77264,29.16835],[-100.73805,29.1493],[-100.73878,29.14033],[-100.7258,29.12811],[-100.67459,29.10038],[-100.64564,28.98809],[-100.65155,28.9436],[-100.62951,28.92243],[-100.64091,28.91485],[-100.63244,28.90348],[-100.62228,28.91005],[-100.6007,28.90132],[-100.60288,28.88684],[-100.5893,28.88678],[-100.59846,28.87431],[-100.57261,28.8482],[-100.57434,28.82819],[-100.54767,28.82645],[-100.54582,28.81272],[-100.53522,28.80522],[-100.5337,28.75928],[-100.52064,28.75721],[-100.5075396,28.7407132],[-100.51214,28.70662],[-100.5004736,28.6619539],[-100.46194,28.64109],[-100.44646,28.64185],[-100.44731,28.60938],[-100.3987,28.58531],[-100.41109,28.55007],[-100.38853,28.51528],[-100.33389,28.49929],[-100.34383,28.48649],[-100.36836,28.47636],[-100.33744,28.44251],[-100.33605,28.42998],[-100.34956,28.4032],[-100.34449,28.39014],[-100.28637,28.3119],[-100.29199,28.2763],[-100.25366,28.23719],[-100.22095,28.23291],[-100.20856,28.19092],[-100.08444,28.14484],[-100.05607,28.10355],[-100.05274,28.08453],[-100.01787,28.06498],[-100.00719,28.02007],[-99.99044,27.99351],[-99.93138,27.98062],[-99.9375,27.9414999],[-99.89336,27.89907],[-99.90423,27.87383],[-99.87729,27.84265],[-99.87626,27.79756],[-99.85088,27.79411],[-99.83587,27.76315],[-99.81334,27.77445],[-99.79796,27.73746],[-99.77072,27.73218],[-99.7105,27.65769],[-99.69916,27.65574],[-99.69031,27.66899],[-99.68659,27.66153],[-99.6671,27.65922],[-99.65808,27.64863],[-99.6661,27.63596],[-99.63912,27.6267],[-99.62398,27.63235],[-99.6245,27.64408],[-99.6162,27.63757],[-99.59602,27.63969],[-99.57729,27.61851],[-99.58354,27.60306],[-99.5548,27.6144],[-99.5137,27.56953],[-99.5281,27.49816],[-99.4932098,27.497553],[-99.47872,27.47938],[-99.49543,27.4457],[-99.48764,27.41019],[-99.49206,27.38117],[-99.50737,27.35186],[-99.50423,27.33922],[-99.53807,27.31685],[-99.52755,27.30473],[-99.49157,27.30042],[-99.48771,27.28886],[-99.49658,27.27192],[-99.49141,27.26323],[-99.46164,27.26831],[-99.44166,27.25023],[-99.44527,27.22321],[-99.43262,27.2092],[-99.4262,27.17566],[-99.44013,27.1515],[-99.43091,27.1251],[-99.44256,27.10681],[-99.42865,27.09192],[-99.4528,27.06414],[-99.44583,27.0216],[-99.43134,27.01035],[-99.40938,27.01089],[-99.38555,26.9806],[-99.3840953,26.969494],[-99.39471,26.95964],[-99.38449,26.93768],[-99.32478,26.91602],[-99.32879,26.87995],[-99.3164397,26.8644797],[-99.29527,26.86549],[-99.2680515,26.8421764],[-99.26226,26.81574],[-99.24246,26.78804],[-99.24005,26.74575],[-99.20879,26.7248],[-99.20022,26.65592],[-99.17806,26.62049],[-99.1673135,26.5600453],[-99.17104,26.54168],[-99.12805,26.52552],[-99.10438,26.49926],[-99.09169,26.47548],[-99.10291,26.44181],[-99.11368,26.43289],[-99.0845303,26.3979773],[-99.06213,26.39738],[-99.03708,26.41351],[-99.01125,26.39233],[-98.98796,26.39164],[-98.97387,26.40117],[-98.95419,26.39395],[-98.95607,26.37719],[-98.94361,26.36938],[-98.9353,26.37256],[-98.9356,26.38498],[-98.92628,26.39436],[-98.92237,26.37884],[-98.90101,26.37044],[-98.89653,26.35316],[-98.86064,26.36625],[-98.84378,26.35835],[-98.82495,26.37072],[-98.80554,26.36808],[-98.7891,26.33068],[-98.77106,26.3249],[-98.75032,26.33091],[-98.73599,26.30852],[-98.74112,26.30272],[-98.75475,26.30798],[-98.75056,26.29568],[-98.72849,26.29912],[-98.71715,26.28634],[-98.70291,26.28728],[-98.70103,26.27792],[-98.71988,26.27273],[-98.68099,26.26283],[-98.6701,26.23671],[-98.6346,26.24236],[-98.62292,26.25995],[-98.6163,26.24652],[-98.59997,26.25757],[-98.58314,26.25681],[-98.57999,26.23524],[-98.5659,26.24152],[-98.56147,26.22414],[-98.54584,26.23709],[-98.55625,26.24812],[-98.54376,26.24382],[-98.53488,26.22544],[-98.5224,26.23578],[-98.52457,26.2214],[-98.51374,26.22731],[-98.50104,26.22257],[-98.50701,26.20922],[-98.48504,26.21263],[-98.48183,26.2009],[-98.48131,26.21989],[-98.45986,26.22633],[-98.45454,26.21678],[-98.44458,26.22444],[-98.43875,26.21303],[-98.44382,26.20043],[-98.40236,26.1812],[-98.40194,26.17113],[-98.38652,26.15773],[-98.3650576,26.1584164],[-98.36736,26.1684],[-98.35972,26.17256],[-98.35149,26.15128],[-98.34669,26.16559],[-98.33591,26.16616],[-98.33799,26.14946],[-98.32685,26.14291],[-98.3353695,26.1379504],[-98.30576,26.10318],[-98.2977,26.10332],[-98.30361,26.11002],[-98.29666,26.12026],[-98.2664,26.12091],[-98.27045,26.10656],[-98.28821,26.10446],[-98.24939,26.07219],[-98.22081,26.07648],[-98.19492,26.05339],[-98.18731,26.06428],[-98.17705,26.06074],[-98.17684,26.07527],[-98.16769,26.06289],[-98.15799,26.06342],[-98.16176,26.0539],[-98.15175,26.05832],[-98.14652,26.04908],[-98.13213,26.0742],[-98.1295095,26.0627846],[-98.10477,26.06764],[-98.09293,26.05861],[-98.08042,26.07118],[-98.07006,26.05052],[-98.08019,26.04177],[-98.07655,26.03634],[-98.06185,26.04633],[-98.03884,26.04129],[-98.02766,26.06705],[-98.02075,26.05867],[-98.01178,26.06592],[-98.01202,26.05614],[-98.00346,26.06475],[-97.99189,26.05826],[-97.98003,26.06731],[-97.96548,26.05173],[-97.95125,26.0622],[-97.93326,26.05304],[-97.93354,26.06565],[-97.92691,26.05485],[-97.88715,26.0667],[-97.86898,26.05689],[-97.86161,26.07016],[-97.86075,26.05292],[-97.83912,26.05321],[-97.83456,26.04585],[-97.81879,26.05667],[-97.8122,26.04439],[-97.81121,26.05545],[-97.80111,26.06025],[-97.78872,26.04921],[-97.79735,26.03954],[-97.77745,26.02916],[-97.76923,26.03583],[-97.77652,26.04476],[-97.76768,26.04732],[-97.76143,26.02566],[-97.73498,26.03216],[-97.7194,26.03091],[-97.71974,26.02341],[-97.70939,26.02641],[-97.70726,26.03785],[-97.69152,26.0189],[-97.69345,26.03236],[-97.67507,26.02605],[-97.6626,26.03815],[-97.66799,26.01927],[-97.65159,26.01587],[-97.64627,26.02745],[-97.63903,26.02319],[-97.6381,26.01341],[-97.64924,26.01053],[-97.63505,26],[-97.6268,26.00606],[-97.62744,25.99666],[-97.61865,26.00272],[-97.62003,25.99266],[-97.63112,25.99649],[-97.63455,25.99034],[-97.60781,25.97674],[-97.61056,25.96598],[-97.60194,25.95719],[-97.58215,25.96244],[-97.57803,25.94213],[-97.57454,25.95398],[-97.5679,25.95244],[-97.5663,25.94495],[-97.58297,25.93302],[-97.56716,25.93382],[-97.56159,25.9257],[-97.55212,25.93714],[-97.54374,25.92343],[-97.53718,25.93072],[-97.5430478,25.91996],[-97.5301,25.91993],[-97.53328,25.90821],[-97.52105,25.88614],[-97.49815,25.89911],[-97.49667,25.87968],[-97.46879,25.88885],[-97.47027,25.87535],[-97.45537,25.88397],[-97.4566,25.86833],[-97.44461,25.86745],[-97.45412,25.85427],[-97.44524,25.85638],[-97.444,25.8485],[-97.42578,25.84074],[-97.4125,25.84122],[-97.4086,25.86215],[-97.40861,25.84596],[-97.3986761,25.8504846],[-97.40561,25.83764],[-97.37311,25.83983],[-97.36399,25.84997],[-97.37662,25.85456],[-97.35661,25.86733],[-97.35935,25.87979],[-97.3743,25.87899],[-97.35641,25.88805],[-97.36656,25.89082],[-97.36594,25.90245],[-97.37497,25.90648],[-97.3689678,25.9152449],[-97.3545,25.91985],[-97.34792,25.93134],[-97.3260241,25.9175712],[-97.31801,25.93134],[-97.3049,25.92801],[-97.30302,25.9373],[-97.27666,25.93523],[-97.27823,25.94729],[-97.28966,25.95431],[-97.28456,25.95926],[-97.24721,25.94817],[-97.20882,25.96398],[-97.18784,25.95398],[-97.17537,25.96593],[-97.158205,25.9617067],[-97.15713,25.94902],[-97.1474408,25.956321],[-96.9792906,25.9708711],[-96.9872584,26.0789889],[-97.0319458,26.3403613],[-97.081037,26.515419],[-97.171062,26.775824],[-97.195511,26.8755459],[-97.2087701,26.9703986],[-97.210264,27.0753515],[-97.1894349,27.2227602],[-97.1331245,27.3872773],[-97.0382595,27.5738534],[-96.9730655,27.6728946],[-96.8987072,27.7660089],[-96.8740835,27.8111747],[-96.7698756,27.9217432],[-96.647601,28.0239533],[-96.4952592,28.1239896],[-96.315425,28.2084975],[-96.2694913,28.2492297],[-96.241562,28.2922343],[-96.1933036,28.3260518],[-96.0180413,28.4155821],[-95.7373723,28.5296539],[-95.1970684,28.8125653],[-95.1330948,28.8709299],[-95.0049747,28.9573771],[-94.9691705,28.9973401],[-94.6467335,29.1971472],[-94.6133155,29.2386985],[-94.5920767,29.2947869],[-94.5770952,29.3047827],[-94.4088798,29.3778008],[-94.0064077,29.5270678],[-93.9821531,29.5316267],[-93.856639,29.5231263],[-93.7950654,29.5354517],[-93.8366978,29.6877644],[-93.8704129,29.7357394],[-93.8912408,29.7455896],[-93.8909471,29.7641362],[-93.9252251,29.7879391],[-93.9280671,29.8053631],[-93.9059038,29.8384398],[-93.8394368,29.8827212],[-93.81807,29.9181136],[-93.8029379,29.9754387],[-93.7411352,30.0228111],[-93.7185146,30.0658809],[-93.7104411,30.0552326],[-93.7000024,30.0581003],[-93.7019981,30.066499],[-93.7339858,30.0870304],[-93.7241195,30.0827174],[-93.7232311,30.0956684],[-93.7027294,30.1125976],[-93.7078017,30.1208139],[-93.7005925,30.1236374],[-93.7014092,30.1374477],[-93.6884273,30.1411219],[-93.6975809,30.1529259],[-93.7095024,30.1468135],[-93.7000193,30.1748153],[-93.7109885,30.1798613],[-93.7176831,30.1934595],[-93.7141021,30.2085663],[-93.7211311,30.2094228],[-93.7110243,30.2352637],[-93.7044234,30.233816],[-93.7094474,30.2385262],[-93.7031008,30.2385081],[-93.7105725,30.2455058],[-93.7026262,30.2605353],[-93.7088468,30.2653745],[-93.7048638,30.290978],[-93.7125975,30.2874261],[-93.7119545,30.2920276],[-93.715011,30.2958076],[-93.7427258,30.3011947],[-93.7553384,30.3313898],[-93.7660903,30.3327019],[-93.7584501,30.3388114],[-93.7663364,30.3437984],[-93.7596785,30.3415868],[-93.76279,30.3533383],[-93.7508716,30.3595709],[-93.7573117,30.3643539],[-93.7597453,30.3694629],[-93.7552813,30.3655362],[-93.7583872,30.3900309],[-93.7222556,30.4198563],[-93.725562,30.4313796],[-93.7185561,30.4223933],[-93.7126886,30.4333832],[-93.7025073,30.4297303],[-93.6972928,30.4423979],[-93.7077234,30.4449239],[-93.7025954,30.4493385],[-93.7074026,30.456545],[-93.6990192,30.4582376],[-93.717182,30.4836397],[-93.7095187,30.4831387],[-93.7167964,30.495976],[-93.7050334,30.5116301],[-93.7400002,30.5399721],[-93.7284295,30.5453018],[-93.7281042,30.5739126],[-93.7154973,30.5784486],[-93.7136666,30.5884778],[-93.6935565,30.5945443],[-93.6862808,30.5855516],[-93.6787799,30.5937103],[-93.6889634,30.610894],[-93.6812552,30.6201592],[-93.6826895,30.6422415],[-93.6547592,30.6708481],[-93.649278,30.6672338],[-93.6308652,30.6780585],[-93.6208256,30.6923818],[-93.6180448,30.7287288],[-93.6086323,30.7305398],[-93.6191417,30.7412025],[-93.6087814,30.7452725],[-93.6125968,30.7542353],[-93.5915507,30.7644257],[-93.5921827,30.7762203],[-93.582649,30.7779386],[-93.5887426,30.784249],[-93.5813494,30.7901346],[-93.5846779,30.8014734],[-93.5629502,30.8060752],[-93.5638185,30.8185931],[-93.555337,30.8219563],[-93.5525939,30.8352206],[-93.568837,30.8434613],[-93.5573938,30.8521842],[-93.5585853,30.866951],[-93.5746507,30.8847997],[-93.5681134,30.8938469],[-93.549226,30.8966522],[-93.5588738,30.9131059],[-93.5474667,30.9264758],[-93.5434748,30.920121],[-93.532129,30.9243416],[-93.5259792,30.9376537],[-93.5313719,30.9581574],[-93.5733648,30.9707276],[-93.5637317,30.9890184],[-93.5778272,30.9997156],[-93.5669728,31.0133324],[-93.5555921,31.0037191],[-93.5404023,31.0078363],[-93.5340258,31.0189045],[-93.5078217,31.0306396],[-93.5245638,31.0377231],[-93.5189283,31.0430871],[-93.5322724,31.0545442],[-93.5193255,31.0644434],[-93.527374,31.0738495],[-93.552235,31.0786409],[-93.5485241,31.0900328],[-93.557908,31.0954898],[-93.5392716,31.1146586],[-93.5488662,31.1504686],[-93.5364405,31.1584039],[-93.5432206,31.1706098],[-93.5327411,31.1745304],[-93.5325451,31.183541],[-93.5503446,31.1866168],[-93.589255,31.1660646],[-93.6005759,31.1768713],[-93.6072278,31.204864],[-93.5964158,31.2297382],[-93.618021,31.2326008],[-93.6216366,31.2492316],[-93.6140728,31.2596599],[-93.6206067,31.271105],[-93.6425257,31.2696102],[-93.6484909,31.2838507],[-93.659209,31.281861],[-93.6690581,31.2981256],[-93.6871087,31.305024],[-93.6739563,31.3238087],[-93.6687255,31.3526474],[-93.6455222,31.3591264],[-93.6391568,31.3720693],[-93.6710526,31.3661799],[-93.6743742,31.3977468],[-93.7048066,31.4105257],[-93.6919105,31.4388061],[-93.7095487,31.4416437],[-93.7039483,31.4555286],[-93.7233889,31.4537806],[-93.749857,31.4693474],[-93.7454045,31.4801539],[-93.7524533,31.4824962],[-93.7283778,31.4884524],[-93.7109757,31.511816],[-93.7424755,31.5154563],[-93.7475717,31.5306105],[-93.7595558,31.5240168],[-93.7873221,31.5273183],[-93.818346,31.5546157],[-93.8182855,31.5710494],[-93.8347487,31.5861187],[-93.838917,31.6052482],[-93.8277658,31.6169074],[-93.819015,31.6149518],[-93.8268397,31.6207109],[-93.8162255,31.6224709],[-93.8182104,31.6474449],[-93.811455,31.6475317],[-93.826462,31.666919],[-93.8217737,31.6738569],[-93.8124199,31.670111],[-93.8163385,31.6752745],[-93.7944536,31.7036687],[-93.8167925,31.7077744],[-93.8151956,31.7294447],[-93.8367491,31.7488375],[-93.8227061,31.7740467],[-93.8373223,31.7801818],[-93.8395108,31.8002178],[-93.8511178,31.7998635],[-93.8736608,31.8153235],[-93.8734263,31.8365194],[-93.8898963,31.8565295],[-93.8825365,31.8686333],[-93.9018485,31.87441],[-93.9004628,31.8965708],[-93.9240858,31.8866343],[-93.9246788,31.8942548],[-93.9326958,31.8928119],[-93.921869,31.903731],[-93.9279705,31.9122045],[-93.9533871,31.9105378],[-93.9606398,31.9236061],[-93.9740294,31.9222219],[-94.0162436,31.9800508],[-94.017847,31.9923456],[-94.0422605,31.993621],[-94.0433167,33.5521745],[-94.0633121,33.5670738],[-94.0659461,33.5805826],[-94.0936103,33.5707926],[-94.1270843,33.5720799],[-94.1549793,33.557633],[-94.1512725,33.5803252],[-94.1587704,33.591931],[-94.1811783,33.5826789],[-94.2105976,33.5856627],[-94.2160907,33.5836607],[-94.2146316,33.5609946],[-94.2366901,33.5529837],[-94.2542854,33.5617098],[-94.234201,33.5782977],[-94.2357513,33.5900422],[-94.2426982,33.5914542],[-94.2621818,33.581301],[-94.278318,33.5561309],[-94.291965,33.5609946],[-94.271105,33.5779594],[-94.2965999,33.581158],[-94.3044963,33.5785122],[-94.303123,33.5593495],[-94.3109336,33.5497648],[-94.329988,33.5523399],[-94.3358245,33.5744398],[-94.3595138,33.5521253],[-94.3880954,33.5477619],[-94.3989959,33.5544858],[-94.3676687,33.5849526],[-94.3836332,33.5870261],[-94.3929887,33.5702217],[-94.4083524,33.5692205],[-94.4209695,33.578088],[-94.4225145,33.5933895],[-94.4430401,33.5918876],[-94.4571901,33.6370623],[-94.497788,33.6358474],[-94.5207048,33.6446366],[-94.5512832,33.6364889],[-94.5490837,33.623455],[-94.5602166,33.6192752],[-94.5730666,33.6310583],[-94.5626564,33.6413065],[-94.5426665,33.6428956],[-94.5407672,33.6551441],[-94.5489026,33.6621226],[-94.5678054,33.6602729],[-94.5780714,33.6805821],[-94.6026954,33.6614865],[-94.6055299,33.6812876],[-94.6181345,33.6878884],[-94.6411859,33.661741],[-94.6437847,33.6852899],[-94.657133,33.6938063],[-94.7021306,33.6850851],[-94.7195828,33.6937156],[-94.7361444,33.737766],[-94.7533498,33.7370063],[-94.7694918,33.7189452],[-94.7821801,33.7264208],[-94.7815826,33.7451546],[-94.7939256,33.7539304],[-94.8578019,33.7416563],[-94.8672191,33.7678032],[-94.9011922,33.7718006],[-94.9065995,33.8103909],[-94.9271989,33.8024032],[-94.9237657,33.8166664],[-94.9567247,33.8227276],[-94.94694,33.8416926],[-94.9562097,33.8582301],[-94.9768949,33.8504607],[-94.9865079,33.867923],[-95.0161195,33.8582301],[-95.0493746,33.8683043],[-95.0542358,33.8934462],[-95.0664838,33.9001448],[-95.0715736,33.9167671],[-95.1025177,33.9060397],[-95.1251684,33.9361902],[-95.1448215,33.93449],[-95.2197099,33.9632254],[-95.2512098,33.9382348],[-95.2486348,33.9118836],[-95.2570462,33.8912955],[-95.2635865,33.8886842],[-95.266316,33.9098179],[-95.2851987,33.9083932],[-95.2778953,33.8784414],[-95.289383,33.8733303],[-95.3046072,33.8738825],[-95.3257966,33.890868],[-95.3381562,33.8764746],[-95.3609872,33.8675667],[-95.3800416,33.8710587],[-95.3987527,33.8629341],[-95.4228711,33.8725552],[-95.4382348,33.8652861],[-95.4628361,33.8887306],[-95.479498,33.8784432],[-95.504067,33.8762609],[-95.5087877,33.8986337],[-95.5435491,33.8806076],[-95.5512738,33.8902267],[-95.5544839,33.9281582],[-95.5929876,33.9435753],[-95.6303239,33.9056151],[-95.6621671,33.9101028],[-95.7024217,33.8855955],[-95.751431,33.895499],[-95.7632306,33.8787193],[-95.7519868,33.8616156],[-95.7555058,33.8519933],[-95.7676938,33.8470391],[-95.8004811,33.8622214],[-95.8197072,33.8594774],[-95.8186475,33.8411972],[-95.830276,33.8355268],[-95.9258368,33.8859873],[-95.935364,33.8816052],[-95.9430888,33.8623996],[-96.0136416,33.8435104],[-96.0156157,33.8619007],[-96.0223964,33.8652861],[-96.0302069,33.862756],[-96.03879,33.8403737],[-96.0668996,33.8384489],[-96.0923054,33.8576599],[-96.0902026,33.8365596],[-96.1078837,33.8389123],[-96.1187842,33.8276118],[-96.1656907,33.8090716],[-96.170111,33.7712655],[-96.1877492,33.7569591],[-96.2274459,33.7506792],[-96.2612632,33.7670559],[-96.2921193,33.7708018],[-96.3100579,33.7417224],[-96.3126815,33.706718],[-96.3474395,33.686667],[-96.3597507,33.695928],[-96.3610966,33.7110354],[-96.4095774,33.753641],[-96.4224202,33.7764941],[-96.4655356,33.7822884],[-96.5015462,33.7744761],[-96.5287879,33.8226702],[-96.5730602,33.8192843],[-96.6285036,33.844892],[-96.6266731,33.8551167],[-96.5894498,33.8812274],[-96.5891721,33.8951159],[-96.6277842,33.8942826],[-96.6680634,33.9162263],[-96.6983418,33.8398391],[-96.7619547,33.8245616],[-96.7708439,33.830117],[-96.7819555,33.8617829],[-96.7958447,33.869005],[-96.8322348,33.8745602],[-96.850013,33.8470609],[-96.872236,33.8576161],[-96.89557,33.8970596],[-96.9027926,33.9431695],[-96.9169596,33.9581692],[-96.9727947,33.9353918],[-96.9808505,33.9562246],[-96.9958509,33.9428916],[-96.9838288,33.8952496],[-97.0183757,33.8501399],[-97.0406487,33.8380924],[-97.0626214,33.8600476],[-97.0886281,33.8529555],[-97.0902159,33.8418708],[-97.0542529,33.8343138],[-97.0481589,33.8200536],[-97.0940783,33.8040079],[-97.087169,33.7433639],[-97.1077683,33.7214859],[-97.1343329,33.7187017],[-97.1646333,33.7304091],[-97.189095,33.7572445],[-97.1877218,33.7803619],[-97.2030245,33.7950845],[-97.2020555,33.823298],[-97.1745897,33.8312124],[-97.1652341,33.8487499],[-97.1758312,33.869976],[-97.1743107,33.8912777],[-97.2053814,33.9155875],[-97.233491,33.916834],[-97.2489619,33.9072712],[-97.2464782,33.877548],[-97.2613431,33.862364],[-97.2872639,33.8606178],[-97.2937763,33.87912],[-97.3086358,33.8875549],[-97.3049021,33.8687158],[-97.3184634,33.8633885],[-97.334106,33.8712101],[-97.3608423,33.8257936],[-97.3786199,33.8300716],[-97.4206233,33.8185829],[-97.450192,33.8275049],[-97.4598909,33.8378429],[-97.4504495,33.8746219],[-97.4572301,33.9021244],[-97.5005746,33.9199323],[-97.5293672,33.9124006],[-97.543105,33.9002667],[-97.5911727,33.9025608],[-97.5874264,33.9145463],[-97.5998585,33.9272584],[-97.5897478,33.9527272],[-97.6369369,33.9884947],[-97.6662881,33.9925335],[-97.6940579,33.9836057],[-97.7091401,33.955636],[-97.7284935,33.9390919],[-97.7598736,33.9356659],[-97.760218,33.9262092],[-97.7945474,33.9117416],[-97.8084448,33.8788375],[-97.8468922,33.8549836],[-97.8714186,33.8505959],[-97.9348221,33.8787619],[-97.9666291,33.8822793],[-97.9849742,33.9006301],[-97.9790305,33.9114149],[-97.9639138,33.9123273],[-97.9545582,33.9226505],[-97.95441,33.9322526],[-97.9745999,33.941426],[-97.9568573,33.9598019],[-97.9484242,33.9877139],[-97.9677707,33.9884054],[-97.9823082,34.0030452],[-98.0393594,33.9932687],[-98.088724,34.0056154],[-98.1077656,34.0361742],[-98.0900334,34.0458502],[-98.1084465,34.0556499],[-98.1207656,34.0750532],[-98.1189427,34.093709],[-98.1037094,34.1121917],[-98.1040247,34.1485925],[-98.1149348,34.1551314],[-98.1710572,34.1142083],[-98.2026526,34.1170283],[-98.2393198,34.1332798],[-98.2895257,34.1324338],[-98.3341781,34.151854],[-98.3705848,34.1552234],[-98.3811947,34.129845],[-98.4004712,34.1234213],[-98.3984828,34.102921],[-98.4112828,34.1002302],[-98.414426,34.085074],[-98.440092,34.084311],[-98.449034,34.073462],[-98.4652405,34.0738614],[-98.4839687,34.0621266],[-98.5561381,34.1160589],[-98.5683542,34.1345996],[-98.5976685,34.1522718],[-98.6139155,34.148905],[-98.6420917,34.1631418],[-98.6536628,34.1624862],[-98.663164,34.1469158],[-98.6990997,34.1271558],[-98.7439267,34.1178373],[-98.8503786,34.1500383],[-98.8713691,34.147997],[-98.8814757,34.15549],[-98.8960246,34.1473977],[-98.9006187,34.1717633],[-98.9142377,34.1714477],[-98.958321,34.2095885],[-98.9730527,34.2032691],[-98.9889463,34.2195504],[-99.013163,34.2031856],[-99.0219802,34.2063565],[-99.0303257,34.1957398],[-99.0820179,34.2127579],[-99.1238812,34.2019521],[-99.1368782,34.2175128],[-99.1614275,34.2083129],[-99.17475,34.2116957],[-99.1790084,34.2260355],[-99.1890828,34.2162754],[-99.1931264,34.2588372],[-99.2078414,34.260466],[-99.1959991,34.2785996],[-99.2105106,34.288762],[-99.1926945,34.2964217],[-99.203921,34.30454],[-99.1948589,34.3238164],[-99.2080074,34.3244743],[-99.2172277,34.3415377],[-99.2125164,34.3475228],[-99.2322095,34.3465401],[-99.2371718,34.3659265],[-99.2481603,34.3651132],[-99.2467728,34.3737582],[-99.2582832,34.3724501],[-99.2751682,34.3849316],[-99.2616709,34.3925827],[-99.2642938,34.401303],[-99.281486,34.4014043],[-99.2963865,34.413658],[-99.3206566,34.4075786],[-99.3210781,34.4164915],[-99.3558391,34.440935],[-99.3613665,34.45565],[-99.3775733,34.4582487],[-99.3942283,34.4415594],[-99.3907253,34.422099],[-99.397326,34.4088155],[-99.3849838,34.4064655],[-99.4031936,34.372815],[-99.4259562,34.3815796],[-99.4354687,34.3695595],[-99.4530971,34.3878196],[-99.4605488,34.3801758],[-99.4657165,34.3941513],[-99.4869723,34.3974887],[-99.5041649,34.4106329],[-99.5725981,34.4172151],[-99.5802724,34.4153158],[-99.5869307,34.3860445],[-99.6094057,34.3691838],[-99.6971971,34.378226],[-99.7128127,34.3883972],[-99.7200093,34.4053491],[-99.7593044,34.4240666],[-99.8012212,34.4575294],[-99.8341593,34.501244],[-99.9238262,34.5754892],[-99.954567,34.578195],[-99.971555,34.562179],[-100.0003928,34.5605578],[-100.0004065,36.4999432],[-103.0416536,36.5004529],[-103.043617,34.003633],[-103.064625,32.999899],[-103.064631,32.0003914],[-106.6186248,32.0007143],[-106.639738,31.9813236],[-106.61947,31.9721145],[-106.6252372,31.9545566],[-106.6143983,31.9520588],[-106.6298362,31.9266273],[-106.6129088,31.9203781],[-106.6458459,31.8952738]]]}}]}