{"type":"FeatureCollection","features":[{"type":"Feature","properties":{"id":"va"},"geometry":{"type":"Polygon","coordinates":[[[-83.6753671,36.6007706],[-83.248933,36.593827],[-81.934144,36.594213],[-81.922644,36.616213],[-81.8266795,36.6146598],[-81.6472191,36.6117066],[-81.6774572,36.588157],[-81.4418004,36.5767753],[-80.122183,36.542646],[-75.797497,36.550916],[-75.819825,36.625153],[-75.874647,36.744305],[-75.928307,36.938179],[-75.8867018,37.0556781],[-75.8347829,37.0927192],[-75.7541449,37.167903],[-75.7309449,37.2116362],[-75.7313569,37.245301],[-75.7185166,37.2717452],[-75.6471484,37.336051],[-75.6402819,37.3570466],[-75.6444104,37.3751375],[-75.6108163,37.4130514],[-75.579639,37.494637],[-75.529901,37.556717],[-75.528445,37.584876],[-75.541779,37.606145],[-75.51846,37.649426],[-75.507746,37.688654],[-75.460933,37.771356],[-75.417073,37.82105],[-75.360125,37.810186],[-75.337979,37.815232],[-75.303132,37.838169],[-75.166435,38.027834],[-75.2418015,38.0274595],[-75.624341,37.9943011],[-75.633832,37.984517],[-75.629532,37.975963],[-75.638222,37.979395],[-75.648228,37.966771],[-75.6374659,37.952269],[-75.6448221,37.9379112],[-75.6787557,37.9451745],[-75.7010477,37.9340289],[-75.7149194,37.943363],[-75.7721005,37.8932016],[-75.813907,37.912039],[-75.952672,37.906827],[-75.943693,37.946133],[-76.041467,37.95401],[-76.2366082,37.8865288],[-76.261812,37.908786],[-76.333372,37.942956],[-76.412934,37.966332],[-76.465008,38.01322],[-76.516609,38.026783],[-76.51616,38.04492],[-76.536457,38.074903],[-76.596156,38.106676],[-76.60543,38.148933],[-76.763973,38.167791],[-76.839368,38.163609],[-76.876744,38.173019],[-76.91113,38.197357],[-76.94902,38.208418],[-76.962251,38.229888],[-76.956923,38.237472],[-76.962086,38.256964],[-77.0276899,38.3046372],[-77.030662,38.311578],[-77.0146874,38.3329098],[-77.0115562,38.3744729],[-77.041807,38.4007357],[-77.0871302,38.3677046],[-77.1386274,38.367663],[-77.1598755,38.3472569],[-77.1787547,38.3413085],[-77.2409759,38.3309082],[-77.2702257,38.3340155],[-77.284642,38.3426642],[-77.2880792,38.3591274],[-77.3051407,38.3752909],[-77.3232579,38.4319005],[-77.310558,38.493993],[-77.285309,38.519695],[-77.2744634,38.549911],[-77.2563195,38.5603355],[-77.2464297,38.5932767],[-77.2004415,38.6189014],[-77.1303635,38.6348975],[-77.1363968,38.6505295],[-77.132752,38.674013],[-77.122632,38.685256],[-77.079948,38.70901],[-77.053142,38.709891],[-77.04366,38.717926],[-77.0370392,38.8122746],[-77.0463067,38.8411974],[-77.0345235,38.8400531],[-77.0309984,38.8497653],[-77.0404152,38.8709106],[-77.0590825,38.8806293],[-77.0687196,38.9003453],[-77.1028921,38.9125419],[-77.1468381,38.9644491],[-77.1997291,38.9670675],[-77.2447237,38.9827091],[-77.2559021,39.0021137],[-77.2447527,39.0184611],[-77.2482328,39.0266182],[-77.3395805,39.0627019],[-77.4577985,39.073656],[-77.4839115,39.1084259],[-77.5201074,39.120982],[-77.5273576,39.1464386],[-77.517349,39.1695122],[-77.5059139,39.1819114],[-77.4783818,39.1896972],[-77.4739601,39.2077332],[-77.4575797,39.2250853],[-77.4869326,39.2474802],[-77.543228,39.266937],[-77.5605636,39.2858479],[-77.5663675,39.3059713],[-77.6161607,39.3026494],[-77.6754872,39.324377],[-77.7306157,39.3155282],[-77.7480876,39.2940057],[-77.757596,39.2649452],[-77.7701196,39.2561709],[-77.7714439,39.2366274],[-77.7936852,39.210119],[-77.8281485,39.1322818],[-78.347087,39.466012],[-78.346546,39.442616],[-78.353227,39.436792],[-78.346718,39.427618],[-78.359918,39.409028],[-78.343214,39.388807],[-78.366867,39.35929],[-78.339284,39.348605],[-78.419422,39.257476],[-78.399669,39.243874],[-78.438651,39.198049],[-78.424905,39.193301],[-78.426315,39.182762],[-78.403697,39.167451],[-78.427294,39.152726],[-78.459869,39.113351],[-78.49516,39.100992],[-78.571901,39.031995],[-78.550467,39.018065],[-78.601655,38.964603],[-78.625672,38.982575],[-78.638423,38.966819],[-78.646589,38.968138],[-78.680456,38.925313],[-78.718647,38.904561],[-78.717076,38.936028],[-78.738921,38.927283],[-78.759085,38.900529],[-78.786025,38.887187],[-78.869615,38.7627861],[-78.998171,38.847353],[-79.006552,38.823712],[-79.019553,38.817912],[-79.027253,38.792113],[-79.054954,38.785713],[-79.051554,38.772613],[-79.072555,38.747513],[-79.092755,38.702315],[-79.084355,38.686516],[-79.092955,38.659517],[-79.129757,38.655017],[-79.170958,38.56812],[-79.205859,38.524521],[-79.210591,38.492913],[-79.2395327,38.470531],[-79.242641,38.454168],[-79.254435,38.455949],[-79.282762,38.431647],[-79.282971,38.418095],[-79.312277,38.411876],[-79.4765736,38.4571272],[-79.5373206,38.5510974],[-79.6492004,38.5915278],[-79.6700444,38.5506068],[-79.6730829,38.5288605],[-79.6621605,38.5152641],[-79.6704394,38.5079058],[-79.6804128,38.5106679],[-79.6976004,38.4873491],[-79.6898204,38.4312732],[-79.7299613,38.3810328],[-79.7257317,38.3636844],[-79.7416732,38.3532585],[-79.7645544,38.3564125],[-79.7731113,38.3356037],[-79.8101235,38.3070024],[-79.7917128,38.2847171],[-79.7891054,38.2682074],[-79.8452073,38.2410852],[-79.8973351,38.1933801],[-79.9200765,38.1825289],[-79.918668,38.1547798],[-79.9327467,38.1361592],[-79.9452569,38.1322396],[-79.9389482,38.111615],[-79.9263924,38.1065492],[-79.9543694,38.0804],[-79.9716019,38.0352327],[-79.9993839,37.9949072],[-80.1028395,37.9189362],[-80.1179288,37.8976894],[-80.161916,37.8752344],[-80.1828447,37.8509019],[-80.1795483,37.8393805],[-80.1928774,37.8347091],[-80.2276961,37.797808],[-80.2165004,37.7757489],[-80.2299276,37.7784714],[-80.2574079,37.7561302],[-80.2627161,37.7383439],[-80.2531248,37.7257846],[-80.2823285,37.6977974],[-80.306957,37.689701],[-80.2672926,37.6460507],[-80.2208626,37.6277744],[-80.258919,37.595499],[-80.328504,37.564315],[-80.312393,37.546239],[-80.330306,37.536244],[-80.309346,37.527381],[-80.282385,37.533517],[-80.309331,37.50288],[-80.366838,37.484879],[-80.36317,37.480001],[-80.371952,37.474069],[-80.475601,37.422949],[-80.494867,37.43507],[-80.492981,37.457749],[-80.511391,37.4816738],[-80.552036,37.473563],[-80.7162094,37.3885041],[-80.770082,37.372363],[-80.784188,37.394587],[-80.806129,37.398074],[-80.837678,37.425658],[-80.859556,37.429568],[-80.862761,37.411829],[-80.883248,37.383933],[-80.849451,37.346909],[-80.900535,37.315],[-80.966556,37.292158],[-80.981322,37.293465],[-80.979589,37.302279],[-81.112596,37.278497],[-81.167029,37.262881],[-81.225097,37.2348697],[-81.3652762,37.3377501],[-81.3728552,37.3200091],[-81.3941074,37.3163613],[-81.416395,37.2731707],[-81.4478996,37.2721291],[-81.4804799,37.2510316],[-81.4988991,37.2580325],[-81.5075922,37.2336605],[-81.5456024,37.2200431],[-81.554604,37.2079072],[-81.6781083,37.2014139],[-81.722845,37.2402693],[-81.7400737,37.237573],[-81.741031,37.2544201],[-81.7572951,37.2760259],[-81.7733725,37.2739018],[-81.8004291,37.2856736],[-81.8255914,37.2790105],[-81.850035,37.2853011],[-81.8543109,37.3063092],[-81.8656863,37.3090963],[-81.860304,37.315783],[-81.877876,37.3316929],[-81.8936899,37.329789],[-81.9283806,37.3602427],[-81.9366625,37.3807323],[-81.922941,37.4112584],[-81.9388621,37.4219888],[-81.9356818,37.4385575],[-81.9701199,37.4475574],[-81.9760089,37.4570938],[-81.9863378,37.4544978],[-81.9960635,37.4716161],[-81.9909687,37.4843152],[-81.9534611,37.4915084],[-81.9529634,37.5014285],[-81.9261968,37.513513],[-81.9336417,37.5196691],[-81.944278,37.5132773],[-81.944087,37.5313303],[-81.9564477,37.5286935],[-81.967705,37.5377829],[-82.324725,37.283042],[-82.343841,37.280739],[-82.349064,37.267942],[-82.498755,37.227029],[-82.592256,37.183039],[-82.633381,37.154418],[-82.721413,37.12083],[-82.725017,37.091822],[-82.716655,37.077406],[-82.726737,37.073039],[-82.722433,37.044949],[-82.742759,37.042796],[-82.747862,37.024425],[-82.759479,37.027255],[-82.782863,37.007821],[-82.82872,37.005798],[-82.837275,36.98728],[-82.867467,36.978049],[-82.870108,36.964978],[-82.855735,36.953818],[-82.8623,36.941338],[-82.857665,36.928669],[-82.877379,36.908471],[-82.867978,36.900048],[-82.8787506,36.8893576],[-82.908114,36.874642],[-82.9984689,36.8566003],[-83.0077171,36.8474443],[-83.0266861,36.8555657],[-83.0727071,36.8545314],[-83.0751937,36.8407346],[-83.1021953,36.827974],[-83.0983703,36.8135235],[-83.1043711,36.8039387],[-83.1331616,36.7845165],[-83.1324713,36.7642628],[-83.1255221,36.7615825],[-83.1351114,36.7425508],[-83.1946027,36.7394301],[-83.3094021,36.710701],[-83.4248145,36.6673015],[-83.529612,36.666184],[-83.577312,36.641784],[-83.645213,36.624183],[-83.6753671,36.6007706]]]}}]}