{"type":"FeatureCollection","features":[{"type":"Feature","properties":{"id":"vt"},"geometry":{"type":"Polygon","coordinates":[[[-73.43774,44.045006],[-73.4076481,44.0211103],[-73.4081108,43.9304449],[-73.374051,43.875563],[-73.382046,43.855008],[-73.372247,43.845337],[-73.392492,43.820779],[-73.350645,43.77128],[-73.369498,43.744024],[-73.370486,43.724935],[-73.404436,43.690649],[-73.415765,43.651999],[-73.426517,43.642471],[-73.417826,43.62111],[-73.431071,43.586834],[-73.396246,43.567897],[-73.383908,43.57601],[-73.387413,43.590517],[-73.372976,43.604516],[-73.371779,43.624659],[-73.305477,43.627811],[-73.302273,43.60972],[-73.291001,43.599274],[-73.297359,43.579242],[-73.260502,43.566518],[-73.241298,43.532639],[-73.248348,43.516474],[-73.278355,42.837493],[-73.285347,42.834097],[-73.283584,42.814052],[-73.290963,42.801993],[-73.276094,42.746001],[-72.4584471,42.72696],[-72.4904214,42.7723469],[-72.5153925,42.7656129],[-72.5089595,42.7800558],[-72.5417205,42.8074556],[-72.5471456,42.8400114],[-72.5572359,42.8538984],[-72.5525435,42.8851811],[-72.5318719,42.8965092],[-72.5245695,42.9153794],[-72.5322719,42.9547865],[-72.4733599,42.972294],[-72.4620137,42.9825383],[-72.4630522,42.9968545],[-72.4434692,43.0071587],[-72.462855,43.0257584],[-72.4608239,43.0418403],[-72.4680151,43.0520094],[-72.4356826,43.0811687],[-72.4435169,43.1022429],[-72.432705,43.1184196],[-72.4401261,43.136187],[-72.4573918,43.147468],[-72.4525087,43.1734023],[-72.4439777,43.1795294],[-72.4504268,43.1928999],[-72.4390628,43.201006],[-72.438907,43.2518757],[-72.4162025,43.2702351],[-72.395446,43.3129288],[-72.4105403,43.3312738],[-72.3900159,43.3562398],[-72.4134081,43.3629297],[-72.4161719,43.3767801],[-72.4037965,43.3920572],[-72.3929763,43.4664066],[-72.3821253,43.478615],[-72.380921,43.4931257],[-72.3991188,43.5121352],[-72.3807243,43.5403805],[-72.3803469,43.5736252],[-72.3283244,43.6012948],[-72.3348601,43.6187479],[-72.3030858,43.6688578],[-72.2996683,43.7063744],[-72.2709889,43.7339364],[-72.2354018,43.7458458],[-72.2054716,43.770982],[-72.2055217,43.7849657],[-72.1834896,43.8086764],[-72.1889042,43.8215174],[-72.1825609,43.8340159],[-72.1848998,43.8640979],[-72.168234,43.8690873],[-72.1724286,43.8848741],[-72.1199574,43.9201112],[-72.1184554,43.9464128],[-72.0912195,43.9655091],[-72.1141122,43.9675473],[-72.1168884,43.9943772],[-72.1039422,44.0027046],[-72.1037209,44.0146482],[-72.0904884,44.0099744],[-72.0955201,44.0219022],[-72.0826661,44.0219067],[-72.0749027,44.0323903],[-72.0788535,44.0427913],[-72.0620162,44.0496071],[-72.06827,44.0573731],[-72.0484837,44.069523],[-72.0526941,44.0767488],[-72.0316452,44.0787719],[-72.0452789,44.0872766],[-72.0333508,44.0904661],[-72.031265,44.1002542],[-72.0484125,44.0968295],[-72.0555077,44.1108551],[-72.0332664,44.1319142],[-72.0420365,44.1370757],[-72.0386411,44.1566448],[-72.0661793,44.1900625],[-72.0478791,44.2389219],[-72.0596535,44.2565948],[-72.0582001,44.2700165],[-72.0684539,44.2712353],[-72.0594232,44.2859544],[-72.0330527,44.3019594],[-72.0327952,44.3204841],[-72.0040079,44.3240561],[-71.9815602,44.3373539],[-71.9345802,44.3359143],[-71.9088261,44.3481282],[-71.8712839,44.3366937],[-71.8154468,44.3542983],[-71.8144846,44.3818036],[-71.800388,44.3841804],[-71.8036346,44.3916506],[-71.7954264,44.3984339],[-71.762593,44.4070633],[-71.7431493,44.4013907],[-71.7360283,44.4102536],[-71.7040473,44.4135865],[-71.6770739,44.4273751],[-71.6785228,44.4357225],[-71.6622014,44.4397768],[-71.6542248,44.4596451],[-71.6395537,44.4642411],[-71.6451407,44.4755577],[-71.6314646,44.4843519],[-71.6244427,44.4823845],[-71.6347244,44.478347],[-71.6296384,44.4740195],[-71.6176655,44.4859298],[-71.5996581,44.4860578],[-71.5937521,44.5012845],[-71.5858023,44.4990394],[-71.5880418,44.506864],[-71.5768334,44.5024035],[-71.5941972,44.5210755],[-71.5718443,44.5375904],[-71.5973178,44.5592957],[-71.5898762,44.5658591],[-71.5598699,44.5639526],[-71.5479384,44.5709654],[-71.5532093,44.5838217],[-71.546187,44.5779598],[-71.535065,44.588342],[-71.562656,44.601377],[-71.5537585,44.6060585],[-71.5553448,44.6253776],[-71.5463691,44.6230505],[-71.5570989,44.6294308],[-71.5521498,44.62735],[-71.5469921,44.629669],[-71.5637984,44.6366607],[-71.5582488,44.6414271],[-71.5632597,44.6524906],[-71.5775681,44.6504904],[-71.5751308,44.6556684],[-71.5882805,44.6603767],[-71.5818215,44.6734969],[-71.5971693,44.6781042],[-71.5942463,44.6962041],[-71.6191928,44.722069],[-71.6174208,44.7285674],[-71.6265465,44.7283018],[-71.6328114,44.7510263],[-71.5732725,44.7909015],[-71.5686996,44.8066288],[-71.5772381,44.8152387],[-71.5512372,44.8374537],[-71.5563261,44.847903],[-71.5499658,44.8621336],[-71.511847,44.883948],[-71.5142374,44.8946611],[-71.4949998,44.9046938],[-71.4934231,44.9113978],[-71.5006484,44.9113526],[-71.5226493,44.9395761],[-71.5156888,44.9404329],[-71.5164429,44.9642262],[-71.5413692,44.9839942],[-71.5369259,44.9937805],[-71.5087599,45.0080095],[-71.4810971,45.0023696],[-71.4654134,45.0135677],[-72.3119542,45.0037886],[-72.8470056,45.016665],[-73.3431662,45.0107247],[-73.3547615,44.9867954],[-73.3381868,44.9647982],[-73.3387145,44.9190397],[-73.3573494,44.9027903],[-73.3815878,44.849223],[-73.3791569,44.8377015],[-73.3351732,44.8042567],[-73.333342,44.7872703],[-73.3656186,44.7418072],[-73.3612783,44.6949782],[-73.390231,44.618353],[-73.376849,44.599598],[-73.381848,44.589316],[-73.374389,44.575455],[-73.338751,44.548046],[-73.306707,44.500334],[-73.2933822,44.437485],[-73.315016,44.388513],[-73.334939,44.364441],[-73.3132801,44.2641387],[-73.323596,44.243897],[-73.34323,44.238049],[-73.362013,44.208545],[-73.390583,44.190886],[-73.402381,44.145856],[-73.415761,44.132826],[-73.411316,44.112686],[-73.43774,44.045006]]]}}]}