{"type":"FeatureCollection","features":[{"type":"Feature","properties":{"id":"wa"},"geometry":{"type":"Polygon","coordinates":[[[-124.8360916,48.1761173],[-124.7597801,48.1032264],[-124.7682963,48.0706295],[-124.7609943,48.0600424],[-124.7851156,48.0298186],[-124.7929717,47.9634354],[-124.7639609,47.9458457],[-124.7497452,47.9066643],[-124.7202194,47.8874438],[-124.6937407,47.848787],[-124.6367491,47.8232062],[-124.6156347,47.7925388],[-124.5768393,47.7669304],[-124.5363272,47.7204107],[-124.5660675,47.6784583],[-124.5525063,47.6438891],[-124.5063293,47.6217944],[-124.4603241,47.623877],[-124.4519127,47.5893874],[-124.4366348,47.5692386],[-124.4222153,47.4970332],[-124.4525993,47.485782],[-124.4719971,47.4673341],[-124.4781769,47.4499245],[-124.473027,47.429606],[-124.4407547,47.4047487],[-124.4386948,47.3818557],[-124.4270218,47.3669757],[-124.3587006,47.3089269],[-124.3600739,47.2908828],[-124.3487442,47.2707359],[-124.2958725,47.2459202],[-124.2768181,47.1977703],[-124.245919,47.0717678],[-124.2443741,46.9867025],[-124.2550171,46.920499],[-124.2354477,46.8939946],[-124.2084275,46.8942147],[-124.1916326,46.8835494],[-124.1628753,46.7945807],[-124.1624163,46.7472071],[-124.1283483,46.7209212],[-124.1226601,46.7068755],[-124.1201938,46.6693396],[-124.1333544,46.642369],[-124.1222015,46.5236638],[-124.1230534,46.3946444],[-124.1426911,46.2735137],[-124.1568004,46.249825],[-124.0846248,46.249825],[-124.0353859,46.2639926],[-124.0306775,46.2712151],[-124.036567,46.290938],[-124.0213576,46.2923965],[-123.9296137,46.2386613],[-123.8719712,46.2348292],[-123.7402993,46.2691364],[-123.6881297,46.2501093],[-123.649268,46.259082],[-123.5409879,46.2603883],[-123.5012649,46.2705552],[-123.4655404,46.2628054],[-123.4322602,46.2396942],[-123.4236201,46.2194165],[-123.4284793,46.179778],[-123.3905601,46.1501114],[-123.3139177,46.1423335],[-123.2643611,46.1510841],[-123.166664,46.1889454],[-123.1209402,46.1863066],[-123.005686,46.1348355],[-122.9635401,46.1053969],[-122.904294,46.08392],[-122.8844318,46.0602539],[-122.8777645,46.0313654],[-122.8142336,45.9609497],[-122.8062329,45.9323387],[-122.811441,45.9128943],[-122.7849813,45.8681723],[-122.7956751,45.8101167],[-122.769646,45.7806725],[-122.7615066,45.7593394],[-122.7601172,45.7344784],[-122.774561,45.6806175],[-122.7640049,45.6572705],[-122.6732744,45.6175375],[-122.547887,45.5964802],[-122.4389392,45.5634539],[-122.3801054,45.5757879],[-122.3523267,45.5692883],[-122.3314924,45.5485107],[-122.2669629,45.5439556],[-122.1828777,45.5767891],[-122.1017639,45.5831776],[-122.0442622,45.6095663],[-121.9830105,45.6228989],[-121.9557869,45.6435935],[-121.9081473,45.6545656],[-121.9017585,45.6706766],[-121.8670358,45.6933977],[-121.8112019,45.7067171],[-121.7073117,45.694842],[-121.5329493,45.7265092],[-121.4239771,45.6940798],[-121.3377284,45.7048451],[-121.2157836,45.6712354],[-121.2003668,45.6498465],[-121.1964786,45.6165822],[-121.1837003,45.6064574],[-121.1455989,45.6079511],[-121.1171932,45.6182067],[-121.1201267,45.623172],[-121.0848788,45.6479391],[-121.0644757,45.6524976],[-120.9835098,45.6483647],[-120.9440339,45.6563983],[-120.9136246,45.6399984],[-120.8958379,45.6429291],[-120.8554309,45.6717347],[-120.6895512,45.7157331],[-120.6350665,45.7457167],[-120.5911594,45.7465143],[-120.5593028,45.7383201],[-120.5057592,45.6999539],[-120.4826306,45.6944124],[-120.21079,45.7259202],[-120.1706195,45.7619845],[-120.0702529,45.7851606],[-119.9657892,45.8243813],[-119.8027222,45.8476349],[-119.6699902,45.8569136],[-119.6236451,45.9056082],[-119.6006777,45.9195305],[-119.5716186,45.9254834],[-119.5245363,45.9085723],[-119.488099,45.9063668],[-119.4504145,45.9173864],[-119.3645149,45.9215525],[-119.2570888,45.939872],[-119.1955361,45.9279054],[-119.1263387,45.932789],[-119.0272314,45.969118],[-118.9872769,45.99986],[-116.9159938,45.9953489],[-116.942656,46.061],[-116.957372,46.075449],[-116.978938,46.080007],[-116.982479,46.089389],[-116.955263,46.102237],[-116.950276,46.123464],[-116.9336939,46.1390322],[-116.9346058,46.1539504],[-116.92187,46.167808],[-116.965841,46.203417],[-116.955264,46.23088],[-116.966742,46.256923],[-116.9906962,46.27611],[-116.986688,46.296662],[-117.020663,46.314793],[-117.023844,46.335976],[-117.062748,46.353624],[-117.0354685,46.4154735],[-117.042657,47.760857],[-117.0323503,48.9991971],[-123.3222397,49.0020717],[-123.0085,48.8312222],[-123.0085,48.7671111],[-123.2678889,48.694],[-123.2189444,48.5487222],[-123.1598611,48.4535],[-123.1151389,48.4228333],[-123.2484444,48.2840278],[-123.5412222,48.2245556],[-123.6790556,48.24],[-124.0120556,48.2966667],[-124.72725,48.4934444],[-124.8125303,48.3918745],[-124.7877394,48.3544677],[-124.7345173,48.3181461],[-124.7798469,48.2254796],[-124.8360916,48.1761173]]]}}]}