{"type":"FeatureCollection","features":[{"type":"Feature","properties":{"id":"wi"},"geometry":{"type":"Polygon","coordinates":[[[-92.8893149,45.6412174],[-92.8832465,45.5748961],[-92.8236964,45.5608318],[-92.7705226,45.5672904],[-92.7268263,45.5414321],[-92.7260945,45.5134699],[-92.6802244,45.4644866],[-92.6533166,45.4556517],[-92.6464624,45.4417549],[-92.6503219,45.398784],[-92.7027459,45.3589462],[-92.6989649,45.3365064],[-92.7090986,45.3218928],[-92.7626019,45.2882499],[-92.7523824,45.2654566],[-92.7606818,45.25215],[-92.7519217,45.2191765],[-92.7679675,45.1904735],[-92.7525262,45.1734675],[-92.7577459,45.1524969],[-92.7396452,45.1160567],[-92.8030024,45.0656969],[-92.7969761,45.050736],[-92.7623079,45.0245167],[-92.7707749,44.9779911],[-92.7534304,44.9424261],[-92.7585984,44.9110734],[-92.7752235,44.8964361],[-92.7642163,44.875889],[-92.7668028,44.8360369],[-92.7837211,44.7945015],[-92.8046019,44.770192],[-92.8065503,44.7501579],[-92.7367115,44.717374],[-92.6642528,44.6626947],[-92.6323859,44.6490003],[-92.6199926,44.6364251],[-92.6217975,44.6152405],[-92.601516,44.612052],[-92.586216,44.600088],[-92.569434,44.603539],[-92.549777,44.58113],[-92.54806,44.567792],[-92.518358,44.575183],[-92.492047,44.566138],[-92.336114,44.554004],[-92.314071,44.538014],[-92.291005,44.485464],[-92.232472,44.445434],[-92.056486,44.402729],[-92.038147,44.388731],[-91.9636,44.362112],[-91.9166245,44.3192552],[-91.913574,44.310392],[-91.924613,44.291815],[-91.896388,44.27469],[-91.88704,44.251772],[-91.892698,44.231105],[-91.8714034,44.1977363],[-91.8434224,44.186722],[-91.8065912,44.1577831],[-91.7516237,44.1337724],[-91.721552,44.130342],[-91.710597,44.12048],[-91.707491,44.103906],[-91.68153,44.0974],[-91.647873,44.064109],[-91.6124954,44.0505894],[-91.59207,44.031372],[-91.4383714,44.000499],[-91.406011,43.963929],[-91.366642,43.937463],[-91.357426,43.917231],[-91.2841932,43.8477203],[-91.2609155,43.7898798],[-91.2445448,43.7753956],[-91.2674253,43.7120386],[-91.273252,43.666623],[-91.262397,43.64176],[-91.268748,43.615348],[-91.231865,43.581822],[-91.243183,43.540309],[-91.217353,43.512474],[-91.216035,43.481142],[-91.233367,43.455168],[-91.203144,43.419805],[-91.19767,43.395334],[-91.21477,43.365874],[-91.203964,43.349852],[-91.107237,43.313645],[-91.07371,43.274746],[-91.072649,43.262129],[-91.057918,43.255366],[-91.066398,43.239293],[-91.12217,43.197255],[-91.1462,43.152405],[-91.177932,43.128875],[-91.174692,43.038713],[-91.14655,42.963345],[-91.144706,42.905964],[-91.100565,42.883078],[-91.0929781,42.8435361],[-91.0777927,42.8350803],[-91.069549,42.769628],[-91.060261,42.761847],[-91.065783,42.753387],[-91.053733,42.738238],[-91.035418,42.73734],[-91.026786,42.724228],[-90.949213,42.685573],[-90.921155,42.685406],[-90.709204,42.636078],[-90.6851971,42.589062],[-90.6435783,42.5420961],[-90.636727,42.518702],[-90.6409949,42.5079428],[-89.7094364,42.5053084],[-88.8040138,42.4920362],[-87.0199244,42.4935004],[-87.147166,43.379859],[-87.125079,43.670445],[-87.013234,44.131905],[-86.686288,44.881002],[-86.49993,45.0808],[-86.249548,45.236125],[-86.754236,45.44361],[-87.101133,45.44423],[-87.17117,45.35254],[-87.315422,45.240657],[-87.405694,45.201969],[-87.442508,45.076434],[-87.659952,45.107512],[-87.683902,45.144135],[-87.736104,45.172244],[-87.74181,45.197469],[-87.726198,45.209391],[-87.724992,45.23214],[-87.711339,45.239965],[-87.71045,45.259324],[-87.69878,45.26942],[-87.697652,45.28255],[-87.648126,45.339396],[-87.65735,45.368754],[-87.693956,45.389893],[-87.754104,45.349442],[-87.832612,45.352249],[-87.850133,45.340435],[-87.869167,45.366049],[-87.875845,45.365017],[-87.870367,45.356267],[-87.888052,45.354697],[-87.871485,45.371546],[-87.875424,45.379373],[-87.849322,45.403872],[-87.861697,45.434473],[-87.8132455,45.4635826],[-87.792769,45.499967],[-87.802241,45.513059],[-87.8033518,45.5385577],[-87.8337329,45.5610452],[-87.829348,45.568777],[-87.792372,45.563055],[-87.786766,45.582828],[-87.777199,45.588498],[-87.780845,45.614599],[-87.79588,45.618846],[-87.8251286,45.652987],[-87.8234439,45.6627675],[-87.781623,45.67328],[-87.781419,45.681483],[-87.809075,45.699717],[-87.8091364,45.7097756],[-87.85548,45.726943],[-87.862211,45.745018],[-87.876898,45.754379],[-87.963452,45.75822],[-87.9897223,45.7711914],[-87.98087,45.776977],[-87.991447,45.795393],[-88.072167,45.780085],[-88.094754,45.785755],[-88.107608,45.80304],[-88.130129,45.809708],[-88.1344238,45.8225675],[-88.0705133,45.8725907],[-88.101264,45.882282],[-88.106624,45.902213],[-88.094927,45.915323],[-88.102461,45.921546],[-88.126227,45.921693],[-88.1475714,45.9373794],[-88.1698726,45.9394253],[-88.1918935,45.9526513],[-88.2098257,45.9442775],[-88.237106,45.948278],[-88.246894,45.963532],[-88.291981,45.95109],[-88.319698,45.963626],[-88.3274639,45.9552151],[-88.330578,45.966508],[-88.380503,45.991765],[-88.4160832,45.9751677],[-88.458672,45.999514],[-88.489355,45.991367],[-88.514692,46.020019],[-88.565663,46.015679],[-88.58827,46.005098],[-88.601178,46.01777],[-88.615957,45.987896],[-88.670827,45.988547],[-88.663483,45.992702],[-88.679073,46.013699],[-88.718314,46.013182],[-88.721261,46.022221],[-88.73898,46.027459],[-88.7594943,46.0195247],[-88.770621,46.025561],[-88.7802204,46.0151566],[-88.7791892,46.0315113],[-88.7965575,46.033645],[-88.7961167,46.023389],[-88.8161869,46.0203401],[-89.091741,46.1383883],[-90.12143,46.337425],[-90.118703,46.359345],[-90.158369,46.409454],[-90.16742,46.441705],[-90.1784841,46.4403585],[-90.1784739,46.4577407],[-90.190792,46.459816],[-90.188834,46.468919],[-90.204212,46.478309],[-90.216637,46.501637],[-90.230918,46.501529],[-90.231236,46.509893],[-90.272551,46.504512],[-90.27694,46.524447],[-90.316554,46.516896],[-90.309441,46.537285],[-90.33223,46.553432],[-90.344053,46.552059],[-90.339404,46.549288],[-90.347227,46.548988],[-90.350184,46.5371437],[-90.368229,46.541132],[-90.393262,46.532433],[-90.4185348,46.5661318],[-89.9500022,47.2916659],[-90.6541666,47.3097224],[-91.5236106,46.902777],[-92.020289,46.704039],[-92.089493,46.749237],[-92.116414,46.748653],[-92.14329,46.73464],[-92.1499183,46.7158105],[-92.189091,46.717541],[-92.204691,46.704041],[-92.205192,46.698341],[-92.183091,46.695241],[-92.176091,46.686341],[-92.2047613,46.6668301],[-92.207092,46.651941],[-92.2427509,46.6491584],[-92.2567396,46.6586616],[-92.270654,46.6506559],[-92.2920282,46.6679688],[-92.294033,46.0743771],[-92.332912,46.062697],[-92.351524,46.0156552],[-92.428555,46.024241],[-92.442259,46.0160336],[-92.4695243,45.973335],[-92.5276917,45.9828629],[-92.5499664,45.9676392],[-92.5514734,45.9518745],[-92.6385755,45.934234],[-92.6393151,45.9244398],[-92.6589164,45.9233044],[-92.6768713,45.9059836],[-92.7126547,45.8914625],[-92.7382423,45.8617632],[-92.7394808,45.8463423],[-92.7646345,45.8307293],[-92.7573189,45.8068494],[-92.7758817,45.790233],[-92.7833052,45.7649609],[-92.8096925,45.7443748],[-92.8685025,45.7182816],[-92.8893149,45.6412174]]]}}]}