{"type":"FeatureCollection","features":[{"type":"Feature","properties":{"id":"wv"},"geometry":{"type":"Polygon","coordinates":[[[-82.644739,38.165487],[-82.637306,38.13905],[-82.622125,38.133414],[-82.620351,38.121477],[-82.587782,38.108879],[-82.584039,38.090663],[-82.551259,38.070799],[-82.5173512,38.0012039],[-82.487732,37.99833],[-82.483871,37.984505],[-82.464257,37.983412],[-82.46938,37.973059],[-82.484413,37.969895],[-82.471801,37.959119],[-82.48512,37.946044],[-82.4978001,37.9454949],[-82.48916,37.937963],[-82.5021677,37.9331196],[-82.4804681,37.9262598],[-82.488191,37.9180688],[-82.475534,37.912038],[-82.474574,37.900295],[-82.462881,37.914832],[-82.419781,37.883821],[-82.417679,37.870658],[-82.407459,37.867475],[-82.424264,37.861709],[-82.414651,37.85626],[-82.420207,37.846425],[-82.39968,37.829935],[-82.401652,37.810091],[-82.386586,37.818212],[-82.377393,37.803009],[-82.339705,37.785509],[-82.337596,37.775369],[-82.323696,37.775028],[-82.331162,37.763125],[-82.311642,37.764294],[-82.333581,37.743283],[-82.296634,37.702403],[-82.303953,37.67576],[-82.294737,37.678277],[-82.288174,37.668227],[-82.282297,37.675826],[-82.257111,37.656749],[-82.23939,37.661465],[-82.216691,37.641329],[-82.21349,37.625408],[-82.187298,37.626935],[-82.191444,37.644378],[-82.175264,37.647971],[-82.172446,37.632589],[-82.18143,37.621842],[-82.164191,37.620192],[-82.169057,37.609869],[-82.156741,37.609202],[-82.156718,37.59279],[-82.131977,37.593537],[-82.127321,37.586667],[-82.127303,37.572681],[-82.144648,37.568315],[-82.133299,37.552996],[-82.116584,37.559588],[-82.103127,37.560097],[-82.102893,37.553046],[-82.07503,37.555824],[-82.0637366,37.5361757],[-82.0459067,37.5281146],[-82.0427788,37.5480888],[-82.0095473,37.5330916],[-81.999256,37.5430828],[-81.9944913,37.5379451],[-81.9699842,37.5467766],[-81.9679688,37.5332727],[-81.943686,37.5308608],[-81.944278,37.5132773],[-81.9336417,37.5196691],[-81.9263899,37.5146363],[-81.9529634,37.5014285],[-81.9534611,37.4915084],[-81.9909687,37.4843152],[-81.9955594,37.4696716],[-81.9863378,37.4544978],[-81.9760089,37.4570938],[-81.9701199,37.4475574],[-81.9356818,37.4385575],[-81.9388621,37.4219888],[-81.922941,37.4112584],[-81.9366625,37.3807323],[-81.9334295,37.3692555],[-81.8966932,37.331922],[-81.877876,37.3316929],[-81.860304,37.315783],[-81.8656863,37.3090963],[-81.8543109,37.3063092],[-81.8498367,37.2851818],[-81.8255914,37.2790105],[-81.8004291,37.2856736],[-81.7733725,37.2739018],[-81.7572951,37.2760259],[-81.741031,37.2544201],[-81.7400737,37.237573],[-81.722845,37.2402693],[-81.6781083,37.2014139],[-81.554604,37.2079072],[-81.5456024,37.2200431],[-81.5075922,37.2336605],[-81.4988991,37.2580325],[-81.4804799,37.2510316],[-81.4478996,37.2721291],[-81.416395,37.2731707],[-81.3941074,37.3163613],[-81.3728552,37.3200091],[-81.3652762,37.3377501],[-81.225097,37.2348697],[-81.167029,37.262881],[-81.09482,37.28264],[-80.979589,37.302279],[-80.981322,37.293465],[-80.973889,37.291444],[-80.947896,37.295872],[-80.849451,37.346909],[-80.883248,37.383933],[-80.862761,37.411829],[-80.859556,37.429568],[-80.837678,37.425658],[-80.806129,37.398074],[-80.784188,37.394587],[-80.770082,37.372363],[-80.7162094,37.3885041],[-80.552036,37.473563],[-80.511391,37.4816738],[-80.492981,37.457749],[-80.494867,37.43507],[-80.475601,37.422949],[-80.371952,37.474069],[-80.36317,37.480001],[-80.366838,37.484879],[-80.299789,37.508271],[-80.282385,37.533517],[-80.309346,37.527381],[-80.330306,37.536244],[-80.312393,37.546239],[-80.328504,37.564315],[-80.258919,37.595499],[-80.2208626,37.6277744],[-80.2672926,37.6460507],[-80.306957,37.689701],[-80.2823285,37.6977974],[-80.2531248,37.7257846],[-80.2627161,37.7383439],[-80.2574079,37.7561302],[-80.2299276,37.7784714],[-80.2165004,37.7757489],[-80.2276961,37.797808],[-80.1928774,37.8347091],[-80.1795483,37.8393805],[-80.1828447,37.8509019],[-80.161916,37.8752344],[-80.1179288,37.8976894],[-80.1028395,37.9189362],[-79.9993839,37.9949072],[-79.9716019,38.0352327],[-79.9543694,38.0804],[-79.9263924,38.1065492],[-79.9389482,38.111615],[-79.9452569,38.1322396],[-79.9327467,38.1361592],[-79.918668,38.1547798],[-79.9200765,38.1825289],[-79.8973351,38.1933801],[-79.8452073,38.2410852],[-79.7891054,38.2682074],[-79.7917128,38.2847171],[-79.8101235,38.3070024],[-79.7731113,38.3356037],[-79.7645544,38.3564125],[-79.7416732,38.3532585],[-79.7257317,38.3636844],[-79.7299613,38.3810328],[-79.6898204,38.4312732],[-79.6976004,38.4873491],[-79.6804128,38.5106679],[-79.6704394,38.5079058],[-79.6621605,38.5152641],[-79.6730829,38.5288605],[-79.6700444,38.5506068],[-79.6492004,38.5915278],[-79.5373206,38.5510974],[-79.4765736,38.4571272],[-79.312277,38.411876],[-79.282971,38.418095],[-79.282762,38.431647],[-79.254435,38.455949],[-79.242641,38.454168],[-79.2395327,38.470531],[-79.210591,38.492913],[-79.205859,38.524521],[-79.170958,38.56812],[-79.129757,38.655017],[-79.092955,38.659517],[-79.084355,38.686516],[-79.092755,38.702315],[-79.072555,38.747513],[-79.051554,38.772613],[-79.054954,38.785713],[-79.027253,38.792113],[-79.019553,38.817912],[-79.006552,38.823712],[-78.998171,38.847353],[-78.869615,38.7627861],[-78.786025,38.887187],[-78.759085,38.900529],[-78.738921,38.927283],[-78.717076,38.936028],[-78.718647,38.904561],[-78.680456,38.925313],[-78.646589,38.968138],[-78.638423,38.966819],[-78.625672,38.982575],[-78.601655,38.964603],[-78.550467,39.018065],[-78.571901,39.031995],[-78.49516,39.100992],[-78.459869,39.113351],[-78.427294,39.152726],[-78.403697,39.167451],[-78.426315,39.182762],[-78.424905,39.193301],[-78.438651,39.198049],[-78.399669,39.243874],[-78.419422,39.257476],[-78.339284,39.348605],[-78.366867,39.35929],[-78.343214,39.388807],[-78.359918,39.409028],[-78.346718,39.427618],[-78.353227,39.436792],[-78.346546,39.442616],[-78.347087,39.466012],[-77.8281485,39.1322818],[-77.7936852,39.210119],[-77.7714439,39.2366274],[-77.7701196,39.2561709],[-77.757596,39.2649452],[-77.7385604,39.3080532],[-77.719029,39.321125],[-77.7607335,39.3399623],[-77.7434759,39.3595494],[-77.7527255,39.3820684],[-77.7360891,39.3920248],[-77.753724,39.42393],[-77.803205,39.437111],[-77.7852976,39.4450976],[-77.7981856,39.460452],[-77.7776489,39.4617188],[-77.7956174,39.4713231],[-77.7971638,39.4800682],[-77.765993,39.495724],[-77.781608,39.499067],[-77.802845,39.489339],[-77.8453999,39.4980121],[-77.8463741,39.5045707],[-77.8257716,39.5165016],[-77.8244247,39.5279302],[-77.8367355,39.5318879],[-77.8434642,39.5174123],[-77.8628528,39.5145517],[-77.8651681,39.5382399],[-77.8880116,39.5537435],[-77.878548,39.563408],[-77.8359707,39.566627],[-77.8297641,39.5871727],[-77.8340003,39.6031154],[-77.8850351,39.6157691],[-77.8811274,39.6009341],[-77.89157,39.5976285],[-77.9236129,39.6049699],[-77.9410671,39.6189054],[-77.9358347,39.5981154],[-77.9443152,39.5844044],[-77.9553065,39.608083],[-77.9772726,39.5995376],[-78.0064846,39.601337],[-78.0544767,39.6511592],[-78.1050212,39.6815768],[-78.1821683,39.6951327],[-78.2020265,39.6768798],[-78.232631,39.673616],[-78.2235832,39.6608857],[-78.2542061,39.6400286],[-78.2665752,39.6188571],[-78.3555583,39.6407067],[-78.3555957,39.6262163],[-78.3821934,39.6277273],[-78.3754575,39.608228],[-78.4295491,39.6234587],[-78.4311837,39.6143694],[-78.39495,39.5845037],[-78.407791,39.578651],[-78.4437326,39.5915224],[-78.4570269,39.5872699],[-78.4539556,39.574141],[-78.4168019,39.548423],[-78.437072,39.5535344],[-78.4379627,39.5386392],[-78.4609777,39.5508853],[-78.4485373,39.5397528],[-78.4617789,39.5370132],[-78.4617832,39.5218996],[-78.4713671,39.5161045],[-78.5228974,39.5250269],[-78.5657776,39.5195089],[-78.5879669,39.5281184],[-78.5912078,39.5369729],[-78.654391,39.5345762],[-78.6895444,39.5459853],[-78.7242287,39.5639406],[-78.7332461,39.5865751],[-78.7571732,39.5810729],[-78.7779035,39.601422],[-78.7331949,39.6146144],[-78.7471917,39.6268874],[-78.7634189,39.6190383],[-78.7777327,39.6219564],[-78.7663049,39.6484289],[-78.7809881,39.636979],[-78.7952336,39.6369298],[-78.8015979,39.6276851],[-78.7960291,39.6063622],[-78.8090682,39.6082509],[-78.825579,39.5894533],[-78.8158872,39.5628411],[-78.8390819,39.5671247],[-78.8705266,39.5389453],[-78.8748403,39.5227535],[-78.8926243,39.5244514],[-78.8922431,39.5139374],[-78.9051924,39.5118323],[-78.9166959,39.4862547],[-78.9344447,39.4861447],[-78.9418711,39.4702591],[-78.9586288,39.4631996],[-78.9564234,39.4403835],[-78.9655569,39.438416],[-79.0181114,39.4678308],[-79.0309118,39.4653224],[-79.0469869,39.4835111],[-79.0572327,39.470691],[-79.0677475,39.4801855],[-79.0830372,39.4714047],[-79.1026317,39.4762408],[-79.0945685,39.4647545],[-79.1079352,39.4612248],[-79.1029144,39.4504549],[-79.1168899,39.4389439],[-79.1107282,39.4320049],[-79.1288497,39.429655],[-79.1275363,39.4178142],[-79.1417342,39.4170693],[-79.1432637,39.4052521],[-79.1595065,39.4167867],[-79.166539,39.4008972],[-79.1622996,39.3880236],[-79.1801218,39.3960795],[-79.177096,39.3891158],[-79.1978609,39.3881007],[-79.2141536,39.3634262],[-79.2562652,39.3570248],[-79.2537826,39.3370528],[-79.2683019,39.3361455],[-79.2818109,39.3231503],[-79.2901385,39.2992641],[-79.314375,39.3044758],[-79.3459271,39.2937695],[-79.3446498,39.2848591],[-79.3870511,39.2677285],[-79.4250729,39.2345084],[-79.4259355,39.2250251],[-79.4730978,39.2019282],[-79.4870169,39.2058766],[-79.4767594,39.7211311],[-80.5191235,39.7212492],[-80.518991,40.638801],[-80.576704,40.614223],[-80.5989441,40.6252894],[-80.627171,40.619936],[-80.6680203,40.5812873],[-80.627507,40.535793],[-80.6182975,40.5022985],[-80.5965995,40.4761054],[-80.6132957,40.4357771],[-80.6142849,40.4068621],[-80.6340646,40.3911477],[-80.6085965,40.3734084],[-80.6124739,40.3433104],[-80.6015659,40.3148588],[-80.6163663,40.2909734],[-80.6207491,40.2642043],[-80.65387,40.2439666],[-80.6693056,40.1983654],[-80.7044672,40.1542776],[-80.7088736,40.1002514],[-80.7384605,40.0773173],[-80.7304578,40.0403672],[-80.7419763,40.0084725],[-80.740139,39.970795],[-80.7640933,39.9495752],[-80.7555859,39.9128472],[-80.7620693,39.9079581],[-80.7940981,39.9192839],[-80.8069909,39.9156501],[-80.8091185,39.9036455],[-80.7911884,39.866203],[-80.824276,39.847159],[-80.8254515,39.7996843],[-80.8691221,39.7667356],[-80.829831,39.7119065],[-80.833882,39.703497],[-80.8636086,39.6917836],[-80.8664646,39.6531186],[-80.8793134,39.6217568],[-80.9304718,39.6161659],[-80.972649,39.5890537],[-81.071025,39.515608],[-81.1319507,39.4464809],[-81.1844791,39.4323842],[-81.217315,39.38759],[-81.2693109,39.3860736],[-81.3443473,39.3471127],[-81.3749417,39.3420116],[-81.3923878,39.3508304],[-81.4148926,39.3964563],[-81.4374275,39.409142],[-81.4553618,39.409544],[-81.5071027,39.3707048],[-81.5480579,39.3520176],[-81.5595463,39.3357609],[-81.56989,39.2682144],[-81.6473661,39.2773996],[-81.6843366,39.2704222],[-81.696914,39.2559003],[-81.692395,39.226443],[-81.726973,39.215068],[-81.7372158,39.1940626],[-81.7561501,39.1803103],[-81.7427648,39.1440769],[-81.7466519,39.0959826],[-81.7747668,39.0787245],[-81.8137039,39.0793417],[-81.803355,39.047678],[-81.7641678,39.0146845],[-81.781989,38.9635527],[-81.7566882,38.9370513],[-81.7630386,38.9245064],[-81.7843075,38.9259554],[-81.8080858,38.9436438],[-81.8268795,38.9463807],[-81.8439834,38.9287414],[-81.8460777,38.9060744],[-81.8574148,38.8913078],[-81.889233,38.874279],[-81.9046474,38.8768009],[-81.9284858,38.8955938],[-81.8988538,38.9334425],[-81.9325445,38.9874503],[-81.9512524,38.9962253],[-81.9783534,38.9925563],[-81.99108,39.0183817],[-82.005509,39.029184],[-82.0373829,39.0242707],[-82.051563,38.994378],[-82.0913613,38.9739072],[-82.1118055,38.9322179],[-82.1432388,38.898025],[-82.1391372,38.8644832],[-82.1473801,38.8370314],[-82.1632285,38.8234033],[-82.192926,38.8140912],[-82.221566,38.787187],[-82.218481,38.770701],[-82.1963806,38.7536916],[-82.1828408,38.7109243],[-82.1913821,38.6822685],[-82.1725412,38.6276432],[-82.1770044,38.6043218],[-82.2041483,38.5917946],[-82.2621484,38.598201],[-82.2902601,38.5803689],[-82.304223,38.496308],[-82.318111,38.457876],[-82.3306307,38.4443542],[-82.3893282,38.4344044],[-82.4074278,38.4395812],[-82.5427055,38.4033647],[-82.577176,38.40877],[-82.5934207,38.4218619],[-82.597979,38.344909],[-82.572691,38.318801],[-82.583056,38.296829],[-82.574656,38.263873],[-82.584001,38.246371],[-82.604625,38.247662],[-82.612216,38.236297],[-82.598437,38.217393],[-82.611343,38.171548],[-82.644739,38.165487]]]}}]}