{"type":"FeatureCollection","features":[{"type":"Feature","properties":{"id":"wy"},"geometry":{"type":"Polygon","coordinates":[[[-111.0545859,45.0009381],[-111.0440889,43.2046978],[-111.0468088,40.9978699],[-104.0531883,41.0016826],[-104.0577568,44.9975418],[-105.913156,45.0003304],[-105.9281663,44.9934373],[-106.2636092,44.9937168],[-107.4411226,45.0012394],[-109.0824287,44.9994398],[-109.1032859,45.0058281],[-110.111013,45.0032464],[-110.1978222,44.9965889],[-110.3656625,45.0004946],[-110.4057702,44.9943536],[-110.7044361,44.9921662],[-110.786062,45.0008671],[-111.0545859,45.0009381]]]}}]}